name,long,lat,address,nb_items,equipment,id,url,facilities,about
Achilles Crescent Reserve,174.795749627387,-36.8139374812371,"13 Achilles Crescent, Auckland",3,Module-Small-Jnr<br>Seesaw-Spring<br>Swing,10960,http://www.aucklandcity.govt.nz/whatson/places/parksonline/detail2.asp?pParkId=10113,"playground, toilets",Local Park - Leisure
Aitken Reserve,174.752068856474,-36.8676251378544,"5A Aitken Terrace, Auckland",2,Module<br>Swing T bar,20869,http://www.aucklandcity.govt.nz/whatson/places/parksonline/detail2.asp?pParkId=10,Playground,Local small open space.
Alan Reserve,174.617711401182,-36.8637779072271,"Alan Avenue, Auckland",3,Modern Modular<br>Spica<br>Swing Double,22672,http://www.aucklandcity.govt.nz/whatson/places/parksonline/detail2.asp?pParkId=10129,playground,Local Park - Leisure
Alexander Recreation Reserve,174.744704649051,-36.435075517609,"42 Alexander Road, Auckland",1,Swing,23515,http://www.aucklandcity.govt.nz/whatson/places/parksonline/detail2.asp?pParkId=10144,playground,
Algies Bay Reserve,174.743716408903,-36.4334504491242,"30 Gordon Craig Place, Auckland",4,Climbing module - pirate tower<br>Seasaw<br>Slide Module-hex tower&mega slide<br>Swing snr,11232,http://www.aucklandcity.govt.nz/whatson/places/parksonline/detail2.asp?pParkId=10147,"BBQ,playground, toilets",
Alice Park,174.898470406018,-37.0261830953463,"21R Beaumonts Way, Auckland",3,Playground-Timber sawn & concrete<br>Moden Modular-Small<br>Spatial Nets,21392,http://www.aucklandcity.govt.nz/whatson/places/parksonline/detail2.asp?pParkId=10149,playground,Local Park - Leisure
Allenby Reserve - Narrow Neck,174.801094646374,-36.8219565051275,"R 1 Allenby Avenue, North Shore",4,Overhead Event<br>Seesaw-Spring<br>Slide<br>Swing,12941,,,
Amanda Reserve,174.729618128757,-36.4239667085073,"2 Amanda Lane, Snells Beach",2,Module-Medium<br>Swing,22351,http://www.aucklandcity.govt.nz/whatson/places/parksonline/detail2.asp?pParkId=10156,playground,
Ambrico Reserve,174.680649211236,-36.9115577555014,"Ambrico Place, Auckland",4,Junior module<br>Modern Modular<br>Springy Animal<br>Swing Double,22674,http://www.aucklandcity.govt.nz/whatson/places/parksonline/detail2.asp?pParkId=10159,playground,Local Park - Leisure
Anarahi Park,174.770101967706,-36.9446633384991,"16R Waterlea Avenue, Auckland",2,Modern modular (large)<br>Swing unit,21308,http://www.aucklandcity.govt.nz/whatson/places/parksonline/detail2.asp?pParkId=10164,playground,Local Park - Leisure
Anderson Park,174.708645914288,-36.8922800010871,"19A Preston Avenue, Auckland",2,Dome<br>Swings,10219,http://www.aucklandcity.govt.nz/whatson/places/parksonline/detail2.asp?pParkId=10167,,Local Park - Leisure
Anderson Park,174.708645914288,-36.8922800010871,"19A Preston Avenue, Auckland",2,Dome<br>Swings,10219,http://www.aucklandcity.govt.nz/whatson/places/parksonline/detail2.asp?pParkId=70,Playground,Local green open space.
Anderson Park (Grand Vue Road Reserve),174.89301277276,-37.012757752478,"58R Grande Vue Road, Auckland",2,Modern Modular (Large)<br>Swing,20570,,,
Annison Green,174.642011521303,-36.9257891974947,"5 Annison Avenue, Auckland",4,Modern Modular<br>Single Seesaw<br>Single Slide<br>Swing Double,22675,http://www.aucklandcity.govt.nz/whatson/places/parksonline/detail2.asp?pParkId=10172,playground,Local Park - Leisure
Aramoana Reserve,174.785068063481,-36.8171045564736,"76 Aramoana Avenue, Auckland",2,Slide<br>Swing,20447,http://www.aucklandcity.govt.nz/whatson/places/parksonline/detail2.asp?pParkId=10180,playground,Local Park - Coastal
Arch Hill Scenic Reserve,174.736464041858,-36.8677322865492,"89 Ivanhoe Road, Auckland",3,Dome<br>Module<br>Swings,21356,http://www.aucklandcity.govt.nz/whatson/places/parksonline/detail2.asp?pParkId=100,There are two mountain bike trails in the reserve for riders to enjoy mountain biking in the heart of the city. 'Training Wheels' is a beginner trail for families and riders of all ages. 'Twist and Shout' is an intermediate trail for more advanced riders.,"Scenic reserve with walkway linking Ivanhoe Road, Great North Road and Bond Street."
Ariki Reserve,174.729510821591,-36.4179669470964,"Ariki Drive, Auckland",1,Swing,22354,,,
Arline Schutz Park (Halver Park),174.900753026586,-37.0212236783548,"39 Halver Road, Auckland",2,Modern Modular (Small)<br>Swing,20812,,,
Arthur Faulkner Reserve,174.739904683405,-36.8971733147625,"33 Foch Avenue, Auckland",6,Activity panels Xylophone<br>Buzzy Bee rocker<br>Hip Hop seesaw<br>Module<br>Spinning Frame<br>Swings,10377,http://www.aucklandcity.govt.nz/whatson/places/parksonline/detail2.asp?pParkId=115,"Playground, tables",Local green open space.
Arthur S Richards Memorial Park,174.749121478706,-36.9030177508634,"43 Parau Street, Auckland",2,Module<br>Swing,20865,,,
Ascot Park,174.801651262182,-36.8859884907092,"61 Greenlane East Road, Auckland",3,Module<br>Seesaw<br>Swing,23100,http://www.aucklandcity.govt.nz/whatson/places/parksonline/detail2.asp?pParkId=125,Playground,"Small open space edged by trees and plants, and the corner of a busy area."
Avondale Central Reserve,174.696567946958,-36.8969466801376,"1951 Great North Road, Auckland",2,Modern Modular<br>Swing Double,10187,http://www.aucklandcity.govt.nz/whatson/places/parksonline/detail2.asp?pParkId=145,Playground,
Awaroa Park,174.645285873191,-36.8971341600305,"126 Awaroa Road, Auckland",3,Modern Modular<br>Playground Track<br>Swing Quad,11432,http://www.aucklandcity.govt.nz/whatson/places/parksonline/detail2.asp?pParkId=10238,playground,Local Park - Leisure
Awhitu Hall,174.582050198086,-37.0958416090971,"15 Hamilton Road, Waiuku",1,Seesaw,10568,,,
Babich Reserve,174.603483439939,-36.8731953924472,"98 Babich Road North, Auckland",8,Modern Modular<br>Modern Modular<br>Spica<br>Spiral Net Climber<br>Springy Digger<br>Springy Dolphins<br>Springy Ladybird<br>Supernova<br>Swing Double<br>Swing Double,23367,,,
Baddeleys Beach Reserve,174.755760842048,-36.3810154968714,"1 Baddeleys Beach Road, Baddeleys Beach",2,Module-Small<br>Swing,22445,http://www.aucklandcity.govt.nz/whatson/places/parksonline/detail2.asp?pParkId=10249,"playground, toilets",
Bannerman Reserve,174.732950802169,-36.8715504386348,"24 Mountain View Road, Auckland",3,Seesaw<br>Seesaw<br>Small module<br>Swing,20959,http://www.aucklandcity.govt.nz/whatson/places/parksonline/detail2.asp?pParkId=195,Playground,Local green open space.
Barron Green,174.678879841568,-36.9316156566069,"1 Barron Drive, Auckland",5,Junior module<br>Modern Modular Larg<br>Spinner<br>Springy Animal<br>Swing Quad,11455,http://www.aucklandcity.govt.nz/whatson/places/parksonline/detail2.asp?pParkId=10269,"playground, toilets",Local Park - Leisure
Barrys Reserve,174.656846628338,-36.884386069616,"16 Barrys Road, Auckland",3,Modern Modular<br>Single Seesaw<br>Swing Double,22637,http://www.aucklandcity.govt.nz/whatson/places/parksonline/detail2.asp?pParkId=10272,playground,Local Park - Leisure
Bath Street Reserve,174.805935081169,-36.8200746664091,"2 Bath Street, North Shore",3,Seesaw-Spring<br>Slide<br>Swing,20026,http://www.aucklandcity.govt.nz/whatson/places/parksonline/detail2.asp?pParkId=10275,"playground, toilets",Local Park - Coastal
Bayside Drive,174.737695507984,-36.7240362092989,"7 Crestview Place, Auckland",6,Module-Small<br>Spinner bowl<br>Spinner<br>Swing<br>Swing hammock large rope<br>Swing-Hammock-small black,22074,,,
Bayswater Park,174.782255312746,-36.8127428270606,"131 Bayswater Avenue, Auckland",6,Fitness device<br>Body curl<br>Log jump<br>Fitness device<br>Fitness device<br>Step-up<br>Module-Medium<br>Swing,11141,http://www.aucklandcity.govt.nz/whatson/places/parksonline/detail2.asp?pParkId=10282,"playground, toilets",Local Park - Sport
Belle Verde Reserve,174.741925078648,-36.7483119629673,"10 Belle Verde Drive, Auckland",2,Module-Medium-Jnr<br>Swing,20846,http://www.aucklandcity.govt.nz/whatson/places/parksonline/detail2.asp?pParkId=10301,playground,Local Park - Leisure
Bellevue Reserve,174.752806616886,-36.8738512848997,"160 Dominion Road, Auckland",3,Module<br>Rotating Net<br>Swings,21015,http://www.aucklandcity.govt.nz/whatson/places/parksonline/detail2.asp?pParkId=240,"Playground, tables",Local green open space.
Bellgrove Reserve West,174.684164269455,-36.8942604862314,"15A Bellgrove Place, Auckland",3,Roundabout<br>Single Slide<br>Swing Double,21636,,,
Belmont Rose Gardens,174.790292311786,-36.8074317068854,"152 Lake Road, Auckland",2,Module-Medium<br>Swing,23311,,,
Bert Henham Park,174.841755063922,-36.9321891139382,"645 Mount Wellington Highway, Auckland",4,Module<br>Slide<br>Spinner<br>Swing,21705,http://www.aucklandcity.govt.nz/whatson/places/parksonline/detail2.asp?pParkId=245,"To the east of Mt Richmond are the McLennan Hills, small cones also in a larger explosion crater which produced much lava in flows towards both the Manukau Harbour and Tamaki River. These two volcanoes, together with Sturges Park at Otahuhu, form a dam separating the waters of the Waitemata and Manukau Harbours.",Mt Richmond is a recorded archaeological site. It is a 'castle and moat' volcano in which the scoria mount (castle) lies against one wall of the moat.
Berwyn Reserve,174.934420133035,-37.0343080924581,"50R Berwyn Avenue, Auckland",2,Modern Modular (Large)<br>Swing,21476,,,
Bill Moir Reserve,174.637529326458,-36.7796641527519,"64 Waimarie Road, Auckland",2,Module<br>Swing,22649,http://www.aucklandcity.govt.nz/whatson/places/parksonline/detail2.asp?pParkId=10319,"playground, toilets",Local Park - Leisure
Bledisloe Park - Franklin,174.903335842428,-37.2052392413173,"86 Queen Street, Pukekohe",7,Logs<br>Modern Modular (Large)<br>Rocktopus<br>Roundabout - Sit On<br>Springy Animal<br>SKAT<br>Rail<br>Rail,10531,,,
Blockhouse Bay Beach Reserve,174.70057642544,-36.9303854876661,"69 Endeavour Street, Auckland",8,Eagle's Nest<br>Mulberry Bush<br>Ship Bow<br>Ship Stern<br>Slide Long<br>Springy Animal<br>Swing Double<br>Swing Double-Junior,10391,http://www.aucklandcity.govt.nz/whatson/places/parksonline/detail2.asp?pParkId=280,"Barbecue, tables, playground, boatramp, toilets.",Heritage sites with a lot of history (Maori/European). Seawall built about 80 years ago. Lovely reserve for a picnic.
Blockhouse Bay Recreation Res,174.70755070203,-36.9175190665066,"31 Terry Street, Auckland",19,Fitness Station Balance Beam<br>Fitness Station-Chin-Up Bars<br>Fitness Station-Climbing Wall<br>Fitness Station-Dip Crunch & Cycle<br>Fitness Station-Leg Press & Sit-up Bench<br>Fitness Station-Leg Stretch<br>Fitness Station-Monkey Bars<br>Fitness Station-Muscle Blaster<br>Fitness Station-Parallel Bars<br>Fitness Station-Pull Down Ex & Rec Cycle<br>Fitness Station-Push-Up Bars<br>Fitness Station-Steps<br>Fitness Station-Stretch & Air Walker<br>Fitness Station-Vertical Ladder<br>Junior Module<br>Pommel Swing<br>Senior Module<br>Swing Double<br>Swing Double<br>Swing Quad,10368,,,
Bluebird Reserve,174.70871313621,-36.7548560491036,"82 Bluebird Crescent, Auckland",2,Module-Medium-Jnr<br>Swing,22301,http://www.aucklandcity.govt.nz/whatson/places/parksonline/detail2.asp?pParkId=10345,playground,Local Park - Leisure
Blueridge Reserve,174.637021139823,-36.8932440532653,"34 Blueridge Close, Auckland",4,Modern Modular<br>Spica<br>Springy Animal<br>Swing Double,21962,http://www.aucklandcity.govt.nz/whatson/places/parksonline/detail2.asp?pParkId=10346,playground,Local Park - Leisure
Bluestone Park,174.839066159319,-36.8858481034592,"14 Styak Street, Auckland",9,Buzzy bee rocker<br>Car springy rocker<br>Climbing module<br>Dinosour rocker<br>Hags spiker<br>Module<br>Overhead spinner<br>Stepping stone logs<br>Swings,21190,,,
Boggust Park,174.814440217038,-36.9548564080034,"55R Lenore Road, Auckland",6,Basket swing<br>Balancing walk<br>Embankment slide<br>Jungle gym<br>Stepping logs<br>Stepping logs<br>Swing Set,21651,http://www.aucklandcity.govt.nz/whatson/places/parksonline/detail2.asp?pParkId=10352,"playground, toilets",Local Park - Sport
Bond Reserve - Forrest Hill,174.745014673818,-36.7729253810758,"43 Bond Crescent, Forrest Hill",5,Module-Medium-Jnr<br>Module medium (senior)<br>Seesaw spinner<br>Seesaw-Spring<br>Swing,11064,,,
Bonnie Brae Reserve,174.821512329686,-36.8715815906149,"10 Bonnie Brae Road, Auckland",2,Module<br>Swing,23084,http://www.aucklandcity.govt.nz/whatson/places/parksonline/detail2.asp?pParkId=295,Playground,Local green open space.
Bourne Dean Recreation Reserve,174.551146243391,-36.4045018554151,"903 Kaipara Flats Road, Kaipara Flats",2,Module-Medium<br>Swing,11222,,,
Braemar Reserve,174.713378502262,-36.8816705471492,"192 Carrington Road, Auckland",3,Module<br>Springy seesaw<br>Swing T bar,21173,http://www.aucklandcity.govt.nz/whatson/places/parksonline/detail2.asp?pParkId=305,"Playground, table",Local green open space.
Brains Park,174.664055826157,-36.8959006576406,"31 Vanguard Road, Auckland",3,Modern Modular<br>Playground Track<br>Swing Double,11430,http://www.aucklandcity.govt.nz/whatson/places/parksonline/detail2.asp?pParkId=10373,"playground, toilets",Premier Park - Sport
Bramley Drive Reserve,174.881481418576,-36.8916813341395,"94R Bramley Drive, Auckland",1,Swing,10754,http://www.aucklandcity.govt.nz/whatson/places/parksonline/detail2.asp?pParkId=10374,"playground, toilets",Esplanade
Brandon Reserve - Manly,174.764978791218,-36.6331882353218,"15 Brandon Road, Auckland",2,Module-Medium-With Track Ride<br>Swing,20496,,,
Bridge Avenue Reserve,174.655260715922,-36.8606623539887,"Bridge Avenue, Auckland",2,Modern Modular<br>Swing Double,22639,http://www.aucklandcity.govt.nz/whatson/places/parksonline/detail2.asp?pParkId=10380,"playground, toilets",Local Park - Leisure
Bronzewing Reserve,174.71444365436,-36.7614405164075,"7A Bronzewing Terrace, Auckland",8,Interactive play hut<br>Module-Junior small<br>rope walk<br>Snr climber with panels<br>spinner<br>Spinner pole small<br>springy skateboard<br>Basket Swing,22304,http://www.aucklandcity.govt.nz/whatson/places/parksonline/detail2.asp?pParkId=10387,playground,Local Park - Leisure
Brown Reserve,174.745493561282,-36.8564948483995,"14 Brown Street, Auckland",1,Swings T bar,21400,http://www.aucklandcity.govt.nz/whatson/places/parksonline/detail2.asp?pParkId=310,Playground,Local green open space.
Browns Bay Beach Reserve,174.749476583629,-36.714042057646,"3 Manly Esplanade, Auckland",5,Module-Large<br>Spinner<br>Swing snr<br>Swing basket<br>Walkway Wobbly Walk Deck,11092,,,
Bruce Mclaren Memorial Park,174.620865671524,-36.8981369857348,"27 Farwood Drive, Auckland",4,Fitness Station<br>Modern Modular<br>Springy Animal<br>Swing Double,11431,http://www.aucklandcity.govt.nz/whatson/places/parksonline/detail2.asp?pParkId=10399,playground,Local Park - Leisure
Brunton Park Reserve,174.69031206761,-36.5802515784597,"17A West Hoe Road, Orewa",2,Module-Small-Jnr<br>Swing,20413,http://www.aucklandcity.govt.nz/whatson/places/parksonline/detail2.asp?pParkId=10402,playground,
Brydon Place Reserve,174.709318379304,-36.9001738971645,"16 Brydon Place, Auckland",7,Climbing Square<br>Hip Hop<br>Modern Modular<br>Spica<br>Stepping Logs<br>Supernova<br>Swing Quad,21649,http://www.aucklandcity.govt.nz/whatson/places/parksonline/detail2.asp?pParkId=10404,playground,
Brydon Place Reserve,174.709318379304,-36.9001738971645,"16 Brydon Place, Auckland",7,Climbing Square<br>Hip Hop<br>Modern Modular<br>Spica<br>Stepping Logs<br>Supernova<br>Swing Quad,21649,http://www.aucklandcity.govt.nz/whatson/places/parksonline/detail2.asp?pParkId=320,Playground,Local green open space.
Brylee Drive Reserve,174.909909256335,-37.04358809378,"12R Brylee Drive, Auckland",3,Modern Modular (Small)<br>Swing<br>Roctopus,21819,http://www.aucklandcity.govt.nz/whatson/places/parksonline/detail2.asp?pParkId=10405,playground,Local Park - Leisure
Buchanan Park,174.792664292865,-36.920770347244,"203A Arthur Street, Auckland",2,Module<br>Rocktopus,21481,http://www.aucklandcity.govt.nz/whatson/places/parksonline/detail2.asp?pParkId=325,Playground,Local green open space.
Buckingham Common,174.625850339583,-36.8204211746108,"Buisson Glade, Auckland",4,Fort/Slide<br>Modern Modular<br>Playground Track<br>Swing Triple,22507,http://www.aucklandcity.govt.nz/whatson/places/parksonline/detail2.asp?pParkId=10407,playground,Local Park - Leisure
Buckley Road Reserve,174.764360206342,-36.907814765583,"52 Buckley Road, Auckland",5,Jungle Cube<br>Junior Rocker<br>Module<br>Roundabout spinner<br>Swings,10244,,,
Burswood Park,174.895806963353,-36.9216775388295,"170R Burswood Drive, Auckland",3,Modern Modular (Large)<br>Modern Modular (Small)<br>Swing,21791,http://www.aucklandcity.govt.nz/whatson/places/parksonline/detail2.asp?pParkId=10420,playground,Local Park - Leisure
Burundi Ave Foreshore,174.857805561772,-37.0261308576812,"99R Finlayson Avenue, Auckland",4,Fitness device<br>Arms&abs<br>Arms&abs<br>Legs&abs<br>Legs&arms,21661,,,
Bushlands Park,174.711750667145,-36.7369576834358,"34 Bushlands Park Drive, Auckland",2,Module-Medium<br>Swing,22250,,,
Cadness Loop,174.74881745589,-36.798111214926,"96 Cadness Street, Auckland",4,Module-Large<br>Seesaw<br>Spacenet<br>Swing,22132,http://www.aucklandcity.govt.nz/whatson/places/parksonline/detail2.asp?pParkId=10435,playground,Local Park - Leisure
Cadness Reserve,174.747374626426,-36.8003898199388,"6 Cadness Street, Auckland",5,Airwalker<br>Cross Trainer<br>Fitness dipper<br>Module-Small<br>Swing,22135,http://www.aucklandcity.govt.nz/whatson/places/parksonline/detail2.asp?pParkId=10436,"playground, toilets",Local Park - Leisure
Cairnbrae Reserve,174.728998182865,-36.7067984667056,"24 Cairnbrae Court, Auckland",6,Module-Medium<br>Module<br>Slide<br>Springy bird<br>Swing basket<br>Swing,22098,http://www.aucklandcity.govt.nz/whatson/places/parksonline/detail2.asp?pParkId=10437,playground,Local Park - Leisure
Camelot Reserve,174.725871673268,-36.7811499302529,"38 Camelot Place, Auckland",4,Seesaw<br>Slide<br>Swing<br>Swing snr,22256,http://www.aucklandcity.govt.nz/whatson/places/parksonline/detail2.asp?pParkId=10445,playground,Local Park - Leisure
Campbells Beach Reserve,174.765103125355,-36.3829703431582,"4 Campbell Road, Auckland",2,Module-Large<br>Swing,22448,http://www.aucklandcity.govt.nz/whatson/places/parksonline/detail2.asp?pParkId=10448,"playground, toilets",
Canal Reserve,174.689116900396,-36.8936236333671,",",1,Swing Double,10279,http://www.aucklandcity.govt.nz/whatson/places/parksonline/detail2.asp?pParkId=10449,playground,
Cargill Reserve,174.96417209212,-37.0549004102637,"91R Cargill Street, Auckland",3,Modern Modular (Small)<br>Swing<br>Swing<br>Spinner,21715,http://www.aucklandcity.govt.nz/whatson/places/parksonline/detail2.asp?pParkId=10457,playground,Local Park - Leisure
Carisbrook Reserve,174.966049428039,-37.0647829304733,"152 Dominion Road, Auckland",4,Modern Modular (Small)<br>Swing<br>Swing basket<br>Tube Slide and Tower,21723,http://www.aucklandcity.govt.nz/whatson/places/parksonline/detail2.asp?pParkId=10459,playground,Local Park - Leisure
Castor Bay Beach Reserve,174.767882050991,-36.7596903243864,"3 The Esplanade, Castor Bay",1,Module-Medium,20052,http://www.aucklandcity.govt.nz/whatson/places/parksonline/detail2.asp?pParkId=10473,playground,Local Park - Coastal
Celeste Reserve,174.73292261774,-36.7681524446191,"15 Celeste Place, Auckland",3,Seesaw-Spring<br>Slide<br>Swing,20815,http://www.aucklandcity.govt.nz/whatson/places/parksonline/detail2.asp?pParkId=10479,playground,Local Park - Leisure
Celtic Crescent Reserve,174.822258454647,-36.8902271391607,"112 Celtic Crescent, Auckland",3,Large module<br>Spica<br>Swing T bar,23080,http://www.aucklandcity.govt.nz/whatson/places/parksonline/detail2.asp?pParkId=365,Playground,"This reserve has been developed as an adventure playground for children. The reserve performs a purely local function for casual, active and passive recreation, mainly for children. A number of native and exotic trees, and shrubs have been planted on this reserve."
Centennial Park,174.749716793279,-36.893277462228,"90A Marsden Avenue, Auckland",4,Module<br>Roundabout<br>Springy rocker<br>Swings,10178,http://www.aucklandcity.govt.nz/whatson/places/parksonline/detail2.asp?pParkId=10483,playground,Esplanade
Centennial Park,174.749716793279,-36.893277462228,"90A Marsden Avenue, Auckland",4,Module<br>Roundabout<br>Springy rocker<br>Swings,10178,http://www.aucklandcity.govt.nz/whatson/places/parksonline/detail2.asp?pParkId=370,"Playground, tables, toilets.",Local green open space.
Centennial Park - Waiuku,174.732097397897,-37.2492081593826,"14 Kitchener Road, Auckland",3,Balancing bars<br>Modern modular (large)<br>Swing unit,10563,,,
Centorian Reserve,174.73836683409,-36.7427203420877,"2 Centorian Drive, Auckland",3,Slide<br>Swing<br>Turnstile,22194,http://www.aucklandcity.govt.nz/whatson/places/parksonline/detail2.asp?pParkId=10484,playground,Local Park - Leisure
Ceramco Park,174.65038875628,-36.9200273001558,"Glendale Road, Auckland",4,Double Seesaw<br>Modern Modular<br>Playground Track<br>Swing Quad,11471,http://www.aucklandcity.govt.nz/whatson/places/parksonline/detail2.asp?pParkId=10489,"playground, toilets","Children will enjoy open fields for ball games or kite flying, a playground, a skate park and gentle paths for bike riding. There is a short 15-minute walk along a beautifully planted streamside track to Kaurilands Domain."
Challen Reserve,174.913493637086,-37.0396903854058,"2R Challen Close, Auckland",5,Modern Modular (Large)<br>Slide<br>Swing<br>Swing<br>Small Roundabout<br>Springy thing,23074,http://www.aucklandcity.govt.nz/whatson/places/parksonline/detail2.asp?pParkId=10490,playground,Local Park - Leisure
Chalmers Reserve,174.699143411509,-36.9008644699936,"22 Chalmers Street, Auckland",3,Modern Modular<br>Springer Double<br>Swing Double,21517,http://www.aucklandcity.govt.nz/whatson/places/parksonline/detail2.asp?pParkId=375,"Barbecue, tables, playground, boardwalk, pond",Local green open space.
Chatham Hill Reserve,174.800856257559,-36.6206833093672,"15 Cape Cod Drive, Auckland",3,Module-Medium-Medium<br>Seesaw-Springy<br>Swing,22606,http://www.aucklandcity.govt.nz/whatson/places/parksonline/detail2.asp?pParkId=10499,playground,
Christmas Beach,174.659019187173,-36.7771427695296,"86 The Terrace, Auckland",3,Module-Medium-Boat<br>Spinner<br>Swing,22512,http://www.aucklandcity.govt.nz/whatson/places/parksonline/detail2.asp?pParkId=10514,"BBQ,playground, toilets",A coastal reserve perfect for a quiet day in the sun or kayak in the harbour waters.
Church Hill Reserve,174.664477887616,-36.4013801352728,"3 Church Hill, Warkworth",2,Module-Large<br>Swing,22374,http://www.aucklandcity.govt.nz/whatson/places/parksonline/detail2.asp?pParkId=10515,playground,
Clare Place Reserve,174.804960137159,-36.9531614336244,"2R Clare Place, Auckland",4,Basket swing set<br>Climbing poles<br>Double slide<br>Wobbly bridge,23186,,,
Clarence Reserve,174.656564218159,-36.9269093460538,"Chamari Close, Auckland",2,Modern Modular<br>Swing Double,22514,http://www.aucklandcity.govt.nz/whatson/places/parksonline/detail2.asp?pParkId=10523,playground,Local Park - Leisure
Claris Playground,175.466670032336,-36.2432799323706,"80 Hector Sanderson Road, Great Barrier Island",6,Climbing module<br>Module<br>Module<br>Slide<br>Springy animal<br>Swing<br>Xylophone,10425,,,
Clarks Beach Boat Ramp,174.689063866553,-37.1403637048631,"Torkar Road, Auckland",2,Modern Modular (Small)<br>Swing,10529,,,
Clavoy Park,174.908120725829,-36.9470836288554,"5R Clavoy Place, Auckland",6,Swing Unit<br>Large modular<br>Roundabout<br>Slide<br>Spinning Cup<br>Spinning Cup<br>Swing unit,20907,http://www.aucklandcity.govt.nz/whatson/places/parksonline/detail2.asp?pParkId=10533,playground,Local Park - Leisure
Clendon Community Centre Reserve,174.865939516101,-37.0336850013853,"17R Palmers Road, Auckland",1,Kompan Saturn (Rotating See Saw),10717,,,
Clevedon Scenic Reserve,175.036719468773,-36.9872673757913,"30R Thorps Quarry Road, Auckland",4,Rope Bridges<br>Balancing Beams<br>Monkey Bars<br>Swing Rope,10779,,,
Cliff Face Park,174.83951806491,-36.8889024187944,"25 Guard Crescent, Auckland",1,Rope swing,21194,,,
Clydesdale Park,174.931073174925,-36.9167283466253,"16R Leicester Parade, Auckland",4,Modern Modular (Large)<br>Soccer Goalpost Nets<br>Soccer Goalpost Nets<br>Spring Saw<br>Swing,20246,http://www.aucklandcity.govt.nz/whatson/places/parksonline/detail2.asp?pParkId=10557,playground,Local Park - Leisure
Coletta Esplanade,174.637426636143,-36.8637304975563,"Central Park Drive, Waitakere",1,Fitness Station-Step & Reach & Chin Up,11426,,,
Colin Lawrie Fields,174.912414719586,-37.1936295593331,"Reynolds Road, Auckland",2,Modern Modular (Large)<br>Swing Unit,10532,http://www.aucklandcity.govt.nz/whatson/places/parksonline/detail2.asp?pParkId=10568,playground,Local Park - Sport
Collins Park,174.6714526753,-36.7751600155685,"15 Greenhithe Road, Auckland",4,Egg Spinner<br>Hammock<br>Module-Large<br>Swing,10936,http://www.aucklandcity.govt.nz/whatson/places/parksonline/detail2.asp?pParkId=10569,"playground, toilets",Local Park - Sport
Commissariat Reserve,174.828127971543,-36.9143878875386,"82B Commissariat Road, Auckland",3,Artificial turf mound<br>Lunar Spinner<br>Swings,23081,http://www.aucklandcity.govt.nz/whatson/places/parksonline/detail2.asp?pParkId=395,Playground,Local green open space.
Connemara Reserve,174.641445274605,-36.8035201045503,"Connemara Court, Auckland",2,Module-Small-Jnr<br>Swing,22524,http://www.aucklandcity.govt.nz/whatson/places/parksonline/detail2.asp?pParkId=10576,playground,Premier Park - Leisure
Cooper - Lea Reserve,174.72846659988,-36.6195207284293,"17 Cooper Road, Auckland",1,Swing mega,22405,,,
Copley Reserve,174.669807123162,-36.9010376733461,"38 Copley Street, Auckland",3,Modern Modular<br>Single Slide<br>Swing Double,22525,http://www.aucklandcity.govt.nz/whatson/places/parksonline/detail2.asp?pParkId=10584,playground,Local Park - Leisure
Corban Reserve,174.623296374461,-36.89321188587,"130-136 Henderson Valley Road, Auckland",6,Dog Agility Station-AFrame<br>Dog Agility Station-Bridge<br>Dog Agility Station-Hurdle<br>Dog Agility Station-Hurdle<br>Dog Agility Station-Jump Through Hurdle<br>Dog Agility Station-Tunnel<br>Dog Agility Station-Tunnel<br>Dog Agility Station-Weave Pole,11395,,,
Corran Reserve,174.602894003661,-36.862236592504,"Corran Place, Auckland",2,Modern Modular<br>Swing Double,22527,http://www.aucklandcity.govt.nz/whatson/places/parksonline/detail2.asp?pParkId=10596,playground,Local Park - Leisure
Costley Reserve,174.7461321878,-36.8494120110617,"3 Costley Street, Auckland",4,Module<br>Seesaw<br>Spinner cup<br>Swing,21011,,,
Coxs Bay Reserve,174.725189241299,-36.852040514685,"44 West End Road, Auckland",6,Dome Climber<br>Fitness Station<br>Fitness Station<br>Fitness Station<br>Fitness Station<br>Fitness Station<br>Module - large<br>Module - small<br>Monkey bars<br>Swings,10265,,,
Coyle Park,174.704756060053,-36.8521421073104,"528 Point Chevalier Road, Auckland",12,Absail embankment<br>Activity Panel<br>Climbing rock<br>Flying Fox<br>Pyramid climbing net<br>Module<br>Module<br>Rope block activity<br>Roundabout<br>Slide<br>Springy skateboard<br>Springy skateboard<br>Swing T bar<br>Swing T bar<br>Train,10050,http://www.aucklandcity.govt.nz/whatson/places/parksonline/detail2.asp?pParkId=425,"There is significant mature coastal vegetation along the cliff top. Defined, well-structured access paths lead from the park to Pt Chevalier beach, along with a number of informal access paths down the cliffside.","Coyle Park has an open environment covering nearly 5 hectares, fantastic harbour views and a coastal edge characterised by steep cliffs and rock shelf exposed at low tide."
Craigavon Park,174.691493793203,-36.9280881285016,"82 Kinross Street, Auckland",14,Fitness Station Chin Ups<br>Fitness Station-Dog Agility Course<br>Fitness Station-Monkey Bars<br>Fitness Station-Push Ups<br>Fitness Station-Side Jumps<br>Fitness Station-Side Vaults<br>Fitness Station-Sit Ups<br>Fitness Station-Step Ups<br>Fitness Station-Weaving Poles<br>Double Bay Swings<br>Modern Modular Jnr<br>Modern Modular Lge<br>Spinner<br>Springer,10431,http://www.aucklandcity.govt.nz/whatson/places/parksonline/detail2.asp?pParkId=430,"The park caters for a range of informal recreational activities. A large grassed area on the western side contains a playground, barbecue and car park. Several tall tree specimens, mainly pine, are also dotted throughout this area.","Craigavon Park is bordered by Portage Road, Connell Street, Connaught Street and Kinross Street. It contains a diverse landscape that can be divided into approximately two-thirds regenerating native forest and one-third grassland. Its topography is flat to easy grade with the highest points located on the park boundaries."
Cranston Street Reserve,174.734812213972,-36.7063799639681,"32 Cranston Street, Auckland",2,Module-Medium-Jnr<br>Springy-4 seat,22125,http://www.aucklandcity.govt.nz/whatson/places/parksonline/detail2.asp?pParkId=10609,playground,Local Park - Leisure
Cron Reserve,174.647899700377,-36.8845773775122,"24 Tirimoana Road, Auckland",3,Modern Modular<br>Spica<br>Swing Double,22502,http://www.aucklandcity.govt.nz/whatson/places/parksonline/detail2.asp?pParkId=10619,playground,Local Park - Leisure
Cross Street Reserve,174.959683257986,-37.0579073598311,"5R Cross Street, Auckland",3,Spinner mice<br>Twister ring<br>Vertical ladder,20294,,,
Crossfield Reserve,174.867227488229,-36.8643346389177,"83 Crossfield Road, Auckland",2,Module<br>Module<br>Swings,10408,http://www.aucklandcity.govt.nz/whatson/places/parksonline/detail2.asp?pParkId=435,"Playground, boardwalk, drinking fountain, bike stands, toilets.",Huge sportspark catering to many recreational activities such as league and rugby in winter to baseball and softball in summer. The Glendowie Community Hall is adjacent to the park.
Crown Park,174.879785073266,-36.9651365319101,"45R Cobham Crescent, Auckland",3,Modern Modular (Large)<br>Spring Saw<br>Swing,20298,http://www.aucklandcity.govt.nz/whatson/places/parksonline/detail2.asp?pParkId=10623,playground,Local Park - Leisure
Crum Park,174.666229374636,-36.9276906942211,"Hilling Street, Auckland",4,Fort/Slide<br>Modern Modular<br>Single Seesaw<br>Swing Double<br>Swing Double,22482,http://www.aucklandcity.govt.nz/whatson/places/parksonline/detail2.asp?pParkId=10626,"playground, toilets",A large open space surrounded by lush Waitakere bush.
Cutler Reserve,174.68458531621,-36.9226750683,"15 Cutler Street, Auckland",1,Swing Triple,22484,http://www.aucklandcity.govt.nz/whatson/places/parksonline/detail2.asp?pParkId=10631,playground,Local Park - Leisure
Cyril French Park,174.912000755537,-36.9534781459691,"6R Baverstock Road, Auckland",1,Senior module,20247,http://www.aucklandcity.govt.nz/whatson/places/parksonline/detail2.asp?pParkId=10635,playground,Esplanade
D'Oyly/Stanmore Bay Weir Reserve,174.732418223202,-36.6245853675359,"63 Charlotte Street, Auckland",5,Module-Large<br>Seesaw-Spring<br>Spinner pole<br>Spinner<br>Swing,22406,,,
Da Vinci Park,174.638295770487,-36.8211366645644,"14A Da Vinci Place, Auckland",5,Balance Logs<br>Slide<br>Spinner bowl<br>Supernova<br>Swing,22489,http://www.aucklandcity.govt.nz/whatson/places/parksonline/detail2.asp?pParkId=10636,playground,Local Park - Leisure
Dallas Reserve,174.716295231617,-36.9112763730094,"4 Dallas Place, Auckland",4,Modern Modular<br>Seesaw<br>Swing Quad<br>Tube Slide,21673,http://www.aucklandcity.govt.nz/whatson/places/parksonline/detail2.asp?pParkId=440,Playground,Local green open space.
Dalmatia Green,174.626575213289,-36.8988807358479,"7 Chislehurst Street, Auckland",2,Modern Modular<br>Swing Double,22487,http://www.aucklandcity.govt.nz/whatson/places/parksonline/detail2.asp?pParkId=10644,playground,Local Park - Leisure
David Lange Park,174.800435848596,-36.9680853798407,"98R Bader Drive, Auckland",10,Ab Board Adjacent To Playground<br>Cross Trainer Adjacent To Playground<br>Dip Bar Adjacent To Playground<br>Modern Modular (Small)<br>Modern Modular (Small)<br>Spinning Cup<br>Spring Saw<br>Swing<br>Swing<br>Bay swing unit<br>Rider<br>Shoulder Press,10751,http://www.aucklandcity.govt.nz/whatson/places/parksonline/detail2.asp?pParkId=10650,"playground, toilets",Local Park - Sport
David Nathan Park,174.902787002168,-37.0150807736754,"68R Hill Road, Manukau",1,Modern Modular (Large),10629,http://www.aucklandcity.govt.nz/whatson/places/parksonline/detail2.asp?pParkId=10651,,Heritage/Historical Significance
Delphine Park,174.725101324522,-36.8959348157921,"6A Delphine Close, Auckland",2,Cube<br>Swing,20877,,,
Derrimore Park,174.891853569012,-36.988645384237,"6R Derrimore Heights, Auckland",3,Open Tile<br>Modern modular (large)<br>Swing unit,20233,http://www.aucklandcity.govt.nz/whatson/places/parksonline/detail2.asp?pParkId=10676,playground,Local Park - Leisure
Devonport Domain,174.806878772219,-36.8278805614172,"52 King Edward Parade, Auckland",5,Fort & tunnel slide<br>Seesaw spinner<br>Seesaw<br>Seesaw-Spring<br>Swing,10998,http://www.aucklandcity.govt.nz/whatson/places/parksonline/detail2.asp?pParkId=10677,"playground, toilets",Premier Park - Sport
Devonshire Reserve,174.724224499997,-36.7554153672215,"6 Devonshire Road, Auckland",5,Overhead-Monkey Bars<br>Overhead-Multiple<br>Seesaw<br>Slide<br>Swing,22208,http://www.aucklandcity.govt.nz/whatson/places/parksonline/detail2.asp?pParkId=10678,playground,Local Park - Leisure
Dickey Reserve,174.714543783592,-36.9056163087442,"19 Dickey Street, Auckland",7,Climbing Frame<br>Modern Modular<br>Single Seesaw<br>Spinner<br>Springy Animal<br>Springy Tractor<br>Swing Triple,21644,http://www.aucklandcity.govt.nz/whatson/places/parksonline/detail2.asp?pParkId=460,Playground,Local green open space.
Don Buck Corner,174.608852210083,-36.8585329311847,"Glen Road, Auckland",4,Lullaby Swing<br>Modern Modular<br>Modern Modular<br>Spinner<br>Spinner<br>Swing Double,22495,http://www.aucklandcity.govt.nz/whatson/places/parksonline/detail2.asp?pParkId=10686,playground,Local Park - Leisure
Durbin Reserve,174.683103348506,-36.7733702736169,"27 Durbin Court, Auckland",3,Monkey Bars<br>Slide<br>Swing,22211,,,
Durham Green,174.653409385654,-36.8366842201304,"12 Roby Street, Auckland",2,Modern Modular<br>Swing Double,11368,http://www.aucklandcity.govt.nz/whatson/places/parksonline/detail2.asp?pParkId=10717,playground,Local Park - Leisure
East Tamaki Reserve,174.88735853284,-36.9596282302436,"244R East Tamaki Road, Auckland",5,Modern Modular (Large)<br>Rolling Log<br>Slide<br>Swing<br>Track Glide,10691,http://www.aucklandcity.govt.nz/whatson/places/parksonline/detail2.asp?pParkId=10722,"playground, toilets",Local Park - Sport
Eastdale Reserve,174.688549448395,-36.8863711334285,"33 Eastdale Road, Auckland",7,Fitness Station Air Walker Dip & Crunch<br>Fitness Station Chin Up Step Up<br>Fitness Station-Situp Leg Press<br>Fitness Station-Twister<br>Modern Modular<br>Single Seesaw<br>Swing Double,10107,http://www.aucklandcity.govt.nz/whatson/places/parksonline/detail2.asp?pParkId=480,"Barbecue, tables, playground, toilets.",Sports Park
Edenvale Park,174.755926286905,-36.8706140147153,"9 Edenvale Park Road, Auckland",4,Module<br>Module - Green Slide<br>Stepping logs<br>Swing<br>Swing,21145,,,
Edith Hopper Park,174.753411440226,-36.6345693788841,"34B Ladies Mile, Auckland",2,Module-Medium<br>Swing<br>Swing,11296,http://www.aucklandcity.govt.nz/whatson/places/parksonline/detail2.asp?pParkId=10734,playground,
Ellerslie Domain,174.81333687958,-36.8985295732262,"182 Main Highway, Auckland",4,Climbing wall<br>Seesaw<br>Slide<br>Swing,10056,,,
Elliott Reserve,174.716905339708,-36.7730056759975,"34 Elliott Avenue, Auckland",4,Module-Large<br>Seesaw<br>Swing<br>Tossup Hoop,11095,http://www.aucklandcity.govt.nz/whatson/places/parksonline/detail2.asp?pParkId=10742,playground,Local Park - Leisure
Elstree North Reserve,174.867776322535,-36.874283497905,"134 Leybourne Circle, Auckland",3,Module<br>Supernova<br>Swing,10197,http://www.aucklandcity.govt.nz/whatson/places/parksonline/detail2.asp?pParkId=505,Playground,Local green open space.
Emerald Valley Park,174.606271434603,-36.8389785342438,"Killygordon Place, Auckland",4,Double Swing<br>Luna Spinner<br>Modern Modular<br>Modern Modular<br>Seesaw,21220,http://www.aucklandcity.govt.nz/whatson/places/parksonline/detail2.asp?pParkId=10748,playground,Emerald Valley Park is a quiet neighbourhood park with plenty of space to spread out.
Epping Esplanade,174.635496110049,-36.8685669231745,"Epping Road, Auckland",2,Modern Modular<br>Swing Double,21226,http://www.aucklandcity.govt.nz/whatson/places/parksonline/detail2.asp?pParkId=10752,playground,Premier Park - Leisure
Eric Armishaw Park,174.697650798448,-36.8692169825745,"117 Walker Road, Auckland",3,Module<br>Springy seesaw<br>Swings,10321,http://www.aucklandcity.govt.nz/whatson/places/parksonline/detail2.asp?pParkId=520,"Playground, toilets.",Coastal/beach - windsurfing.
Essex Road Reserve,174.76134754728201,-36.8821150128759,"3 Ngauruhoe Street, Auckland",3,Module<br>Seesaw<br>Swings,21153,,,
Everard Reserve,174.803834229438,-36.6048074343995,"16A Shakespear Road, Auckland",2,Module-Medium<br>Seesaw-Spring,21045,http://www.aucklandcity.govt.nz/whatson/places/parksonline/detail2.asp?pParkId=10765,playground,
Excelsior Way Reserve,174.776687817215,-36.3278393162164,"4 May Way, Omaha",1,Module-Medium,22264,,,
Exeter Reserve,174.722212604203,-36.7563092756227,"3 Exeter Place, Auckland",2,Slide<br>Swing,22223,http://www.aucklandcity.govt.nz/whatson/places/parksonline/detail2.asp?pParkId=10772,playground,Natural
Fairburn Reserve,174.840460325771,-36.9447361438577,"28-34 Mason Avenue, Auckland Central",11,Climbing frame<br>Hammock<br>Slide<br>Spinner<br>Spinner cup<br>Stepping pods<br>Swing set<br>Trampolines<br>Tube shape climbers<br>Twirler Spinner<br>Water play,10167,http://www.aucklandcity.govt.nz/whatson/places/parksonline/detail2.asp?pParkId=540,Playground,Local green open space.
Fairdene Reserve,174.625844369525,-36.8647372820327,"25 Fairdene Avenue, Auckland",4,Modern Modular<br>Spica<br>Springy Animal<br>Swing Triple,11367,http://www.aucklandcity.govt.nz/whatson/places/parksonline/detail2.asp?pParkId=12004,playground,Local Park - Leisure
Fairlands Reserve,174.695831737926,-36.8831119924266,"43 Seaside Avenue, Auckland",2,Slide<br>Swing,21379,http://www.aucklandcity.govt.nz/whatson/places/parksonline/detail2.asp?pParkId=545,Playground,Local green open space.
Fearon Park,174.745903110496,-36.9031952101671,"21A Fearon Avenue, Auckland",6,Fantail roundabout<br>Module<br>Seesaw<br>Slide<br>Swing<br>Tower,10198,http://www.aucklandcity.govt.nz/whatson/places/parksonline/detail2.asp?pParkId=555,The reserve is flat and accommodates two floodlit rugby fields in winter and three softball diamonds in summer. A concrete block building incorporating changing rooms and toilets stands midway along the western boundary of the reserve.,"Fearon Park lies between Keystone Avenue and Fearon Avenue. The south western corner of the reserve adjoins Harold Long Reserve. Further west the reserve adjoins the Mt Roskill Rugby Football Club clubrooms. Adjoining the southern boundary of the reserve is a car park for 120 cars, predominantly on land owned by the Rugby Club and partially on street reserve."
Featherstone Park,174.621048770882,-36.8710955630196,"59 Swanson Road, Auckland",2,Modern Modular<br>Swing Double,21245,http://www.aucklandcity.govt.nz/whatson/places/parksonline/detail2.asp?pParkId=12019,playground,Local Park - Leisure
Fergusson Domain,174.799238217225,-36.911015671427,"5 Olea Road, Auckland",4,Module<br>spica<br>Spica<br>Swing,10269,http://www.aucklandcity.govt.nz/whatson/places/parksonline/detail2.asp?pParkId=565,"Natural rock outcrops occur in places in the western and southern parts of the reserve, with a large rocky outcrop adjacent to Melville Place being a particularly significant landscape feature. Playing fields, tennis and volleyball courts, scouts clubrooms, and caretaker’s maintenance depot, athletic and harriers clubrooms, parking area and children’s playground, have been developed on the level land.","Fergusson Domain is a large, multi-purpose reserve of more than six hectares, and lies in a predominantly residential area, bounded by Oranga Avenue, Waitangi Road, Roosevelt Avenue and Namata Road. It is an irregularly shaped site with a large level area on the eastern side and a series of higher terraces rising towards the western side."
Fergusson Oaks Reserve,174.89475694828,-36.975893119855,"102R Dawson Road, Auckland",2,Modern modular (large)<br>Swing unit,10623,http://www.aucklandcity.govt.nz/whatson/places/parksonline/detail2.asp?pParkId=12026,playground,Local Park - Leisure
Ferngrove Park,174.604945148108,-36.8701964521366,"1 Ferngrove Avenue, Auckland",2,Modern Modular<br>Swing Double,21704,http://www.aucklandcity.govt.nz/whatson/places/parksonline/detail2.asp?pParkId=12032,playground,Local Park - Leisure
Fernhill Reserve,174.717143007358,-36.7181765854766,"4 Candlestick Place, Auckland",4,Module-Small<br>Module-Small-Navigator<br>Springy<br>Springy<br>Swing snr,22229,,,
Fernwood Grove,174.717329997101,-36.7704098619656,"2 Fernwood Grove, Auckland",2,Module-Medium<br>Swing Jnr,22275,http://www.aucklandcity.govt.nz/whatson/places/parksonline/detail2.asp?pParkId=12035,playground,Local Park - Leisure
Ferry Rd/ Hawaiian Pde Junction,174.740940508791,-36.6439264564096,"Ferry Road, Auckland",6,Climber<br>Seesaw<br>Spinner pole<br>Spinner<br>Swing keyhole Jnr<br>Swing Snr,22604,,,
Fields Reserve,174.723218055661,-36.7136361895899,"3 Fields Parade, Auckland",2,Module-Medium<br>Swing,22235,http://www.aucklandcity.govt.nz/whatson/places/parksonline/detail2.asp?pParkId=12041,playground,Local Park - Leisure
Flat Rock Reserve,174.854213600712,-36.9287368705528,"416A Panama Road, Auckland",4,Artificial turf mound<br>Lunar Spinner<br>Module<br>Swings,21523,,,
Flaunty Reserve,174.622521862597,-36.8206106554846,"24 Flaunty Place, Auckland",1,Double Slide,21295,http://www.aucklandcity.govt.nz/whatson/places/parksonline/detail2.asp?pParkId=12054,playground,Local Park - Leisure
Fong Reserve,174.798666923115,-36.9159924865412,"Captain Springs Road, Auckland",2,Module<br>Swing,23103,http://www.aucklandcity.govt.nz/whatson/places/parksonline/detail2.asp?pParkId=600,Playground,Very small local green.
Fonteyn Reserve,174.68109558869,-36.8879066140291,"81 Fonteyn Street, Auckland",3,Modern Modular<br>Seesaw<br>Swing Double,21660,http://www.aucklandcity.govt.nz/whatson/places/parksonline/detail2.asp?pParkId=605,"Playground, tables",Local green open space.
Foothills Lane Reserve,174.634525545384,-36.9245002419661,"7 Foothills Lane, Auckland",2,Modern Modular<br>Swing Double,22010,http://www.aucklandcity.govt.nz/whatson/places/parksonline/detail2.asp?pParkId=12059,playground,Local Park - Leisure
Fowlds Park,174.727564574194,-36.8733957415697,"50 Western Springs Road, Auckland",4,Fitness Station<br>Fitness Station<br>Fitness Station<br>Fitness Station<br>Fitness Station<br>Fitness Station<br>Fitness Station<br>Fitness Station<br>Fitness Station<br>Fitness Station<br>Module<br>Seesaw<br>Swings,10394,http://www.aucklandcity.govt.nz/whatson/places/parksonline/detail2.asp?pParkId=610,The park drops from its highest point on Western Springs Road down a bank covered by mature gum trees to the main park driveway. The land drops again on the southern side of the driveway down a planted and landscaped bank to playing fields and clubrooms with car parking.,"Fowlds Park is bounded to the north by Western Springs Road, to the west by Malvern Road, and to the south and east by residential properties in Brewster Avenue, Malvern Road, Rocky Nook Avenue, Parkhill Road and Wolseley Street."
Francis Reserve,174.728994869209,-36.859441512511,"4 Warnock Street, Auckland Central",3,Dolphin rocker<br>Module Junior<br>Swings,10000,http://www.aucklandcity.govt.nz/whatson/places/parksonline/detail2.asp?pParkId=615,"Playground, pergola",Local green open space.
Freemans Bay Community Centre,174.751146749151,-36.8528440578697,"52 Hepburn Street, Auckland",1,Small module,10274,,,
Gallony Park,174.604657799362,-36.8404096911872,"18 Gallony Avenue, Auckland",2,Modern Modular<br>Swing Double,21281,http://www.aucklandcity.govt.nz/whatson/places/parksonline/detail2.asp?pParkId=12095,playground,Local Park - Leisure
George Deane Place Reserve,174.690353030023,-36.7635909344716,"36 George Deane Place, Auckland",2,Slide<br>Swing,22324,http://www.aucklandcity.govt.nz/whatson/places/parksonline/detail2.asp?pParkId=12108,playground,Local Park - Leisure
Gilshennan Reserve,174.703580238824,-36.6070830998574,"35 Gilshennan Valley, Auckland",3,Module-Medium-Jnr<br>Seesaw-Spring<br>Swing mega,20569,http://www.aucklandcity.govt.nz/whatson/places/parksonline/detail2.asp?pParkId=12117,playground,
Gladstone Park,174.785270442228,-36.8495093238652,"108 Gladstone Road, Auckland",9,Horn<br>Large module<br>Overhead climber<br>Slide tower<br>Small module<br>Springy car<br>Springy seesaw<br>Springy seesaw<br>Swing<br>Swing<br>Track glide,10037,,,
Glen Bay Close Reserve,174.726486487796,-36.7322619567166,"114 Hugh Green Drive, Auckland",2,Spacenet<br>Swing keyhole Jnr,22286,,,
Glen Norman Reserve,174.622344413439,-36.8644535797833,"93 Rathgar Road, Auckland",2,Modern Modular<br>Swing Double,11381,http://www.aucklandcity.govt.nz/whatson/places/parksonline/detail2.asp?pParkId=12124,playground,Local Park - Leisure
Glenbrook Beach Beachfront,174.711849108546,-37.1623594587168,"Beach Road, Auckland",1,Modern modular,20660,,,
Glendene Reserve,174.650436078232,-36.8894484069713,"34 Glendene Avenue, Auckland",5,Bell Tower<br>Hip Hop<br>Modern Modular Juni<br>Regulus Climbing<br>Swing Double,21116,http://www.aucklandcity.govt.nz/whatson/places/parksonline/detail2.asp?pParkId=12130,playground,Natural
Glover Park,174.866245442001,-36.8476407226387,"32 Glover Road, Auckland",2,Large module<br>Swing T bar,10218,,,
Gooseberry Flat,175.490477089153,-36.3058829526055,"418 Shoal Bay Road, Auckland",2,Module - senior<br>Swing,20795,http://www.aucklandcity.govt.nz/whatson/places/parksonline/detail2.asp?pParkId=695,Playground,Lovely coastal reserve in Tryphena Bay.
Green Bay Domain,174.683516050945,-36.9316336862643,"23 Cliff View Drive, Auckland",2,Modern Modular<br>Swing Double,21136,http://www.aucklandcity.govt.nz/whatson/places/parksonline/detail2.asp?pParkId=12180,"playground, toilets",Local Park - Sport
Greenhithe War Memorial Park,174.670483747539,-36.7719974827749,"10 Roland Road, Auckland",2,Module-Small-Preschool<br>Swing,10935,http://www.aucklandcity.govt.nz/whatson/places/parksonline/detail2.asp?pParkId=12189,"playground, toilets",Local Park - Sport
Greenslade Reserve,174.743766410064,-36.8002173772694,"1 Greenslade Crescent, North Shore",1,GymGuru<br>GymGuru<br>GymGuru<br>GymGuru<br>GymGuru,20078,,,
Greville Reserve,174.751534745055,-36.7576912187247,"253 Forest Hill Road, Auckland",1,Spinner,20054,,,
Grey Lynn Park,174.737427414074,-36.8583876838283,"69-71 Williamson Avenue, Auckland Central",9,Double skate unit<br>Fantail roundabout<br>Fitness Station<br>Fitness Station<br>Fitness Station<br>Flying Fox<br>Large module<br>Seesaw<br>Spica twirl about<br>Swing<br>Vaga spinner,10155,http://www.aucklandcity.govt.nz/whatson/places/parksonline/detail2.asp?pParkId=720,"The park consists mainly of playing fields of mown grass, with trees around the edges and some wilderness areas in the eastern side valleys. It also has a scupltural display of nine works by local artists. There is an interesting and varied sculpture collection on the eastern side of the park close to the Rose Road entrance.","Grey Lynn Park covers approximately 10.5ha and is centrally situated in the residential area of Grey Lynn, west of Auckland city. The park has mostly been developed as an active recreational area. It is regularly used as the venue for the Grey Lynn Festival."
Gribblehirst Park,174.738780246424,-36.8796892010981,"225 Sandringham Road, Auckland",5,Climbing module<br>Flying Fox<br>Play Boards<br>Play Boards<br>Sky Surfer<br>Slide,10389,http://www.aucklandcity.govt.nz/whatson/places/parksonline/detail2.asp?pParkId=725,"Tables, playground, toilets.","Sports park set in attractive surroundings including mature trees and rose gardens. Home to rugby, bowling green/club. Petanque terrain and a variety of other open spaces."
Griffin Reserve,174.776670284168,-36.8867549439787,"13 Griffin Avenue, Auckland",4,Climbing net<br>Module<br>Play house<br>Swing,10416,http://www.aucklandcity.govt.nz/whatson/places/parksonline/detail2.asp?pParkId=730,"Playground, table",Griffin Reserve is an area of green open space with peripheral landscaping featuring specimen trees. It is used by the local community for informal recreation. It also fulfils the open space requirements of the Scout and Ranger Halls located on the reserve.
Growers Stadium & Stadium No. 2,174.907322401964,-37.1966553085178,"Franklin Road, Auckland",4,Chin up bar<br>Tricep dip bars<br>Climbing Frame<br>Climbing Frame<br>Toss Up,20776,,,
Gulf Harbour Recreation Reserve,174.790440091143,-36.6134087207158,"R 40 Gulf Harbour Drive, Auckland",2,Module-Medium<br>Swing,20468,,,
Gus Nola Park,174.610697901464,-36.8805940756563,"Summerland Drive, Auckland",5,Fort/Slide<br>Modern Modular<br>Playground Track<br>Springy Animal<br>Swing Double,21792,http://www.aucklandcity.govt.nz/whatson/places/parksonline/detail2.asp?pParkId=12208,playground,Local Park - Leisure
Hamilton Estate Recreation Reserve,174.739806563164,-37.2438497765016,"10 Huia Street, Auckland",5,Allsafe tiles<br>Arch Climber<br>Basket swing<br>Macrocarpa stepping logs<br>Modular senior,10520,http://www.aucklandcity.govt.nz/whatson/places/parksonline/detail2.asp?pParkId=12222,playground,Local Park - Leisure
Hanford Place Foreshore,174.859735572318,-37.0203356558361,"24R Hanford Place, Auckland",4,Modern Modular (Large)<br>Swing<br>Mini dome spinner<br>Sprial net climber,20833,http://www.aucklandcity.govt.nz/whatson/places/parksonline/detail2.asp?pParkId=12226,playground,Esplanade
Harania/Marys Foreshore Reserve,174.809349178977,-36.9524097110417,"38R Harania Avenue, Auckland",5,Bounce buggy<br>Climbing frame<br>Swing unit<br>Twirler spinner<br>Wave slide,20760,,,
Harbutt Reserve,174.705718727159,-36.8879199713547,"39 Harbutt Avenue, Auckland",3,Fantail roundabout<br>Module<br>Swing T bar,21077,http://www.aucklandcity.govt.nz/whatson/places/parksonline/detail2.asp?pParkId=12236,playground,
Harbutt Reserve,174.705718727159,-36.8879199713547,"39 Harbutt Avenue, Auckland",3,Fantail roundabout<br>Module<br>Swing T bar,21077,http://www.aucklandcity.govt.nz/whatson/places/parksonline/detail2.asp?pParkId=780,Playground,Local green open space.
Hardley Reserve,174.770582881603,-36.6209543538184,"6 Hardley Avenue, Tindalls Beach",3,Module-Medium<br>Seesaw-Spring<br>Swing mega,22401,http://www.aucklandcity.govt.nz/whatson/places/parksonline/detail2.asp?pParkId=12237,"playground, toilets",
Harold Moody Reserve,174.648697435481,-36.9122141556445,"40 Glendale Road, Auckland",2,Modern Modular<br>Swing Double,11469,http://www.aucklandcity.govt.nz/whatson/places/parksonline/detail2.asp?pParkId=12239,"playground, toilets","Intersected by the Waikumete stream, the two parks are popular with joggers and softball players but the many other options include flying a kite, walking the dog or bringing the kids for an afternoon on the playground."
Harry James Reserve,174.552775515333,-36.8200430608053,"Taupaki Road, Auckland",4,Module-Medium<br>Spinner<br>Springy car<br>Swing,11298,http://www.aucklandcity.govt.nz/whatson/places/parksonline/detail2.asp?pParkId=12243,"playground, toilets",
Hart Domain,174.634349846553,-36.8845424445284,"Vitasovich Avenue, Auckland",2,Modern Modular<br>Modern Modular<br>Swing Quad,21167,http://www.aucklandcity.govt.nz/whatson/places/parksonline/detail2.asp?pParkId=12244,playground,Local Park - Leisure
Harwood Reserve,174.73812248124,-36.8948839918404,"21A Kiwitea Street, Auckland",4,Slide<br>Springy animal<br>Springy animal<br>Springy sesaw<br>Swing,21157,http://www.aucklandcity.govt.nz/whatson/places/parksonline/detail2.asp?pParkId=790,Playground,Local green open space.
Heard Park,174.780191876418,-36.8543553510603,"186 Parnell Road, Auckland",1,Swing,10012,,,
Heath Reserve,174.756239109845,-36.8070904794967,"140 Exmouth Road, Auckland",3,Module-Small<br>Seesaw<br>Swing,22107,http://www.aucklandcity.govt.nz/whatson/places/parksonline/detail2.asp?pParkId=12263,playground,Local Park - Leisure
Helensville Civic Centre Grounds,174.451556034193,-36.6764285775207,"49 Commercial Road, Auckland",3,Module-Medium<br>Swing snr<br>Swing T bar Jnr,22398,,,
Henderson Park - Henderson,174.626972219852,-36.8793125412579,"41 Wilsher Crescent, Auckland",1,Fitness Station<br>Fitness Station<br>Fitness Station,11393,,,
Henderson Valley Park,174.616613596472,-36.8952743417402,"Henderson Valley Road, Auckland",6,Modern Modular<br>Single Seesaw<br>Spiral Net Climber<br>Springy Animal<br>Supernova<br>Swing Double,11391,http://www.aucklandcity.govt.nz/whatson/places/parksonline/detail2.asp?pParkId=12278,"playground, toilets",Premier Park - Leisure
Hendrika Court,174.638505722579,-36.8066020768863,"22 Hendrika Court, Auckland",2,Module-Large<br>Swing,21979,http://www.aucklandcity.govt.nz/whatson/places/parksonline/detail2.asp?pParkId=12280,playground,Local Park - Leisure
Henry Reserve,174.697964856533,-36.8914532298898,"11 Henry Street, Auckland",4,Basket Swing<br>Modern Modular Med<br>Spinner<br>Swing Double,21692,http://www.aucklandcity.govt.nz/whatson/places/parksonline/detail2.asp?pParkId=805,Playground,Local green open space.
Herald Island Domain,174.656256349723,-36.7796265556094,"44 Ferry Parade, Auckland",4,Module medium (senior)<br>Module-Small-Jnr<br>Sandpit<br>Swing,11392,http://www.aucklandcity.govt.nz/whatson/places/parksonline/detail2.asp?pParkId=12284,"playground, toilets",Local Park - Leisure
Heron Park,174.69892322655,-36.8860173801969,"1625-162 Great North Road, Auckland Central",6,Climbing net<br>Cup spinner<br>Flying Fox<br>Junior Swing<br>Slide<br>Slide<br>Supernova,10048,,,
Highgrove Reserve,174.729347281485,-36.7560168209184,"15 Highgrove Lane, Auckland",1,Module-Medium,20838,http://www.aucklandcity.govt.nz/whatson/places/parksonline/detail2.asp?pParkId=12298,playground,Local Park - Leisure
Hinau Reserve,174.680778003282,-36.920404318367,"Hinau Street, Auckland",1,Swing Double,21097,http://www.aucklandcity.govt.nz/whatson/places/parksonline/detail2.asp?pParkId=12313,playground,Local Park - Leisure
Hindmarsh Green,174.623663094631,-36.8952605063916,"25 Hindmarsh Street, Auckland",6,Fort/Slide<br>Modern Modular<br>Playground Track<br>Spinner<br>Stepping Pod<br>Swing Double,20892,http://www.aucklandcity.govt.nz/whatson/places/parksonline/detail2.asp?pParkId=12314,playground,Local Park - Leisure
Hinemoa Park,174.7346646793,-36.8220610810941,"1 Hinemoa Street, Auckland",6,Climber<br>Seesaw-Hip Hop Seasaw<br>Slide<br>Spinner<br>Swing<br>Swing keyhole Jnr,11104,http://www.aucklandcity.govt.nz/whatson/places/parksonline/detail2.asp?pParkId=12315,"BBQ,playground, toilets",Local Park - Coastal
Hobson Reserve,174.859154904159,-36.8927364060909,"43 Court Crescent, Auckland",4,Small module<br>Spica<br>Springy animal<br>Swing T bar,21322,,,
Hobsonville Point Park,174.660205886626,-36.7916493853413,"Buckley Avenue, Auckland",14,Balance beam<br>Bridge<br>Climber<br>Module-Small-Jnr<br>Sculpture<br>Sculpture-5 seeds<br>Sculpture-Climbing Pods<br>Sculpture-Kowhai seed<br>Sculpture<br>Sculpture<br>Sculpture-Nikau seed<br>Sculpture-Pigeonwood seed<br>Slide<br>Spinner bowl<br>Spinner bowl<br>Stepping logs<br>Swing,21368,,,
Hobsonville War Memorial,174.649295184269,-36.7971476246214,"Hobsonville Road, Auckland",3,Module-Large<br>Swing<br>Swing snr,11390,http://www.aucklandcity.govt.nz/whatson/places/parksonline/detail2.asp?pParkId=12323,"playground, toilets",Local Park - Sport
Home Reserve,174.746565502513,-36.8663229826875,"19 King Street, Auckland",2,Module Small<br>Springy Animal,21408,http://www.aucklandcity.govt.nz/whatson/places/parksonline/detail2.asp?pParkId=875,Playground,Small Local green open space.
Hooton Reserve,174.705598772167,-36.7211514170225,"259 Oteha Valley Road, Albany",5,Arm press<br>Leg Press<br>Climber - Spinner<br>Module-Medium<br>Swing,20076,http://www.aucklandcity.govt.nz/whatson/places/parksonline/detail2.asp?pParkId=12333,"playground, toilets",Local Park - Leisure
Horsham Reserve,174.82496264794,-36.8955202436716,"2 High Trees Place, Auckland",2,Springy seesaw<br>Springy seesaw<br>Swing,21348,http://www.aucklandcity.govt.nz/whatson/places/parksonline/detail2.asp?pParkId=890,Playground,Small Local green open space.
Howick Domain,174.929521301872,-36.8977534399288,"90R Wellington Street, Auckland",2,Fitness bike<br>LegPress,10889,http://www.aucklandcity.govt.nz/whatson/places/parksonline/detail2.asp?pParkId=12342,"playground, toilets",Local Park - Sport
Huapai Recreation Reserve,174.536964976823,-36.7709513296468,"46 Tapu Road, Auckland",3,Module-Medium-Jnr<br>Module-Medium-Jnr<br>Seesaw-Spring<br>Swing<br>Swing,11201,http://www.aucklandcity.govt.nz/whatson/places/parksonline/detail2.asp?pParkId=12344,"playground, toilets",
"Huapai Riverbank,Service Centre,",174.547967722747,-36.7723699288629,"24 Oraha Road, Auckland",1,Module,22477,,,
Hudsons Beach Recreation Reserve,174.661960738651,-37.0503009898397,"Hudson Road, Auckland",2,Large modular<br>Swing unit,20346,,,
Huia Domain,174.57000408923,-36.999186280673,"1193 Huia Road, Auckland",2,Modern Modular<br>Modern Modular<br>Swing Double,20605,http://www.aucklandcity.govt.nz/whatson/places/parksonline/detail2.asp?pParkId=12349,"BBQ,playground, toilets",This sits in a sheltered cove on the Manukau Harbour. A picnic spot with a BBQ available. There is a playground and skate ramp. Little Huia Beach is close for swimming.
Huntly Road Reserve,174.762361564917,-36.7465061269846,"8 Huntly Road, North Shore",3,Module-Medium<br>Module-Sand play<br>Swing,20051,http://www.aucklandcity.govt.nz/whatson/places/parksonline/detail2.asp?pParkId=12355,"playground, toilets",Local Park - Coastal
Inwards Reserve,174.706797695046,-36.7968494451431,"57 Salisbury Road, Auckland",1,Module-Medium,22027,http://www.aucklandcity.govt.nz/whatson/places/parksonline/detail2.asp?pParkId=12375,playground,Local Park - Leisure
Ireland Reserve,174.748957187572,-36.8504591684861,"28 England Street, Auckland",3,Seesaw<br>Swings<br>Whale rocker,20987,http://www.aucklandcity.govt.nz/whatson/places/parksonline/detail2.asp?pParkId=915,Playground,Very small reserve.
Island Bay Reserve,174.689557518766,-36.810020440704,"113 Island Bay Road, Auckland",1,Module-Medium,20057,http://www.aucklandcity.govt.nz/whatson/places/parksonline/detail2.asp?pParkId=12378,"playground, toilets",Local Park - Coastal
Jack Pringle Village Green,174.652144487613,-36.8415270185439,"Harbour View Road, Auckland",6,Double Slide<br>Modern Modular<br>Modern Modular<br>Spica<br>Springy Animal<br>Swing Double<br>Wooden Jetty,11444,,,
Jamie Hansen Park,174.687577305356,-36.5700601909085,"29 Sun Valley, Auckland",4,Module-Medium<br>Seesaw-Spring<br>Slide<br>Swing,20749,http://www.aucklandcity.govt.nz/whatson/places/parksonline/detail2.asp?pParkId=12396,playground,
Jean Sampson Reserve,174.748479987856,-36.8233132684513,"25 Queen Street, Auckland",5,Cubby House<br>Fire truck on springs<br>Flower shaped stepping pods<br>Rocker-Two Seat<br>Swing,20888,http://www.aucklandcity.govt.nz/whatson/places/parksonline/detail2.asp?pParkId=12400,playground,Local Park - Leisure
Jellicoe Park & Onehunga War Mem Pools,174.781038810083,-36.9177477662602,"1 Park Gardens, Auckland",4,Module<br>Seesaw<br>Slide<br>Swings,10315,,,
John Moore Reserve,174.74705349881,-36.9086504020856,"20 Bremner Avenue, Auckland",5,Module Junior<br>Module Senior<br>Mouse House<br>Rocktopus<br>Swings,21137,http://www.aucklandcity.govt.nz/whatson/places/parksonline/detail2.asp?pParkId=940,Playground,Local green open space.
John Walker Park,174.872528270467,-37.0305591685168,"64R John Walker Drive, Auckland",6,All safe tile<br>Basket swing<br>Mini sprint/scooter track<br>Slide<br>Steping tiles x 3<br>Swing unit,22787,http://www.aucklandcity.govt.nz/whatson/places/parksonline/detail2.asp?pParkId=12408,playground,Local Park - Leisure
Jordan Park,174.787591336651,-36.9158418723931,"5A Jordan Avenue, Auckland",5,5 poles for blanket forts<br>Playground Surface Sand pit<br>Stepping logs<br>Swings<br>Trampolines x2,10213,http://www.aucklandcity.govt.nz/whatson/places/parksonline/detail2.asp?pParkId=960,,Local green open space.
Jutland Road Recreation Reserve,174.889353160783,-37.206019377615,"1 Jutland Road, Auckland",4,Modern Modular (Small)<br>Roundabout - Stand On<br>Swing<br>Track Glide,22792,http://www.aucklandcity.govt.nz/whatson/places/parksonline/detail2.asp?pParkId=12419,playground,Local Park - Leisure
Kaikoura Reserve,174.641632719192,-36.8913986537122,"29 Kaikoura Street, Auckland",2,Modern Modular<br>Swing Double,11389,http://www.aucklandcity.govt.nz/whatson/places/parksonline/detail2.asp?pParkId=13001,playground,Local Park - Leisure
Kaipara Crescent Reserve,174.452760383571,-36.6832462524873,"24 Kaipara Crescent, Helensville",2,Module-Medium<br>Swing,22414,http://www.aucklandcity.govt.nz/whatson/places/parksonline/detail2.asp?pParkId=13002,playground,
Kaipatiki Park,174.715111251096,-36.7826192505951,"146 Kaipatiki Road, Auckland",3,Module-Medium<br>Spacenet<br>Swing,11138,http://www.aucklandcity.govt.nz/whatson/places/parksonline/detail2.asp?pParkId=13006,playground,Local Park - Sport
Kaurilands Domain,174.654401018601,-36.9232408596861,"55 Atkinson Road, Auckland",2,Modern Modular<br>Swing Double,11385,http://www.aucklandcity.govt.nz/whatson/places/parksonline/detail2.asp?pParkId=13047,playground,Local Park - Leisure
Kawerau Reserve,174.787480367811,-36.8149128380248,"44 Kawerau Avenue, Auckland",3,Module-Medium<br>Swing snr<br>Swing flower Jnr,20372,http://www.aucklandcity.govt.nz/whatson/places/parksonline/detail2.asp?pParkId=13060,playground,Kawerau Reserve has a boardwalk and bridge providing access to the wetland areas. It is suitable for wheelchairs and prams.
Keegan Park,174.621856010186,-36.844916776577,"73 Keegan Drive, Auckland",3,Modern Modular<br>Single Seesaw<br>Swing Double,20572,http://www.aucklandcity.govt.nz/whatson/places/parksonline/detail2.asp?pParkId=13064,playground,Local Park - Leisure
Keith Hay Park,174.742754059154,-36.9175936734563,"660 Richardson Road, Auckland Central",16,Abacus<br>Absail rope wall<br>Climbing embankment<br>Climbing net<br>Flying Fox<br>Junior Module<br>Mesh wall<br>Net Climber large<br>Slide<br>Slide<br>Spiner tornado net<br>Spinner<br>Spinner cup<br>Spinner round about<br>Swing<br>Swing<br>Trampoline inground<br>Trampoline inground<br>Xylophone,10365,http://www.aucklandcity.govt.nz/whatson/places/parksonline/detail2.asp?pParkId=990,"Barbecue, playground, drinking fountain, bikestands, toilets.","One of the largest and most used sports park in Auckland, quite centrally located within the Auckland city boundary. This open space caters to a huge variety of activities and is accessible from a number of streets - Somerset, Richardson Road and Arundel St to name just a few."
Kell Park,174.693984491703,-36.7254023729381,"257 Dairy Flat Highway, Auckland",6,Fire Truck<br>Flying Box<br>Module-Medium<br>Sculpture-Climbing timber<br>Slide<br>Spinner bowl<br>Spinner bowl<br>Spinner bowl,10933,http://www.aucklandcity.govt.nz/whatson/places/parksonline/detail2.asp?pParkId=13069,"playground, toilets",Local Park - Leisure
Kelman Square,174.662091452074,-36.9033165390665,"40 Kelman Road, Auckland",2,Modern Modular<br>Swing Double,20506,http://www.aucklandcity.govt.nz/whatson/places/parksonline/detail2.asp?pParkId=13073,playground,Local Park - Leisure
Kelvin Strand,174.653751593142,-36.827777095386,"9 Kelvin Crescent, Auckland",2,Modern Modular<br>Swing Double,20509,,,
Kemp Park,174.614582105928,-36.834619425775,"60 Kemp Road, Auckland",7,Binoculars<br>Modern Modular<br>Slide<br>Speaking Post<br>Speaking Post<br>Spinner<br>Stepping Logs<br>Swing Double,20513,http://www.aucklandcity.govt.nz/whatson/places/parksonline/detail2.asp?pParkId=13076,playground,Local Park - Leisure
Ken Maunder Park,174.681117978673,-36.9002570684304,"21 Binsted Road, Auckland",5,Fitness Station-Leg Stretch<br>Fitness Station-Monkey Bars<br>Fitness Station-Pull Up Bars<br>Fitness Station-Sit Up & Stretch<br>Fitness Station-Weaving Poles,11366,http://www.aucklandcity.govt.nz/whatson/places/parksonline/detail2.asp?pParkId=13078,"playground, toilets",Sports fields and a playground are available or take in the wildlife. A loog footbridge links the park to the residential suburbs of New Lynn via Queen Mary Avenue.
Kennedy Park,174.76480352248,-36.755110198054,"137 Beach Road, Auckland",9,Climbing Wall-Rock<br>Roundabout<br>Sand Play<br>Slide<br>Spacenet<br>Spinner bowl<br>Spinner bowl<br>Spinner bowl<br>Spinner<br>Swing flower Jnr<br>Swing flower Jnr<br>Swing hammock,11066,http://www.aucklandcity.govt.nz/whatson/places/parksonline/detail2.asp?pParkId=13082,"playground, toilets",Local Park - Coastal
Kensington Gardens,174.605912642416,-36.8921556532233,"2 South Kensington Way, Auckland",3,Modern Modular<br>Modern Modular<br>Single Seesaw<br>Swing Double,20841,http://www.aucklandcity.govt.nz/whatson/places/parksonline/detail2.asp?pParkId=13085,playground,Local Park - Leisure
Kevan Lawrence Park,174.728212255992,-37.2478293150054,"12 King Street, Auckland",4,Climbing frame<br>Climbing frame<br>Modern modular (large)<br>Roundabout<br>Springy Animal,22695,http://www.aucklandcity.govt.nz/whatson/places/parksonline/detail2.asp?pParkId=13098,playground,Local Park - Leisure
Kingdale Reserve,174.624587877141,-36.8573948951429,"1 Universal Drive, Auckland",2,Modern Modular<br>Swing Double,11383,http://www.aucklandcity.govt.nz/whatson/places/parksonline/detail2.asp?pParkId=13111,playground,Local Park - Leisure
Kingseat Recreation Reserve,174.797074563755,-37.1214717326827,"Mcrobbie Road, Auckland",5,Loose Fill<br>Loose Fill<br>Modern Modular (Large)<br>Roundabout - Sit On<br>Scale Swing<br>Swing,22699,http://www.aucklandcity.govt.nz/whatson/places/parksonline/detail2.asp?pParkId=13116,playground,Local Park - Leisure
Kiwi Reserve,174.79067327086,-36.8275440029624,"22 Kiwi Road, Auckland",2,Slide<br>Swing,20287,http://www.aucklandcity.govt.nz/whatson/places/parksonline/detail2.asp?pParkId=13133,playground,Local Park - Leisure
Knightsbridge Reserve,174.75119425439,-36.7659205806807,"60 Knightsbridge Drive, Auckland",3,Module-Medium<br>Seesaw-Spring<br>Swing,20956,http://www.aucklandcity.govt.nz/whatson/places/parksonline/detail2.asp?pParkId=13136,playground,Local Park - Leisure
Konini Reserve,174.802235828288,-36.9006173772382,"18A Waiohua Road, Auckland",6,Balancing logs<br>Embankment slide<br>Module play unit<br>Stepping logs<br>Swings<br>Twirler,10241,http://www.aucklandcity.govt.nz/whatson/places/parksonline/detail2.asp?pParkId=1035,"Playground, tables, toilets",Access to Konini Reserve is  from both Waiohua Road and Rangiora Avenue. The reserve provides a pedestrian link between these two streets. Part of the reserve is open space with a grove of native and exotic trees and a formal rose garden.
Kotuku Reserve,174.857232693936,-36.8837759668435,"39 Tippett Street, Auckland",5,Chin ups<br>Monkey bars<br>Overhead Rings<br>Overhead spinner<br>Parallel Bars,20708,,,
Kuaka Park,174.698592156722,-36.877109300328,"40 Oakley Avenue, Auckland",14,Balance spica<br>Climbing ball east<br>Climbing ball west<br>Disk spinner - small<br>Faintail roundabout<br>Module - Junior balance<br>Module - Junior unit<br>Seesaw<br>Senior module<br>Spica<br>Spica<br>Spingy animal<br>Springy car<br>Supanova<br>Swing,21383,http://www.aucklandcity.govt.nz/whatson/places/parksonline/detail2.asp?pParkId=1845,,Local green open space.
Kupe North Reserve,174.824753585665,-36.8565688640858,"97 Kupe Street, Auckland",5,Baby swing<br>Large seesaw<br>Roctopus<br>Rotating net<br>Slide,23096,http://www.aucklandcity.govt.nz/whatson/places/parksonline/detail2.asp?pParkId=1055,Playground,Local green open space.
Kupe Reserve,174.822043316058,-36.8607871241905,"146 Kepa Road, Auckland",3,Module<br>Springy seesaw<br>Swing,10033,http://www.aucklandcity.govt.nz/whatson/places/parksonline/detail2.asp?pParkId=1060,Playground,Local green open space.
La Rosa Garden Reserve,174.6757582198,-36.9302469721994,"La Rosa Street, Auckland",4,Junior module<br>Modern Modular<br>Playground Track<br>Swing Double,11417,http://www.aucklandcity.govt.nz/whatson/places/parksonline/detail2.asp?pParkId=13160,"playground, toilets",
Laingholm Reserve,174.640806956853,-36.966747291198,"4 Western Road, Auckland",4,Modern Modular<br>Playground<br>Spica<br>Swing Double,21423,http://www.aucklandcity.govt.nz/whatson/places/parksonline/detail2.asp?pParkId=13166,playground,
Lake Town Green,174.774759112547,-36.8023282832629,"57 Jutland Road, Hauraki",14,Animal sculpture-duck<br>Animal sculpture-snail<br>Animal sculpture-snake<br>Animal sculpture-tortise<br>Balance Beam on springs<br>Basket Swing<br>Climbing handholds<br>Frog sculpture<br>sandpit<br>Slide<br>Spinner<br>Swing<br>Trampoline inground<br>Trampoline inground<br>Xylophone,24041,,,
Lancelot Reserve,174.719839202926,-36.7781261641269,"16 Lancelot Place, Auckland",2,Module-Large<br>Swing,22294,,,
Lansdowne Reserve,174.770919304411,-36.8133102142918,"19 Lansdowne Street, Auckland",2,Slide<br>Swing,20291,http://www.aucklandcity.govt.nz/whatson/places/parksonline/detail2.asp?pParkId=13183,playground,Local Park - Coastal
Lavas Reserve,174.831282905738,-36.9047130260641,"4 Lavas Place, Auckland",2,Large module<br>Swing,23134,http://www.aucklandcity.govt.nz/whatson/places/parksonline/detail2.asp?pParkId=1075,,"A very pleasant open space enjoyed by local people, also referred to as Alcock Reserve as both parks are joined together."
Lawson Park,174.67517262587,-36.9182212029019,"38 Willerton Avenue, Auckland",3,Modern Modular<br>Spinner<br>Swing Double,11418,http://www.aucklandcity.govt.nz/whatson/places/parksonline/detail2.asp?pParkId=13195,playground,
Leabank Park,174.888790472316,-37.0336648668305,"30R Claymore Street, Auckland",5,Modular junior<br>Rockskate<br>Rockskate<br>Roundabout<br>Seesaw<br>Swing set,10596,http://www.aucklandcity.govt.nz/whatson/places/parksonline/detail2.asp?pParkId=13198,playground,Local Park - Sport
Leicester Hall,174.810177964296,-36.8990939737678,"20 Findlay Street, Auckland Central",2,Module - small slide<br>Play hut,10022,,,
Leiden Reserve,174.729511928244,-36.7645499003223,"13 Leiden Place, Auckland",2,Bay-Swing Mixed<br>Module-Medium,21069,http://www.aucklandcity.govt.nz/whatson/places/parksonline/detail2.asp?pParkId=13201,playground,Local Park - Leisure
Lenihan Reserve,174.743838620263,-36.7968919934618,"13 Lenihan Street, Auckland",1,Bay-Swing Mixed-3 Swings,22087,http://www.aucklandcity.govt.nz/whatson/places/parksonline/detail2.asp?pParkId=13211,playground,Local Park - Leisure
Lindisfarne,174.745891166253,-36.7953117026434,"229 Lake Road, North Shore",4,Climber-Rotating Rope<br>Module-Medium-Climber<br>Seesaw-Rotating<br>Swing,11033,http://www.aucklandcity.govt.nz/whatson/places/parksonline/detail2.asp?pParkId=13227,playground,Local Park - Leisure
Linley Reserve,174.73442979454,-36.7928104986012,"5 Linley Place, Auckland",6,Seesaw<br>Slide<br>Spinner bowl<br>Spinner bowl<br>Spinner<br>Swing<br>Swing snr,22221,http://www.aucklandcity.govt.nz/whatson/places/parksonline/detail2.asp?pParkId=13231,playground,Local Park - Leisure
Linwood Reserve,174.74664964988,-36.7568527287296,"24 Linwood Avenue, Auckland",5,Module-Small<br>Roctopus<br>Seesaw<br>Spinner<br>Swing,21073,http://www.aucklandcity.govt.nz/whatson/places/parksonline/detail2.asp?pParkId=13232,playground,Local Park - Leisure
Little Oneroa Reserve,175.018182108573,-36.7848202251672,"205 Ocean View Road, Waiheke Island",2,Module<br>Swings,10257,http://www.aucklandcity.govt.nz/whatson/places/parksonline/detail2.asp?pParkId=1105,"Barbecue, playground, boatramp, toilets",Small reserve with lovely coastal views. Great for families as is a very safe swimming location.
Little Rangitoto Reserve,174.809410765418,-36.8753326826288,"55 Upland Road, Auckland",4,Bull rider<br>Flying Fox<br>Module<br>Swing,10116,http://www.aucklandcity.govt.nz/whatson/places/parksonline/detail2.asp?pParkId=1110,,Local green with playground. This former cone has undergone some extensive modification.
Little Shoal Bay Reserve - Northcote Pt,174.741845807554,-36.8154548592752,"20 Council Terrace, North Shore",6,Airwalk Crunch<br>Leg press & situp<br>Step ups<br>Step ups<br>Twister Arm Press<br>Module-Large<br>Swing,11107,,,
Locket Reserve,174.739726209933,-36.7788197877127,"11 Locket Road, Auckland",3,Slide<br>Spinner mini O'Tannebaum<br>Swing Snr,22158,http://www.aucklandcity.govt.nz/whatson/places/parksonline/detail2.asp?pParkId=13243,playground,Local Park - Leisure
Lockington Green,174.619078809839,-36.8732537455392,"Lockington Avenue, Auckland",5,Fitness Station<br>Modern Modular<br>Spica<br>Springy Animal<br>Swing Double,20502,http://www.aucklandcity.govt.nz/whatson/places/parksonline/detail2.asp?pParkId=13244,playground,Local Park - Leisure
Logan Carr Reserve,174.919120323502,-36.9342767047495,"585R Chapel Road, Auckland",4,Fitness bike<br>CrossTrainer<br>HipSwing<br>Overhead press,22782,http://www.aucklandcity.govt.nz/whatson/places/parksonline/detail2.asp?pParkId=13245,playground,Local Park - Leisure
Lone Tree Park,174.65338778526,-36.8455687902304,"1 Lone Tree Avenue, Auckland",4,Modern Modular<br>Playground Track<br>Springy Animal<br>Swing Double,20886,http://www.aucklandcity.govt.nz/whatson/places/parksonline/detail2.asp?pParkId=13249,playground,Local Park - Leisure
Luckens Reserve,174.642002154501,-36.816216033184,"102 Marina View Drive, Auckland",6,Module-Large<br>Slide<br>Spinner<br>Springy clown<br>Springy pelican<br>Swing,20853,http://www.aucklandcity.govt.nz/whatson/places/parksonline/detail2.asp?pParkId=13264,"BBQ,playground, toilets",There is a children's playground  and you can also join the Waipareira walkway for a scenic stroll.
Lydford Green,174.648925788887,-36.8943144960347,"15 Lydford Place, Auckland",3,Modern Modular<br>Single Seesaw<br>Swing Double<br>Swing Double,20857,http://www.aucklandcity.govt.nz/whatson/places/parksonline/detail2.asp?pParkId=13270,playground,Local Park - Leisure
Lynfield Reserve,174.722423235452,-36.9267072362689,"34 Rangitiki Crescent, Auckland",6,Module junior<br>Pyramid rope climbing net<br>Seesaw<br>Springy rider car<br>Supernova<br>Swing,10211,http://www.aucklandcity.govt.nz/whatson/places/parksonline/detail2.asp?pParkId=1145,"Playground, toilets",Local green open space.
Lynn Reserve,174.703104112491,-36.7737124848836,"107 Lynn Road, Auckland",5,Overhead Event<br>Seesaw<br>Slide<br>Spinner bowl<br>Swing,22161,http://www.aucklandcity.govt.nz/whatson/places/parksonline/detail2.asp?pParkId=13272,playground,Natural
Lysander Crescent Reserve,174.691151200708,-36.7989625320497,"50 Lysander Crescent, Auckland",3,Spinner bowl<br>Springy animal ladybird<br>Swing-Hammock-Small,22095,,,
Macadamia Park (Melia Grove Reserve),174.898833858898,-36.9949291338671,"15 Melia Grove, Auckland",4,Cresent spinner<br>Slide<br>Small modular<br>Swing set,22936,,,
Macleans Park,174.917947840726,-36.8837175280398,"67R The Esplanade, Auckland",1,Flying Fox,22739,,,
Madills Farm Recreation Reserve,174.845274810188,-36.858531063525,"6 Baddeley Avenue, Auckland Central",13,Basket swing<br>Climbing net<br>Embankment slide<br>Embankment slide<br>Four bay swing<br>Gyroscope spinner<br>In-ground trampolines<br>Play module<br>Pre-school play module<br>Roundabout<br>Spring rider seesaw<br>Stepping logs<br>Timber tower tube slides<br>Tree hut,10424,,,
Mairangi Bay Beach Reserve,174.755928388358,-36.7379818102224,"16 Brighton Terrace, North Shore",1,Swing,11043,,,
Mairangi Bay Village Green,174.754350122013,-36.7387273855508,"4 Sidmouth Street, Auckland",7,Archway<br>Archway<br>Archway<br>Archway<br>Archway<br>Cubby House<br>Module-Medium-Jnr<br>Mushroom table & seats<br>Roctopus<br>Roundabout-Kidabout Carousel<br>Swing,22009,http://www.aucklandcity.govt.nz/whatson/places/parksonline/detail2.asp?pParkId=13296,"playground, toilets",Local Park - Leisure
Major Henry Greens,174.675014794968,-36.6000626853433,"Major Henry Greens, Silverdale",5,Module-Medium<br>Seesaw-Spring<br>Springy digger<br>Springy ladybird<br>Swing,23654,,,
Malcolm Hahn Memorial Reserve,174.636584348207,-36.7776522377884,"39 Waimarie Road, Auckland",3,Cubby & Slide<br>Module-Climber<br>Swing,20996,http://www.aucklandcity.govt.nz/whatson/places/parksonline/detail2.asp?pParkId=13300,playground,Local Park - Leisure
Mangere Domain (Non Leased),174.785932135638,-36.9473023667424,"17R Domain Road, Auckland",4,Balancing Bar<br>Modern Modular (Small)<br>Spinning Cup<br>Swing<br>Swing,22940,,,
Mangere Mountain Education Centre,174.788326926471,-36.9480713508356,"98 Coronation Road, Auckland",2,Plastic tunnel in barn<br>Plastic tunnel in childrens garden<br>Plastic tunnel in childrens garden,10699,,,
Mangere Recreation Centre,174.801743361558,-36.9716534983523,"66R Mascot Avenue, Auckland",1,Fitness device<br>Fitness device<br>Fitness device,21750,,,
Manly Park,174.758803168283,-36.6291975736672,"60 Laurence Street, Auckland",3,Module-Medium<br>Seesaw-Spring<br>Swing,20518,http://www.aucklandcity.govt.nz/whatson/places/parksonline/detail2.asp?pParkId=13310,"playground, toilets",
Manuhiri Reserve,174.792549870079,-36.3522628344702,"Taumata Road, Auckland",2,Module-Medium-Jnr<br>Swing,11302,http://www.aucklandcity.govt.nz/whatson/places/parksonline/detail2.asp?pParkId=13313,playground,
Manuka Park,174.674802997929,-36.9027551866053,"62 Nikau Street, Auckland",4,Modern Modular<br>Playground Track<br>Spica<br>Swing Quad,20874,http://www.aucklandcity.govt.nz/whatson/places/parksonline/detail2.asp?pParkId=13315,playground,Local Park - Leisure
Manuka Reserve,174.698013655889,-36.7785086213091,"215 Manuka Road, Auckland",3,Module-Medium<br>Seesaw<br>Swing,20075,http://www.aucklandcity.govt.nz/whatson/places/parksonline/detail2.asp?pParkId=13316,"playground, toilets",Natural
Manukau Park,174.766110535036,-36.9440008054374,"96R Muir Avenue, Auckland",3,Modern Modular (Large)<br>Seesaw<br>Swing,22755,http://www.aucklandcity.govt.nz/whatson/places/parksonline/detail2.asp?pParkId=13319,playground,Local Park - Leisure
Manukau Sports Bowl,174.887244731828,-36.9827335479348,"1 Boundary Road, Auckland",6,Flying fox<br>Junior modular<br>Play posts<br>Senior module<br>Swing set<br>Swing single bay,10591,http://www.aucklandcity.govt.nz/whatson/places/parksonline/detail2.asp?pParkId=13321,"playground, toilets",Local Park - Sport
Manuroa Reserve,174.92600276033,-37.0374400700389,"103R Manuroa Road, Auckland",3,Climbing Frame<br>Modern Modular (Small)<br>Swing,23007,http://www.aucklandcity.govt.nz/whatson/places/parksonline/detail2.asp?pParkId=13326,playground,Local Park - Leisure
Manutewhau Reserve,174.62094447686,-36.8250174319018,"13 Jadewynn Drive, Auckland",3,Modern Modular<br>Playground Track<br>Swing Double,21841,http://www.aucklandcity.govt.nz/whatson/places/parksonline/detail2.asp?pParkId=13327,playground,Local Park - Leisure
Maraetai Park,175.042004050933,-36.879981214372,"194 Maraetai Drive, Auckland",4,Modern Modular (Small)<br>Modern Modular (Small)<br>Swing<br>Roundabout Snr<br>Spinning Cup Snr<br>Swing,10759,http://www.aucklandcity.govt.nz/whatson/places/parksonline/detail2.asp?pParkId=13336,"playground, toilets",Local Park - Coastal
Margaret Griffen Park,174.721339977077,-36.9212374166697,"16 Griffen Park Road, Auckland",12,Balance beam - wooden<br>Lullabye basket swing<br>Lunar spinner<br>Module<br>Pyramid rope climber<br>Slide<br>Spica twirl about<br>Springy car<br>Springy seesaw<br>Springy skateboard<br>Springy skateboard<br>Staircase<br>Swings,10381,http://www.aucklandcity.govt.nz/whatson/places/parksonline/detail2.asp?pParkId=1175,"Playground, bike stands, toilets","A lovely open space available for a variety of passive and active sports, this venue also caters for the Lynfield Recreation Centre, Day Care Centre and Scout Den."
Marina View Reserve,174.639292544575,-36.8107868167132,"40 Marina View Drive, Auckland",2,Module-Medium<br>Swing,20695,http://www.aucklandcity.govt.nz/whatson/places/parksonline/detail2.asp?pParkId=13346,playground,There is a children's playground  and you can also join the Waipareira walkway for a scenic stroll.
Marinich Reserve,174.606150925024,-36.8654929043467,"20 Marinich Drive, Auckland",1,Modern Modular,11438,http://www.aucklandcity.govt.nz/whatson/places/parksonline/detail2.asp?pParkId=13350,playground,Local Park - Leisure
Marlborough Park,174.734034256871,-36.7835981250741,"13 Chartwell Avenue, Glenfield",12,Fitness device<br>FITN-FE01 Twister<br>Leg press<br>Air Walker<br>Abacus<br>Climber Wall<br>Module-Large<br>Preludic flying fox<br>Spacenet<br>Swing<br>Swing snr<br>Swing flower Jnr<br>Swing flower Jnr,11096,http://www.aucklandcity.govt.nz/whatson/places/parksonline/detail2.asp?pParkId=13351,"playground, toilets",Local Park - Leisure
Marlene Glade,174.646028350938,-36.8587517720608,"Porter Avenue, Auckland",3,Fitness Station<br>Modern Modular<br>Swing Triple,20883,http://www.aucklandcity.govt.nz/whatson/places/parksonline/detail2.asp?pParkId=13352,playground,Local Park - Leisure
Martin Jugum Reserve,174.610702729226,-36.8670402685148,"Martin Jugum Lane, Auckland",4,Modern Modular<br>Single Seesaw<br>Spica<br>Spinner,20636,http://www.aucklandcity.govt.nz/whatson/places/parksonline/detail2.asp?pParkId=13357,playground,Local Park - Leisure
Martins Bay Grounds,174.763692713629,-36.4481825250329,"287 Martins Bay Road, Auckland",8,Abacus<br>module small<br>Module-Medium<br>Module - Medium<br>Noughts & Crosses<br>Seesaw-Spring<br>Springy whale<br>Swing,11272,,,
Mary Wilson Reserve,175.054950444829,-36.8178343022685,"30 Valley Road, Waiheke Island",4,Module<br>Sand play bench<br>Seesaw<br>Swing T bar,10245,http://www.aucklandcity.govt.nz/whatson/places/parksonline/detail2.asp?pParkId=1205,"Barbecue, playground, toilets",Local green open space with magnificent views south from Waiheke Island.
Mason Park,174.668105951613,-36.9107878468029,"13 Fruitvale Road, Auckland",4,Modern Modular<br>Modern Modular<br>Playground Track<br>Springy Animal<br>Swing Double,11490,http://www.aucklandcity.govt.nz/whatson/places/parksonline/detail2.asp?pParkId=13363,"playground, toilets",Local Park - Leisure
Massey Park - Waiuku,174.728553197855,-37.2551523523761,"50 Belgium Street, Auckland",8,Climbing Frame<br>Climbing Frame<br>Modern Modular (Small)<br>Rolling Log<br>Scale Swing<br>Swing<br>Track Glide<br>Timber ramp<br>Timber/Aluminium ramp,10535,,,
Massey Reserve,174.798477690644,-36.8987035088302,"21 Massey Avenue, Auckland",3,Boat<br>Slide<br>Swings,10317,http://www.aucklandcity.govt.nz/whatson/places/parksonline/detail2.asp?pParkId=1215,"The remainder of the reserve is an open, grassed area with peripheral planting. This planting consists of specimen trees such as betula pendula and prunus spp surrounded by a lower planting level which includes varieties of pittosporum, lantana, grevillea, nandina, phormium and hebe. A mature vitex lucens (puriri) dominates the street frontage of the reserve.",A hall is located on the western side of the reserve. An area to the rear of the hall is fenced and contains play equipment for use by the kindergarten.
Matakana Wharf Reserve,174.718542123062,-36.3528379592368,"1331 Leigh Road, Auckland",3,pendulum swing<br>Climbing module<br>slide & platform,22240,,,
Matheson Bay Reserve,174.798729295626,-36.3007580842697,"2 Matheson Bay Road, Auckland",3,Module-Medium<br>Springy fish<br>Swing,22255,http://www.aucklandcity.govt.nz/whatson/places/parksonline/detail2.asp?pParkId=13377,"playground, toilets",
Maui Reserve,174.686277280937,-36.9183240380159,"16 Maui Street, Auckland",2,Fort/Slide<br>Swing Double,20779,http://www.aucklandcity.govt.nz/whatson/places/parksonline/detail2.asp?pParkId=13382,playground,Local Park - Leisure
Mauku Reserve,174.690197924506,-36.7681412426093,"38 Mackay Drive, Greenhithe",3,Kompan Apex<br>Kompan multi spinner<br>Swing,24314,,,
Maungawhau Domain (Mt Eden),174.76308229111,-36.8720715183537,"250 Mount Eden Road, Auckland Central",8,Flying Fox<br>Flying Fox<br>Hip Hop seesaw<br>Junior Module<br>Roundabout<br>Spacenet<br>Swings<br>Train Track<br>Tree House Senior Module,10179,,,
May Road War Memorial Park,174.737228136932,-36.9050906078036,"13 May Road, Auckland",20,Fitness Station - Hurdle<br>Fitness Station - Hurdle<br>Fitness Station - Rung Ladder<br>Fitness Station Balance Log<br>Fitness Station Balance Log<br>Fitness Station<br>Fitness Station Cycle Strider<br>Fitness Station Cycle Strider<br>Fitness Station Horse Rider<br>Fitness Station Jump Touch<br>Fitness Station Monkey Bars<br>Fitness Station Sit up Bench<br>Fitness Station Step and Reach<br>Fitness Station Stepping Poles<br>Luna spinner<br>Module<br>Module fitness<br>Parkour Unit<br>Spica twirl about<br>Spica twirl about<br>Springy rocker<br>Springy rocker<br>Stepping logs<br>Stepping platform - webbed<br>Swing<br>Swing,10034,,,
Maybury Reserve,174.85946501946,-36.8791580210767,"40 Maybury Street, Auckland Central",2,Module<br>Swing,10176,http://www.aucklandcity.govt.nz/whatson/places/parksonline/detail2.asp?pParkId=1255,"This open space runs from the Glen Innes Shopping Centre, starting with the Ruapotaka Marae, Glen Innes Community Centre/CAB/Plunket facility and Glen Innes Library all the way down to the","A lovely long open space, with a creek running through the centre of it. It is a favourite walkway for locals. Still has remnants of the community garden established by Tom Court with the feijoas trees still providing fruit for school children running parallel to the path."
Maygrove Reserve,174.685968576663,-36.592222600048,"108 Riverside Road, Orewa",3,Module-Medium<br>Seesaw-Spring<br>Swing,20661,http://www.aucklandcity.govt.nz/whatson/places/parksonline/detail2.asp?pParkId=13389,playground,
Mcclintock Reserve,174.605953390769,-36.835262656302604,"22 Mcclintock Road, Auckland",2,Modern Modular<br>Swing Double,20706,http://www.aucklandcity.govt.nz/whatson/places/parksonline/detail2.asp?pParkId=13393,playground,Local Park - Leisure
Mckinley Park,174.638223500747,-36.8997021185997,"6 Mckinley Road, Auckland",5,Fort/Slide<br>Modern Modular<br>Playground Track<br>Spinner<br>Swing Triple,20716,http://www.aucklandcity.govt.nz/whatson/places/parksonline/detail2.asp?pParkId=13402,playground,Local Park - Leisure
McLeod Park,174.655770100693,-36.8757179365228,"196 McLeod Road, Auckland",3,Modern Modular<br>Playground Track<br>Swing Double,11488,,,
Mcshane Street Reserve,174.892296179123,-37.1959257442492,"31 Mcshane Street, Auckland",3,Climbing frame<br>Modern modular (large)<br>Swing unit,22932,,,
Meadowland Park,174.935673336212,-36.9112858101415,"41R Meadowland Drive, Auckland",8,Air Walker<br>Hip Swing<br>Leg Press<br>Rowing Machine<br>Sit Ups<br>Tricep Ext<br>Modern modular (large)<br>Modern modular (large)<br>Swing unit,10710,http://www.aucklandcity.govt.nz/whatson/places/parksonline/detail2.asp?pParkId=13416,"playground, toilets",Local Park - Sport
Meadowood Reserve,174.722058906953,-36.7529565388446,"55 Meadowood Drive, Auckland",8,Bars<br>Basketball court<br>Climber-Galaxy Youth<br>Module - Large<br>Seesaw<br>Seesaw-Spring<br>Spinner<br>Swing,10932,http://www.aucklandcity.govt.nz/whatson/places/parksonline/detail2.asp?pParkId=13417,"BBQ,playground",Local Park - Leisure
Medlands Playground Reserve,175.496899439089,-36.2692680642638,"73 Sandhills Road, Great Barrier Island",5,Hip Hop seesaw<br>Module<br>Slide<br>Stepping logs/balance beam<br>Swings,10314,,,
Melia Reserve,174.619341634651,-36.8370213337997,"Ginders Drive, Auckland",2,Modern Modular<br>Swing Double,21845,http://www.aucklandcity.govt.nz/whatson/places/parksonline/detail2.asp?pParkId=13424,playground,Local Park - Leisure
Melrose Reserve,174.792291144956,-36.8264044618699,"26 Shoal Bay Road, Auckland",5,Roundabout-Classic<br>Seesaw<br>Slide<br>Springy-3 Animals<br>Swing,20299,http://www.aucklandcity.govt.nz/whatson/places/parksonline/detail2.asp?pParkId=13428,playground,Local Park - Leisure
Melville Park,174.76809551518,-36.8860089794289,"249 Gillies Avenue, Auckland",4,Module<br>Seesaw<br>Seesaw<br>Senior overhead climber<br>Swing<br>Swing,10415,,,
Mervan Street Reserve,174.815129147556,-36.9690258865288,"18R Mervan Street, Auckland",2,Modern modular (large)<br>Swing unit,10708,http://www.aucklandcity.govt.nz/whatson/places/parksonline/detail2.asp?pParkId=13433,playground,Local Park - Leisure
Michaels Avenue Reserve,174.818485474731,-36.8952042083672,"46 Michaels Avenue, Auckland Central",4,Fitness Station<br>Fitness Station<br>Fitness Station<br>Fitness Station<br>Fitness Station<br>Fitness Station<br>Fitness Station<br>Fitness Station<br>Module<br>Module<br>Swing<br>Track glide,10441,http://www.aucklandcity.govt.nz/whatson/places/parksonline/detail2.asp?pParkId=1295,"Caters for cricket and soccer, and is home to the Ellerslie Recreation Centre and a number of smaller leased facilities.","A huge open space, accessible by a number of streets with the main entrance being Michaels Avenue. This reserve has it's own wetland area to the north of the park with an interesting array of flora, fauna and wild life."
Middlemore Park,174.843729591343,-36.966826024856,"67R Swaffield Road, Auckland",3,Open Tile<br>Modern modular (large)<br>Swing unit,10825,http://www.aucklandcity.govt.nz/whatson/places/parksonline/detail2.asp?pParkId=13437,playground,Local Park - Leisure
Milford Reserve,174.766512913753,-36.7658516050058,"24 Craig Road, Auckland",2,Module-Large<br>Swing,11068,http://www.aucklandcity.govt.nz/whatson/places/parksonline/detail2.asp?pParkId=13445,"BBQ,playground, toilets",Local Park - Coastal
Millwater Park Playground Reserve,174.668244149571,-36.5990041002759,"Botanical Drive, Auckland",7,Module-Medium<br>Seesaw-Spring<br>Seesaw<br>Spinner<br>Swing snr<br>Swing T bar Jnr<br>Seat,22668,,,
Miranda Reserve,174.701561431631,-36.9112718810322,"32A Miranda Street, Auckland",3,Junior Seesaw<br>Modern Modular<br>Swing Double,21534,http://www.aucklandcity.govt.nz/whatson/places/parksonline/detail2.asp?pParkId=1300,"Playground, table",Local green open space.
Moa Reserve,174.711854738742,-36.8639667279823,"73 Moa Road, Auckland",2,Module<br>Swings,23058,http://www.aucklandcity.govt.nz/whatson/places/parksonline/detail2.asp?pParkId=1315,,Local green open space.
Moira Reserve,174.736755795007,-36.8530561016786,"14 Moira Street, Auckland",3,Slide<br>Springy seesaw<br>Swing T bar,23056,http://www.aucklandcity.govt.nz/whatson/places/parksonline/detail2.asp?pParkId=1320,Playground,Local green open space.
Moire Park,174.630263603741,-36.8289276810241,"38 Granville Drive, Auckland",2,Modern Modular<br>Swing Double,11486,http://www.aucklandcity.govt.nz/whatson/places/parksonline/detail2.asp?pParkId=13469,"BBQ,playground, toilets","Half of this large park in dense bush, where you can walk of jog through the network of tracks. The other half is sports fields."
Monarch Park,174.729302079687,-36.7984444297794,"68 Moore Street, Auckland",8,Log Roll<br>Module-Large<br>Module-Small-Preschool<br>Seesaw-Snake<br>Slide<br>Springy animal butterfly<br>Swing<br>Swing Jnr,22167,http://www.aucklandcity.govt.nz/whatson/places/parksonline/detail2.asp?pParkId=13475,playground,Local Park - Leisure
Monkey Hill,174.749223286456,-36.8723474936635,"Onslow Road, Auckland",1,Swing,21181,http://www.aucklandcity.govt.nz/whatson/places/parksonline/detail2.asp?pParkId=1330,Playground,Small local green open space.
Montgomery Reserve,174.794367249575,-36.8099337794201,"21 Montgomery Avenue, Auckland",5,Module-Large-Boat Shape<br>Overhead Event-Track Ride<br>Springy boat<br>Swing<br>Swing hammock,20303,http://www.aucklandcity.govt.nz/whatson/places/parksonline/detail2.asp?pParkId=13477,playground,Local Park - Leisure
Mountfort Park,174.880946645231,-37.0335398039756,"25R Dr Pickering Avenue, Auckland",4,Galaxy polaris module<br>Modern modular (large)<br>Swing unit<br>Swing unit<br>Wheel chair exercises,10687,http://www.aucklandcity.govt.nz/whatson/places/parksonline/detail2.asp?pParkId=13493,"playground, toilets",Premier Park - Sport
Mt Albert War Memorial Reserve,174.725441898368,-36.8796692228314,"751-773 New North Road, Auckland Central",11,Balance beam<br>Fitness device<br>Fitness device<br>Fitness device<br>Fitness device<br>Flying Fox<br>Junior activity table<br>Junior Module<br>Liberty Swing<br>Rocket structure<br>Senior module<br>Spica<br>Spica<br>Spica<br>Swing<br>Swing T bar,10396,http://www.aucklandcity.govt.nz/whatson/places/parksonline/detail2.asp?pParkId=1350,,Local green open space.
Mt Wellington War Memorial Reserve,174.865511666663,-36.9007420094128,"14 Dunkirk Road, Auckland",3,Large module<br>Seesaw<br>Swing,10407,http://www.aucklandcity.govt.nz/whatson/places/parksonline/detail2.asp?pParkId=1385,,Dunkirk Reserve and Mt Wellington War Memorial Reserve - The War Memorial is one of the most used reserves in the area. Together with the adjoining Dunkirk Road Reserve it makes up an area of 15½ hectares with one kilometre of waterfront bounding the Tamaki River.
Mulberry Grove Reserve & School,175.494960214701,-36.312793377267,"271 Shoal Bay Road, Auckland",5,Cup spinner<br>Cup spinner<br>Cup spinner<br>Module<br>Module - large<br>springy animal<br>Springy animal,20672,,,
Murillo Reserve,174.619734831747,-36.890778002639,"17 Murillo Place, Auckland",4,Climbing Frame<br>Spinner<br>Springy Bike<br>Swing Double,21817,http://www.aucklandcity.govt.nz/whatson/places/parksonline/detail2.asp?pParkId=13505,playground,Local Park - Leisure
Muriwai Beach Playground (DOC),174.428453089129,-36.8304529588228,"341 Motutara Road, Auckland",7,Module-Medium-Jnr<br>Module medium (senior)<br>Overhead<br>Seesaw-Spring<br>Slide<br>Springy whale<br>Springy whale<br>Swing,22471,,,
Murphy Park,174.847095312917,-36.9436681159346,"102 Church Street, Auckland",13,Cross trainer<br>Hip flexor/chin ups<br>Stationary bike<br>Basket swing<br>Climbing frame<br>Medium Modular<br>Modular (medium)<br>Poles<br>Roundabout<br>Seesaw<br>Slide<br>Springy<br>Swing unit,10383,http://www.aucklandcity.govt.nz/whatson/places/parksonline/detail2.asp?pParkId=1395,"Playground, tables, toilets","An open space near the heart of Otahuhu, surrounded by Church Street and Avenue Road, offers many opportunities for informal/formal, passive and/or active events."
Murphy Park,174.847095312917,-36.9436681159346,"102 Church Street, Auckland",13,Cross trainer<br>Hip flexor/chin ups<br>Stationary bike<br>Basket swing<br>Climbing frame<br>Medium Modular<br>Modular (medium)<br>Poles<br>Roundabout<br>Seesaw<br>Slide<br>Springy<br>Swing unit,10383,http://www.aucklandcity.govt.nz/whatson/places/parksonline/detail2.asp?pParkId=13510,"playground, toilets",Local Park - Sport
Murray Halberg Park,174.713766043076,-36.8959764593187,"117 Richardson Road, Auckland",4,Junior Module<br>Rotating Net<br>Senior Module<br>Swings,10065,http://www.aucklandcity.govt.nz/whatson/places/parksonline/detail2.asp?pParkId=1400,Playground,"Narrow space catering to league, rugby and touch with paths that link local streets. Used mainly by locals as an accessway and for walking within the park."
Murrays Bay Beach Reserve,174.753043297971,-36.7327586966575,"513A Beach Road, Auckland",1,Swing,20020,,,
Myers Park,174.761290647422,-36.8550792648466,"72 Greys Avenue, Auckland",14,Caterpillar<br>Creature Bellbird<br>Creature Fantail<br>Creature Snail<br>Flower Canopy Disc<br>Flower Canopy Disc<br>Flower Canopy Disc<br>Flower Canopy Disc<br>Flower Canopy Disc<br>Flower Canopy Disc<br>Flower Canopy Disc<br>Flower Canopy Disc<br>Flower Canopy Disc<br>Flower Canopy Disc<br>Flower Canopy Disc<br>Flower Canopy Disc<br>Flower Canopy Disc<br>kamokama<br>Large Spinner<br>Small Spinner<br>Vines Leaves<br>Vines Leaves<br>Birds Nest Swing<br>Climbing Module<br>Junior Slide<br>Junior Swing<br>Junior Swing<br>Timber Climbing/Seat,10277,http://www.aucklandcity.govt.nz/whatson/places/parksonline/detail2.asp?pParkId=1410,"This park contains many displays of lovely trees offering shade during the hot summer months including Puriri, a huge Morton Bay Fig, and an avenue of palms. Take pleasure from Michelangelo's replica of Moses which was presented to the city in 1971, and other such fascinating works. Pedestrian access is available from Queen Street, Karangahape Road, Greys Avenue and Mayoral Drive.","Immerse yourself in this central city oasis, take a weekday stroll or enjoy a picnic on this sloping, linear, historical park. Myers Park links the diverse and colourful Karangahape Road with Aotea Square and Queen Street."
Narrow Neck Beach,174.80128448685,-36.8128811930244,"2 Old Lake Road, Auckland",4,Climber-Galaxy Youth<br>Seesaw-Spring<br>Slide spiral<br>Swing,11143,http://www.aucklandcity.govt.nz/whatson/places/parksonline/detail2.asp?pParkId=13521,"BBQ,playground, toilets",Local Park - Coastal
Nell Fisher Reserve,174.72635784922701,-36.8130120353391,"204 Hinemoa Street, North Shore",4,Slide<br>Spinner bowl<br>Springy animal ladybird<br>Swing keyhole Jnr,10941,,,
Neptune Avenue Reserve,174.683806007203,-36.7979064865438,"38 Neptune Avenue, Auckland",4,Log Hut<br>Slide<br>Swing hammock<br>Swing T bar,20351,http://www.aucklandcity.govt.nz/whatson/places/parksonline/detail2.asp?pParkId=13530,playground,Local Park - Leisure
Neville Power Memorial Park,174.642458942134,-36.8711690740868,"Kirrie Avenue, Auckland",3,Modern Modular<br>Supernova<br>Swing Double,11479,http://www.aucklandcity.govt.nz/whatson/places/parksonline/detail2.asp?pParkId=13532,"playground, toilets",Local Park - Sport
Newmarket Park,174.784177359655,-36.8644245927205,"51 Ayr Street, Auckland",2,Roktopus<br>Rope climbing net,10395,http://www.aucklandcity.govt.nz/whatson/places/parksonline/detail2.asp?pParkId=1420,Development after the adoption of the first management plan for the Park in 1989 included extensive planting of both native and exotic species. Of note are the many native species planted along the south-eastern edge of the terrace along the top of the steep bank down to the gully.,"Newmarket Park is located on the western slope of the Newmarket Stream gully, with the main entrance and parking facility at 51 Ayr Street, Newmarket."
Nicholson Park,174.764380785503,-36.8836096714223,"25 Poronui Street, Auckland",4,Fantail<br>Module<br>Swing<br>Swing T bar,10444,http://www.aucklandcity.govt.nz/whatson/places/parksonline/detail2.asp?pParkId=1455,"Playground, table","Named after the first Mayor of Mount Eden, Oliver Nicholson, this park is one of five public recreation reserves within Mt Eden that cater for organised sports. Included in the park are a children’s play area, tennis courts, bowling greens and croquet lawns."
Nicolas Reserve,174.625270960902,-36.9104900737872,"West Coast Road, Auckland",5,Modern Modular<br>Modern Modular<br>Spica<br>Springy Animal<br>Swing Double<br>Swing Triple,21826,http://www.aucklandcity.govt.nz/whatson/places/parksonline/detail2.asp?pParkId=13546,playground,Local Park - Leisure
Nile Reserve (Milford),174.753956206193,-36.7767618647595,"39 Nile Road, Auckland",3,Module-Small<br>Seesaw-Spring<br>Swing,21090,,,
Nixon Park,174.746047121123,-36.8700167917983,"7 Fourth Avenue, Auckland",3,Module<br>Seesaw<br>Swings,10151,http://www.aucklandcity.govt.nz/whatson/places/parksonline/detail2.asp?pParkId=1470,"Nixon Skatepark is also home to  Nixon Skatepark, designed for the needs of 6-13 year old skaters.","A medium sized park, sunny location with trees within the park that give it a pleasant feel. Limited use for those passively looking for something to do, but ideal for recreational purposes. Caters for basketball, volleyball, rugby league and touch, has training lights for use on cold dark winter nights."
Normanton Reserve,174.728728700356,-36.7739381483434,"9 Normanton Street, Auckland",9,Fitness device<br>Airwalker<br>Fitness device<br>Bike Step<br>Leg Press<br>Fitness device<br>Module-Medium<br>Overhead Event<br>Roctopus<br>Seesaw standup puppet<br>Spinner,20006,http://www.aucklandcity.govt.nz/whatson/places/parksonline/detail2.asp?pParkId=13555,"playground, toilets",Local Park - Leisure
North Road Reserve,175.037400804956,-36.9910465574654,"6 North Road, Auckland",4,Modern modular (large)<br>Spring Bike<br>Spring Horse<br>Swing unit,22989,http://www.aucklandcity.govt.nz/whatson/places/parksonline/detail2.asp?pParkId=13557,playground,Local Park - Leisure
North Shore Memorial Park,174.793504746173,-36.8198104555466,"235 Schnapper Rock Road, Auckland",1,Gate<br>Gate,10950,,,
Northall Park,174.668244454916,-36.9142287544194,"Titirangi Road, Auckland",2,Modern Modular<br>Playground Track,21852,http://www.aucklandcity.govt.nz/whatson/places/parksonline/detail2.asp?pParkId=13561,"playground, toilets",Local Park - Sport
Northboro Reserve,174.781568830954,-36.8038549645817,"39 Northboro Road, Auckland",8,Boat Surround - Timber<br>Flying Fox<br>Module-Medium-Sandplay<br>Slide<br>Spacenet<br>Stepping logs to slide<br>Swing basket<br>Swing keyhole Jnr,20311,,,
Northcote Shops,174.746788362404,-36.8008105231679,"Ernie May Street, Auckland",7,Archway<br>Archway<br>Archway<br>Archway<br>Climber<br>Rider-Whale<br>Seesaw spring octopus<br>Spinner bowl<br>Swing flower Jnr<br>Swing keyhole Jnr,23359,,,
Northcroft Esplanade Reserve,174.76854619511101,-36.7913444850592,"40 Northcroft Street, Auckland",2,Module-Medium<br>Swing,21094,http://www.aucklandcity.govt.nz/whatson/places/parksonline/detail2.asp?pParkId=13563,playground,Local Park - Coastal
Northwood Reserve,174.698462485457,-36.7384846980934,"44 Northwood Avenue, Auckland",2,Module-Medium<br>Module-Small-Jnr,20207,,,
O'Conner Drive Reserve,174.903063195661,-37.2133275228323,"48 O'Connor Drive, Auckland",5,Play Hut<br>Roundabout<br>Seesaw<br>Slide<br>Swing Unit,22852,http://www.aucklandcity.govt.nz/whatson/places/parksonline/detail2.asp?pParkId=13577,playground,Local Park - Leisure
Oak Park,174.647260087607,-36.8029787909337,"21 Oakpark Place, Auckland",3,Module-Small - Apollo Senior<br>Module-Small-clock tower Junior<br>Swing basket,21909,http://www.aucklandcity.govt.nz/whatson/places/parksonline/detail2.asp?pParkId=13571,playground,Local Park - Leisure
Okahu Bay Reserve,174.81776487483,-36.8517853813077,"14 Tamaki Drive, Auckland",7,Accessible module<br>Commet spinner<br>Flying Fox<br>Large Fort<br>Liberty Swing<br>Roktopus<br>Swing,21798,,,
Okura Reserve,174.719796277497,-36.6775583982214,"81 Okura River Road, North Shore",5,Flying Fox<br>Module-Small-Preschool<br>Spinner bowl<br>Swing snr<br>Swing flower Jnr,11058,,,
Old Mill Reserve,174.722329704443,-36.8605972494527,"120 Old Mill Road, Auckland",2,Module<br>Swings,23078,http://www.aucklandcity.govt.nz/whatson/places/parksonline/detail2.asp?pParkId=1490,"Playground, table",Local green open space.
Olive Grove,174.645577113089,-36.9101071986886,"Verdale Circle, Auckland",2,Modern Modular<br>Swing Double,20949,http://www.aucklandcity.govt.nz/whatson/places/parksonline/detail2.asp?pParkId=13592,playground,Local Park - Leisure
Olympic Park,174.693130239471,-36.9094641692233,"45 Portage Road, Auckland",11,Double Slide<br>Hoop<br>Modern Modular<br>Modern Modular<br>Modern Modular<br>Space Net<br>Space Net<br>Spica<br>Spica<br>Spinner<br>Springy Animal<br>Supernova<br>Swing Double<br>Swing Double<br>Swing Hexagon<br>Swing Single<br>Swing Single,11482,http://www.aucklandcity.govt.nz/whatson/places/parksonline/detail2.asp?pParkId=13593,"Olympic Park, located alongside the Avondale stream, was awarded the Outstanding Park Award 2007 by the New Zealand Recreation Association (NZEA).  The park offers a state of the art playground, large open spaces and sports facilities.",
Omana Esplanade,175.030649133599,-36.8774128881238,"26R Omana Esplanade, Auckland",4,Modern Modular (Large)<br>Modern Modular (Small)<br>Swing<br>Modern modular,10652,http://www.aucklandcity.govt.nz/whatson/places/parksonline/detail2.asp?pParkId=13601,"playground, toilets",Local Park - Coastal
Omana Regional Park,175.022606353822,-36.8794457351801,"2 Beach Road, Auckland East",13,Balancing rope<br>Fire pit<br>Large modular<br>Monkey bar<br>Monkey bars<br>Seesaw<br>Spiral net climer<br>Step'g pods<br>Stepping logs<br>Swing attach to tree<br>Swing set<br>Swing set<br>Timber waka<br>Tree hut-In bush,10467,,,
One Tree Hill Domain,174.775610985378,-36.906069550858,"670 Manukau Road, Auckland",14,Flying Fox<br>Junior Swings<br>Liberty Swing<br>Observatory Starfinder<br>Roctopus<br>Senior Swings<br>Slide<br>Sprial Net Climb<br>Springy seesaw - large<br>Springy seesaw junior<br>Supa nova<br>Swing<br>Train<br>Train station,10362,http://www.aucklandcity.govt.nz/whatson/places/parksonline/detail2.asp?pParkId=1530,,
Onedin Green,174.647483308054,-36.9262412320041,"11 Onedin Place, Auckland",1,Swing Double,21877,http://www.aucklandcity.govt.nz/whatson/places/parksonline/detail2.asp?pParkId=13606,playground,Local Park - Leisure
Onehunga Bay Reserve,174.777398984978,-36.9249897396982,"71 Beachcroft Avenue, Auckland",3,Module<br>Springy rocker<br>Swings,10340,http://www.aucklandcity.govt.nz/whatson/places/parksonline/detail2.asp?pParkId=1505,"Barbecue, playground, pergola, tables, toilets",Onehunga Bay Lagoon.
Onepoto Domain,174.751751835995,-36.8086670889533,"24 Tarahanga Street, Auckland",8,Flying Fox<br>Mai Mai<br>Module-Large-With Tunnel Slide<br>Play Hut<br>Play Hut-With Climber<br>Play Hut-With Slide<br>Spinner<br>Spinner<br>Swing<br>Swing,10927,http://www.aucklandcity.govt.nz/whatson/places/parksonline/detail2.asp?pParkId=13609,"BBQ,playground",Local Park - Sport
Oneroa Beach Reserve,175.011399742064,-36.7823598645688,"Beach Parade, Waiheke Island",1,Swing<br>Swing,20611,http://www.aucklandcity.govt.nz/whatson/places/parksonline/detail2.asp?pParkId=1515,"Barbecue, playground",Long coastal reserve bordering Oneroa Bay.
Opaketai Beach Haven Garden,174.686858235415,-36.79201662073,"364 Rangatira Road, Beach Haven",6,Balance beam<br>Balance beam<br>Binoculars<br>Marble run<br>Periscope<br>Stepping logs<br>Wobbly bridge,11115,,,
Opanuku Reserve,174.629328199768,-36.8789273085449,"1 Henderson Valley Road, Auckland",1,Modern Modular,11485,http://www.aucklandcity.govt.nz/whatson/places/parksonline/detail2.asp?pParkId=13616,playground,Premier Park - Leisure
Orchard Reserve - Avondale,174.680638497315,-36.8900329024912,"35A Orchard Street, Auckland",2,Seesaw Double<br>Swing Double,10247,,,
Orewa Reserve,174.698335690813,-36.5903563878353,"277 Hibiscus Coast Highway, Orewa",13,Module-Climber-Sthn Swing<br>Module-Large-Boat-Nthn Boat<br>Module-Medium-HolidayPk<br>Module-Medium-Skate Slide<br>Module-Medium-Spinner-Middle Snr<br>Module-Medium-Spinner-Middle Snr<br>Module-Small boat bow<br>Module-Small<br>Roctopus-Nthn Boat<br>Spinner Plate<br>Spinner Plate<br>Spinner bowl<br>Spinner<br>Spinner<br>Spinner<br>Swing<br>Swing<br>Swing<br>Swing<br>Turn bars,11273,,,
Ostend Domain,175.041537093288,-36.7984099914302,"67 Wharf Road, Waiheke Island",2,Module<br>Swing,10035,http://www.aucklandcity.govt.nz/whatson/places/parksonline/detail2.asp?pParkId=1565,"Barbecue, playground, tables",Combination of coastal reserve and boat building activities and a sports field leased by Waiheke Sports Club.
Otamariki Park,174.876497298601,-36.9632677203111,"193R East Tamaki Road, Auckland",6,Bank Slide<br>Modern Modular (Large)<br>Modern Modular (Large)<br>Seesaw<br>Springy Animal<br>Swing<br>Swing<br>Swing<br>Track glide Snr,22847,http://www.aucklandcity.govt.nz/whatson/places/parksonline/detail2.asp?pParkId=13645,playground,Local Park - Leisure
Outhwaite Park,174.770170978357,-36.8641506815521,"53 Carlton Gore Road, Auckland",5,Dolphin rocker<br>Pommel swing<br>Seesaw<br>Small module<br>Swing T bar,10326,http://www.aucklandcity.govt.nz/whatson/places/parksonline/detail2.asp?pParkId=1575,"Barbecue (1 November-30 April only), playground, band rotunda, tables, toilets","A lovely local open space surrounded by beautiful gardens. Aucklands first Supreme Registrar, Thomas Outhwaite and his French wife Louise, lived on this volcanic knoll from the 1840's and many of the mature trees date from this time. A great venue for family events, either passive or active."
Owairaka Park,174.722715492667,-36.8952429444163,"56-60 Owairaka Avenue, Auckland Central",8,Ball - plastic<br>Ball - plastic<br>Climbing rocks<br>Climbing rocks<br>Flying Fox<br>Module<br>Slide<br>Spica<br>Spica<br>Spica<br>Stepping stones<br>Swing<br>Swing,10351,,,
Pallister Reserve,174.760471365058,-36.9252972168462,"2 Pallister Drive, Auckland",4,Seesaw<br>Slide<br>Spinner roundabout<br>Swing,23116,http://www.aucklandcity.govt.nz/whatson/places/parksonline/detail2.asp?pParkId=1600,Playground,Small reserve with playground.
Palm Beach Reserve,175.043783647298,-36.780654395011,"53 Palm Road, Waiheke Island",5,Cup spinner<br>Cup spinner<br>Fantail roundabout<br>Large module<br>Springy rocker<br>Springy rocker<br>Swing T bar<br>Swing T bar,10442,http://www.aucklandcity.govt.nz/whatson/places/parksonline/detail2.asp?pParkId=1605,"Barbecue, tables, playground, toilets","Lovely coastal reserve, great for swimming and having fun."
Panmure Basin,174.84874502583,-36.905354639336,"100 Ireland Road, Auckland",6,Balance beams<br>Fitness device<br>Fitness device<br>Fitness Station<br>Fitness Station<br>Fitness Station<br>Fitness Station<br>Fitness Station<br>Fitness Station<br>Fitness Station<br>Fitness Station<br>Module<br>Module<br>Ship Module<br>Swing T bar,10020,,,
Parakai Recreation Reserve,174.433790545594,-36.6589869133093,"150 Parkhurst Road, North Shore",2,Module-Medium-Jnr<br>Swing,11323,,,
Paremuka Lakeside,174.615216943064,-36.873139784709,"Hillwell Drive, Auckland",4,Modern Modular<br>Playground Track<br>Springy Animal<br>Swing Double,21975,http://www.aucklandcity.govt.nz/whatson/places/parksonline/detail2.asp?pParkId=13696,playground,Premier Park - Leisure
Park Reserve,174.71762433735,-36.7921650987183,"59 Park Road, Auckland",3,Module-Medium<br>Spinner<br>Swing,22181,http://www.aucklandcity.govt.nz/whatson/places/parksonline/detail2.asp?pParkId=13701,playground,Local Park - Leisure
Parkhaven Reserve,174.941853197299,-37.0898899511135,"80R Parkhaven Drive, Auckland",8,Bay swing set<br>Flying Fox<br>Tube slide<br>Rotating climber<br>Springy seesaw<br>Stepping logs<br>Stepping logs<br>Stepping rock<br>Twirler Spinner,20263,,,
Parkwood Reserve,174.732894698305,-36.7363550539863,"19 Graham Collins Drive, Auckland",2,Module-Medium-Jnr<br>Swing,20053,http://www.aucklandcity.govt.nz/whatson/places/parksonline/detail2.asp?pParkId=13703,playground,Local Park - Leisure
Parrs Park,174.62825145757,-36.9064323692011,"131A Parrs Cross Road, Auckland",19,Fitness Station-Cycle Strider/Stretching<br>Fitness Station-Pull Down Ex/Recum Cycle<br>Fitness Station-Skier/Horse Rider<br>Fitness Station-Twister/Vert Bench Press<br>Basket Swing<br>Double Springy Bees<br>Giant Basket Swing<br>Hip Hop<br>Rotator Tui<br>Sand-Play Features<br>Seesaw Caterpillar<br>Slide Long<br>Slide Spiral<br>Sluice Gate<br>Sluice Gate<br>Springer Ant<br>Springer Ladybug<br>Swing Hexagonal<br>Tower<br>Water Play Features,11335,http://www.aucklandcity.govt.nz/whatson/places/parksonline/detail2.asp?pParkId=13704,"playground, toilets","This park, popular with young people, joggers, walkers and cyclists, offers a large playground, basketball courts, skating facilities and plenty of space for field sports. Follow the walkway as it meanders around the sports fields, through the Macrocarpa"
Patteson Reserve,174.829582358201,-36.8559733317173,"89 Patteson Avenue, Auckland",5,Climbing unit<br>Dragon<br>Flying Fox<br>Module - Bibox<br>Swings,10361,http://www.aucklandcity.govt.nz/whatson/places/parksonline/detail2.asp?pParkId=1635,Playground,Local green open space.
Patts Reserve,174.655056054557,-36.893946825559,"7 Patts Avenue, Auckland",5,Modern Modular<br>Spica<br>Spinner<br>Springy Animal<br>Swing Double,11338,http://www.aucklandcity.govt.nz/whatson/places/parksonline/detail2.asp?pParkId=13707,playground,Local Park - Leisure
Pemberton Reserve,174.702855952519,-36.7812159278926,"35 Pemberton Avenue, Auckland",4,Module-Medium-Climber<br>Play Hut with slide<br>Spinner<br>Swing,22183,http://www.aucklandcity.govt.nz/whatson/places/parksonline/detail2.asp?pParkId=13718,playground,Natural
Piha Domain,174.472271833794,-36.954377370693,"24 Seaview Road, Auckland",5,Modern Modular<br>Playground Track<br>Roctopus<br>Spinner<br>Swing Quad,11337,http://www.aucklandcity.govt.nz/whatson/places/parksonline/detail2.asp?pParkId=13735,"BBQ,playground, toilets",Premier Park - Leisure
Pin Oak Reserve,174.691168744215,-36.7544458496857,"19 Aberley Road, Auckland",7,Bridge<br>Slide<br>Soccer Play Backstop<br>Spacenet & Slide<br>Swing snr<br>Swing keyhole Jnr<br>Water Play,21863,,,
Playtime Park,174.843665008851,-36.8886818138839,"12 Fynes Avenue, Auckland",8,Digger<br>Digger<br>Dippy Disc<br>Flying Fox<br>Medium Module<br>Spica<br>Spica<br>Swing<br>Water Play<br>Water Play<br>Water Sluice Gate,23971,,,
Plymouth Reserve,174.787298615651,-36.8135307669584,"9 Plymouth Crescent, Auckland",5,Overhead Event<br>Seesaw standup puppet<br>Spinner<br>Springy-4 seater<br>Swing,20332,,,
Point England Reserve,174.872336400153,-36.8829162640158,"254 Point England Road, Auckland",3,Module<br>Slide<br>Swing,10266,http://www.aucklandcity.govt.nz/whatson/places/parksonline/detail2.asp?pParkId=1660,"The reserve lies within the residential area of Point England/Glenn Innes. It is bordered to the south by Point England Road and to the west by Elstree Avenue. The eastern edge of the Reserve abuts the Tamaki River, whilst to the north it adjoins the rear of residential properties which are located on Taniwha Street and cul-de-sacs off Taniwha Street, including Kotae Road, Kiano Place, and Concord Place.","Point England Reserve occupies 41 hectares and consists of a combination of rural (grazed) open space, sports fields and coastal edge (Tamaki River). In addition the reserve includes the Glenn Innes Indoor Community Pool and Recreation Centre."
Point Wells Community Centre,174.756395225645,-36.3219522920695,"Point Wells Road, Point Wells",4,Module-Medium<br>Roundabout<br>Swing beam<br>Swing,22162,http://www.aucklandcity.govt.nz/whatson/places/parksonline/detail2.asp?pParkId=13768,playground,
Point Wells Foreshore Reserve,174.757104154971,-36.3192085436709,"Riverside Drive, Auckland",2,Module-Medium-Jnr<br>Swing,22165,http://www.aucklandcity.govt.nz/whatson/places/parksonline/detail2.asp?pParkId=13769,"playground, toilets",
Pollard Park,174.748881176576,-36.8956075044101,"1A Waitomo Avenue, Auckland",3,Module junior<br>Spica<br>Swing,10343,http://www.aucklandcity.govt.nz/whatson/places/parksonline/detail2.asp?pParkId=1675,"Playground, tables, drinking fountains, toilets",Small sports park surrounded by residential housing. Limited to sports activities 3 hours per week.
Pollok School Grounds,174.613947592285,-37.1389333788508,"2112 Awhitu Road - Waiuku, Auckland",3,Balancing stand<br>Large modular<br>Swing unit,23809,,,
Ponderosa Reserve,174.721502640292,-36.7205971044448,"26A Ponderosa Drive, Auckland",3,Module-Large<br>Module-Small-Jnr<br>Swing,21932,http://www.aucklandcity.govt.nz/whatson/places/parksonline/detail2.asp?pParkId=13776,playground,Local Park - Leisure
Pooks Reserve,174.600454928084,-36.8687398438428,"26 Pooks Road, Auckland",3,Modern Modular<br>Playground Track<br>Swing Double,21766,http://www.aucklandcity.govt.nz/whatson/places/parksonline/detail2.asp?pParkId=13778,playground,Local Park - Leisure
Port Albert Wharf Reserve,174.430119167329,-36.2721540640748,"Wharf Road, Auckland",3,Module-Medium-Jnr<br>Sand Pit-Boat shape<br>Swing,22175,http://www.aucklandcity.govt.nz/whatson/places/parksonline/detail2.asp?pParkId=13781,"playground, toilets",
Portsea Reserve,174.710042550158,-36.8163604957478,"1 Portsea Place, Auckland",1,Module-Medium,20885,,,
Possum Bourne Reserve,174.899343929653,-37.1869559718167,"36 Lough Bourne Drive, Auckland",3,Modular Unit (Small)<br>Roundabout<br>Swing,22898,,,
Potters Park,174.748438743127,-36.8868823275676,"173 Balmoral Road, Auckland",14,Double swing set<br>Fantail roundabout<br>Feature Splash Pad blue green<br>Feature Splash Pad blue green<br>Feature Splash Pad red leaf grey pole<br>Feature Splash Pad red leaf grey pole<br>Feature Splash Pad red pole<br>Feature Splash Pad switch<br>Feature Splash Pad yellow loop<br>Feature Splash Pad yellow mushroom<br>Junior module<br>Module senior<br>Overhead climber<br>Seesaw<br>Springy seesaw<br>Swing,10286,http://www.aucklandcity.govt.nz/whatson/places/parksonline/detail2.asp?pParkId=1690,"The park is used for informal recreation and has many facilities for families of all ages. The park contains a number of scheduled trees which are protected in the Auckland City Proposed District Plan. The protected trees consist of radiata pines, queen palms and phoenix palms.",Potters Park is a 3 hectare reserve located on the corner of Balmoral and Dominion Roads in Mt Eden. Pedestrian access to the park is gained from Balmoral and Dominion Road.
Powrie Reserve,174.717435881232,-36.7863000303769,"36 Powrie Street, Auckland",3,Seesaw<br>Slide<br>Swing,22185,http://www.aucklandcity.govt.nz/whatson/places/parksonline/detail2.asp?pParkId=13793,playground,Natural
Premier Reserve,174.71547015612,-36.8667810478058,"26 Premier Avenue, Auckland",2,Module<br>Swings,21416,http://www.aucklandcity.govt.nz/whatson/places/parksonline/detail2.asp?pParkId=1695,Playground,Small local green open space.
Premila Drive Reserve,174.894319530152,-37.2151450437193,"Premila Drive, Auckland",4,Modern Modular (Small)<br>Seesaw<br>Springy Animal<br>Swing,22883,http://www.aucklandcity.govt.nz/whatson/places/parksonline/detail2.asp?pParkId=13794,playground,Local Park - Leisure
Prospect Park,174.636907952196,-36.9155423946232,"Pisces Road, Auckland",4,Double Seesaw<br>Modern Modular<br>Playground Track<br>Swing Double,11339,http://www.aucklandcity.govt.nz/whatson/places/parksonline/detail2.asp?pParkId=13802,playground,Local Park - Leisure
Proude Reserve,174.991680642751,-37.1907370517013,"Razorback Road, Auckland",2,Spring Saw<br>Swing,22887,http://www.aucklandcity.govt.nz/whatson/places/parksonline/detail2.asp?pParkId=13803,playground,Local Park - Leisure
Pt Erin Park,174.741152754723,-36.8393324312843,"94 Shelly Beach Road, Auckland Central",3,Module<br>Seesaw<br>Swings T bar<br>Swings T bar,10387,http://www.aucklandcity.govt.nz/whatson/places/parksonline/detail2.asp?pParkId=1700,"Playground, tables, bike stands, toilets",An open space adjacent to Point Erin pools covering approximately 4 hectare. Is located between St Mary's Road to Curran Street. Lovely location and great for both active and passive use.
Puhoi Pioneer's Memorial Park Domain,174.662436151555,-36.512426088448,"Domain Road, Auckland",2,Module-Medium<br>Swing,11208,,,
Pukekohe Town Centre Grnds,174.905331503425,-37.2010936893825,"163 King Street, Auckland",2,Modular Unit (Large)<br>Roundabout,23021,,,
Pukemateko Reserve Omaha South,174.782221334394,-36.3483398717731,"177 Mangatawhiri Road, Omaha",2,Module-Large<br>Swing,22148,,,
Puni Recreation Reserve,174.905279083709,-37.2010671672901,"Attewell Road, Auckland",1,RBIN,10537,,,
Purata Park,174.771728661773,-36.9473875885141,"39R Ambury Road, Auckland",2,Modern Modular (Small)<br>Swing,21678,http://www.aucklandcity.govt.nz/whatson/places/parksonline/detail2.asp?pParkId=13822,playground,Local Park - Leisure
Quona Reserve,174.738700319202,-36.9297316967687,"7 Quona Avenue, Auckland",2,"Module - slide, climbers, sway bridge<br>Swings",21081,http://www.aucklandcity.govt.nz/whatson/places/parksonline/detail2.asp?pParkId=1715,Playground,Small local reserve.
Randwick Park (Secretariat Place),174.914132777524,-37.0237524119231,"42R Secretariat Place, Auckland",21,Frame rail and box<br>Curved hubba<br>Funbox 1<br>Funbox 2<br>Funbox 3<br>Grindbox<br>Hubba 1<br>Hubba 2<br>Hubba 3<br>Hubba 4<br>Hubba 5<br>Hubba 6<br>Kick up 1<br>Rail<br>Rail<br>Rail<br>Rail<br>Rail<br>Rail<br>Rail<br>Rail<br>Ramp<br>Ramp<br>Skate bowl<br>Steps<br>Steps<br>Steps<br>Steps<br>Steps<br>Steps<br>Triangle bank<br>Volcano<br>Wall ride<br>Whale tail,21782,,,
Ranui Domain,174.599536963074,-36.8665591737788,"3 Robertson Road, Auckland",6,Fitness Station Bench Press & Twister<br>Fitness Station-Horse Rider & Skier<br>Fitness Station-Pull Down & Cycle<br>Fitness Station-Shoulder Wheel XTrainer<br>Modern Modular<br>Swing Double,11341,http://www.aucklandcity.govt.nz/whatson/places/parksonline/detail2.asp?pParkId=14028,"playground, toilets",Premier Park - Sport
Rautawhiri Park,174.466369383219,-36.6802507238933,"164 Rautawhiri Road, Auckland",3,Module-Large-Stand Alone Items<br>Module-Medium-Jnr<br>Track Ride,11213,http://www.aucklandcity.govt.nz/whatson/places/parksonline/detail2.asp?pParkId=14038,"playground, toilets",
Rawalpindi Reserve,174.714838826585,-36.8748522008573,"9A Rawalpindi Street, Auckland",2,Module<br>Swing T bar,21052,http://www.aucklandcity.govt.nz/whatson/places/parksonline/detail2.asp?pParkId=1735,Playground,Medium reserve.
Red Beach Park,174.70819362177,-36.6063777837006,"10 William Bayes Place, Auckland",4,Balance beam<br>Flying Fox<br>Module-Small-Jnr<br>Swing,20599,http://www.aucklandcity.govt.nz/whatson/places/parksonline/detail2.asp?pParkId=14046,playground,
Redcastle Park,174.904958020778,-36.9450127309977,"17R Redcastle Drive, Auckland",1,Modern modular,21759,http://www.aucklandcity.govt.nz/whatson/places/parksonline/detail2.asp?pParkId=14049,playground,Local Park - Leisure
Regency Park Drive Reserve,174.791544311756,-36.6057447780502,"68 Regency Park Drive, Gulf Harbour",2,Module-Medium<br>Swing,20539,,,
Rewi Alley Reserve,174.728592095105,-36.7603306669201,"52 Trias Road, Auckland",2,Module-Large<br>Swing,21119,http://www.aucklandcity.govt.nz/whatson/places/parksonline/detail2.asp?pParkId=14074,playground,Local Park - Leisure
Reynella Reserve,174.608553629008,-36.8429372672963,"81 Reynella Drive, Auckland",3,Modern Modular<br>Single Seesaw<br>Swing Double,22048,http://www.aucklandcity.govt.nz/whatson/places/parksonline/detail2.asp?pParkId=14075,playground,Local Park - Leisure
Reynolds Road Reserve,174.907036023726,-37.1923215073007,"1 Reynolds Road, Auckland",2,Fitness device<br>Fitness device<br>Balancing Bar,10510,,,
Rhinevale Close,174.616537305538,-36.8860671000257,"5 Rhinevale Close, Auckland",3,Modern Modular<br>Modern Modular<br>Playground Track<br>Swing Double,22052,http://www.aucklandcity.govt.nz/whatson/places/parksonline/detail2.asp?pParkId=14077,playground,Local Park - Leisure
Riverhead War Memorial Park,174.589080870388,-36.7618288572336,"1087 Coatesville-Riverhead Highway, Auckland",6,Module medium (senior)<br>Module-Slide-Tunnel<br>Seesaw-Spring<br>Springy Animal Whale<br>Swing snr<br>Swing T bar Jnr,11205,http://www.aucklandcity.govt.nz/whatson/places/parksonline/detail2.asp?pParkId=14091,"playground, toilets",
Riverpark Reserve,174.618114113146,-36.8560463633131,"12 Bittern Place, Auckland",2,Modern Modular<br>Swing Double,11342,http://www.aucklandcity.govt.nz/whatson/places/parksonline/detail2.asp?pParkId=14095,playground,Local Park - Leisure
Riversdale Reserve,174.67978692471,-36.8936518202655,"93 Riversdale Road, Auckland",10,Fitness Station Chin Up & Step & Reach<br>Fitness Station-Sit Up Bench & Leg Press<br>Fitness Station-Skier & Horse Rider<br>Fitness Station-Twister & Vertical Bench<br>Climbing Frame<br>Flying Saucer Swing<br>Proludic Roundabout<br>Seniors Air Swing<br>Spiders Web Nest<br>Titan Play System,10418,http://www.aucklandcity.govt.nz/whatson/places/parksonline/detail2.asp?pParkId=1750,"Playground, toilets","Spacious reserve with young trees and predominantly grass area, catering for active recreational purposes. Lovely open space used by many for all seasons and weather conditions. A path runs down the middle of this reserve. Caters to cricket in the summer, and soccer in the winter, with a car parking facility off Riversdale Road."
Riverside Community Centre,174.857198796163,-36.9262457898896,"20-22 Peace Avenue, Auckland Central",4,Activity Panel<br>Module<br>Spring perch<br>Springy skateboard,10271,,,
Robert Knox Memorial Park,174.574905078689,-36.8652248543854,"Knox Road, Auckland",3,Modern Modular<br>Playground Track<br>Swing Double,20532,http://www.aucklandcity.govt.nz/whatson/places/parksonline/detail2.asp?pParkId=14102,playground,Local Park - Leisure
Roberta Reserve,174.878453032899,-36.8627867071297,"20 Roberta Avenue, Auckland",5,Eagles Nest<br>Fort module<br>Lunar Spinner<br>Stepping logs<br>Swings,10063,http://www.aucklandcity.govt.nz/whatson/places/parksonline/detail2.asp?pParkId=1765,,"A lovely green open space, adjacent to Tamaki Estuary. Watch the kite boarders, have a game of soccer or cricket, enjoy a picnic. This reserve links into Tahuna Torea."
Robinson Reserve,174.752020056952,-36.9050995711228,"50 Smallfield Avenue, Auckland",7,Dizzy Disc<br>Module<br>Overhead Climber<br>Seesaw<br>Spica twirl about<br>Spica twirl about<br>Springy animal<br>Swings,20939,http://www.aucklandcity.govt.nz/whatson/places/parksonline/detail2.asp?pParkId=1770,"Playground, table",Local green open space.
Rook Reserve,174.714052217221,-36.7537996702441,"12 Rook Place, Auckland",3,Chest Leg<br>Leg Press<br>Roman Chair,21964,,,
Rosario Reserve,174.699784600006,-36.6040237062771,"3a Rosario Crescent, Red Beach",2,Module-Medium<br>Swing,20602,http://www.aucklandcity.govt.nz/whatson/places/parksonline/detail2.asp?pParkId=14117,playground,
Rosedale Park,174.709715866892,-36.7469652255007,"2 Jack Hinton Drive, Rosedale",9,Roman Chair<br>Slide<br>Soccer Play Backstop<br>Soccer Play Target<br>Soccer slalom<br>Spacenet<br>Springy animal ladybird<br>Swing snr<br>Swing keyhole Jnr,10931,,,
Rothesay Bay Beach Reserve,174.75058533198,-36.7215123006833,"60 Rothesay Bay Road, Auckland",3,Module-Large<br>Swing<br>Swing basket,20073,,,
Roulston Park & Pioneer Cottage,174.909123182246,-37.1999606295375,"9 Stadium Drive, Auckland",2,Swing Unit<br>Modern modular (large),21894,,,
Roundtree Reserve,174.919413840602,-37.0495465388573,"31R Rountree Place, Auckland",4,Climbing Frame<br>Roctopus<br>Slide<br>Swing unit,21628,http://www.aucklandcity.govt.nz/whatson/places/parksonline/detail2.asp?pParkId=14139,playground,Local Park - Leisure
Royal Heights Park,174.623524381026,-36.8324503696954,"144A Royal Road, Auckland",2,Modern Modular<br>Swing Double,22068,http://www.aucklandcity.govt.nz/whatson/places/parksonline/detail2.asp?pParkId=14142,playground,Local Park - Leisure
Ruapotaka Reserve,174.857565868214,-36.8785967444053,"96 Line Road, Auckland",2,Junior module<br>Springy animal,10258,,,
Ruka Reserve,174.838927554035,-36.8775813102912,"5 Ruka Lane, Auckland",4,Embankment slide<br>Module - Bibox<br>Springy animal<br>Swing,21561,http://www.aucklandcity.govt.nz/whatson/places/parksonline/detail2.asp?pParkId=1800,Playground,Local green open space.
Rutherford Reserve,174.835320380734,-36.8703278772248,"28B Rutherford Terrace, Auckland",7,Car rocker<br>Flying Fox<br>Junior slide module<br>Module<br>Springy rocker<br>Swings<br>Timber swings,10029,http://www.aucklandcity.govt.nz/whatson/places/parksonline/detail2.asp?pParkId=1805,Playground,Local green open space.
Sackville Reserve,174.734415288899,-36.8554188965398,"21 Sackville Street, Auckland",2,Module<br>Swing,20955,http://www.aucklandcity.govt.nz/whatson/places/parksonline/detail2.asp?pParkId=1810,"Barbecue, playground, table",Local green open space.
Sainsbury Reserve North,174.734469935533,-36.8789482804546,"35A Morningside Drive, Auckland",4,Climbing module<br>Junior Module<br>Seesaw<br>Swings,21004,,,
Salisbury Reserve,174.732371177244,-36.8449764527979,"19 Salisbury Street, Auckland",9,Module<br>Overhead bars<br>Playground Seat<br>Roundabout<br>Sandpit<br>Slide<br>Springy animal<br>Swing<br>Swings,10304,http://www.aucklandcity.govt.nz/whatson/places/parksonline/detail2.asp?pParkId=1820,Playground,Petanque Club.
Samuel Miller Park (Nelson St Reserve),174.904737597622,-37.2113746163166,"42 Nelson Street - Pukekohe, Auckland",1,Flying Fox,22977,,,
San Bernadino Reserve,174.609603502208,-36.8885014631006,"San Bernadino Drive, Auckland",2,Modern Modular<br>Swing Double,22131,http://www.aucklandcity.govt.nz/whatson/places/parksonline/detail2.asp?pParkId=14156,playground,Local Park - Leisure
Sanders Reserve,174.638337371112,-36.7669621836867,"142 Sanders Avenue, Auckland",6,Seesaw-Caterpillar<br>Slide<br>Springy animal pig<br>Swing<br>Swing rope basket<br>Tunnel<br>Tunnel,21968,,,
Sandringham Reserve,174.73672237025,-36.8929345357843,"598 Sandringham Road, Auckland",1,Module,10312,http://www.aucklandcity.govt.nz/whatson/places/parksonline/detail2.asp?pParkId=1825,Playground,Very small local open space.
Sandspit Reserve - Rodney,174.727607662141,-36.3928756088339,"1336 Sandspit Road, Auckland",2,Module-Large<br>Swing,22237,,,
Sandspit Reserve - Waiuku,174.726878525369,-37.2332872713832,"15 Rangiwhea Road, Auckland",8,Slide<br>Climbing frame<br>Double slide<br>Pirate ship rope tower<br>Pommel swing<br>Rocking dinghy<br>Rocks&Stepping logs<br>Timber jetty,21933,,,
Sapphire Reserve,174.71862781852099,-36.7686067631835,"14 Sapphire Place, Auckland",5,ClimberFixed<br>Seesaw<br>Slide<br>Spinner bowl<br>Swing,22189,http://www.aucklandcity.govt.nz/whatson/places/parksonline/detail2.asp?pParkId=14170,playground,Local Park - Leisure
Sarajevo Reserve,174.617440336801,-36.8476367888191,"7 Sarajevo Place, Auckland",2,Modern Modular<br>Swing Double,22106,http://www.aucklandcity.govt.nz/whatson/places/parksonline/detail2.asp?pParkId=14172,playground,Local Park - Leisure
Savage Park,174.837210134928,-36.9128492933958,"10 Hamlin Road, Auckland",1,Module,10373,http://www.aucklandcity.govt.nz/whatson/places/parksonline/detail2.asp?pParkId=1840,Playground,A small open space adjacent to the Sylvia Park School.
School Reserve,174.737937768894,-36.8729199265675,"1A Western Springs Road, Auckland Central",4,"Car racer<br>Module - tree hut, slides, cables<br>Spinner roundabout<br>Swings",10255,http://www.aucklandcity.govt.nz/whatson/places/parksonline/detail2.asp?pParkId=1855,"Playground, table",Local green open space.
Schopolo East,174.679909294964,-36.762339476131,"43 Schopolo Place, Auckland",4,Slide<br>Spacenet<br>Stepping logs<br>Swing keyhole Jnr,20924,,,
Seine Reserve,174.751546235642,-36.768914269923,"12 Seine Road, Auckland",3,Module-Small-Open Slide<br>Seesaw-Spring<br>Swing,11080,http://www.aucklandcity.govt.nz/whatson/places/parksonline/detail2.asp?pParkId=14201,playground,Local Park - Leisure
Selwyn Reserve - Forrest Hill,174.752105998114,-36.7645383048912,"53 Selwyn Crescent, Auckland",2,Seesaw<br>Swing,21126,,,
Selwyn Reserve - Mission Bay,174.829760986128,-36.847006042683,"48 Tamaki Drive, Auckland",10,Balance board<br>Car springy rocker<br>Junior module<br>Sand play unit<br>Slide<br>Spica<br>Spica<br>Springy rocker<br>Springy seesaw - large<br>Supa nova<br>Swing,10154,,,
Semillon Reserve,174.614844984372,-36.8778883759064,"Semillon Avenue, Auckland",3,Modern Modular<br>Playground Track<br>Swing Double,22560,http://www.aucklandcity.govt.nz/whatson/places/parksonline/detail2.asp?pParkId=14205,playground,Local Park - Leisure
Shadon/Springtime Reserve,174.717133494485,-36.6167360707987,"43 Shadon Place, Stanmore Bay",1,Module-Medium,22412,,,
Shelly Beach Reserve,174.378757049026,-36.5719136055657,"33-34 James Mcleod Road, Shelly Beach",5,Module-Medium-Firestation<br>Module medium (senior)<br>Module-Small-Jnr-Beach<br>Spinner pole<br>Spinner pole<br>Swing<br>Swing,11246,http://www.aucklandcity.govt.nz/whatson/places/parksonline/detail2.asp?pParkId=14227,"BBQ,playground, toilets",
Shelter Reserve,174.686285023675,-36.7759611821291,"25 Shelter Drive, Auckland",3,Module-Large<br>Seesaw-Springy<br>Swing,21976,http://www.aucklandcity.govt.nz/whatson/places/parksonline/detail2.asp?pParkId=14228,playground,Local Park - Leisure
Shepherds Park,174.688496021141,-36.7893337292635,"31-35 Cresta Avenue, Beach Haven",8,Air walker/Dip&crunch station<br>Horse rider/skier<br>Pull down exerciser<br>Pullup bar<br>Pullup bar<br>Shoulder wheel<br>Module-Large<br>Swing<br>Swing mega,10926,http://www.aucklandcity.govt.nz/whatson/places/parksonline/detail2.asp?pParkId=14229,"BBQ,playground, toilets",Premier Park - Sport
Sherwood Park,174.639549521665,-36.8574376496225,"Sherwood Avenue, Auckland",3,Fitness Station-Horse Rider & Skier<br>Fitness Station-Shoulder Wheels & Cross<br>Fitness Station-Sit up Bench & Leg Press,22500,,,
Sherwood Reserve,174.735830976338,-36.7172686018854,"82 Glencoe Road, Auckland",6,Module-Large<br>Module-Medium-Ground Mounted<br>Seesaw-Spring<br>Slide<br>Swing Mixed<br>Swing basket,22152,http://www.aucklandcity.govt.nz/whatson/places/parksonline/detail2.asp?pParkId=14233,playground,Local Park - Leisure
Shipton Reserve,174.710075895063,-36.923964162805,"33A Lynbrooke Avenue, Auckland",3,Eagle's Nest<br>Fort/Slide<br>Swing Quadruple,21521,http://www.aucklandcity.govt.nz/whatson/places/parksonline/detail2.asp?pParkId=1890,Playground,Medium local reserve.
Shoesmith Domain Recreation Reserve,174.658480340802,-36.398690927034004,"Shoesmith Street, Auckland",4,Module-Large<br>Module-Small-Jnr-Beach<br>Swing snr<br>Turn Bars,11210,,,
Shore Road Reserve,174.791086595621,-36.8645503042313,"32B Shore Road, Auckland",5,Climber<br>Dippy disc<br>Rocker<br>Slide<br>T-bar swing,21794,,,
Silverdale War Memorial Park,174.667588614283,-36.6212044261252,"12 Hibiscus Coast Highway, Silverdale",2,Module-Large<br>Swing,20024,http://www.aucklandcity.govt.nz/whatson/places/parksonline/detail2.asp?pParkId=14249,"playground, toilets",
Sister Rene Shadbolt Park,174.691628012805,-36.921161224231,"128 Portage Road, Auckland",1,Swing Triple,11346,http://www.aucklandcity.govt.nz/whatson/places/parksonline/detail2.asp?pParkId=14255,,Lots of open space and grassy fields plus a popular skate park and over 700m of walking track through parkland and bush.
Snells Beach (Sunrise Boulevard),174.729826763011,-36.4202701931085,"Sunrise Boulevard, Auckland",4,Dynamo rotating climbing net<br>Flying Fox<br>Module-Junior climb slide & play<br>Swings high quad regular & infant,22359,,,
Somerville Park,174.93562540934,-36.9174692903732,"99R Somerville Road, Auckland",4,Air Walker On High Side Of Reserve<br>Elliptical Crosstrainer On High Side<br>Lat Pull Down<br>Leg Press,21292,,,
Spargo Reserve,174.636432002308,-36.8324080992337,"26 Spargo Road, Auckland",2,Modern Modular<br>Swing Double<br>Swing Double,22516,http://www.aucklandcity.govt.nz/whatson/places/parksonline/detail2.asp?pParkId=14278,playground,Local Park - Leisure
Spinella Reserve,174.711495937421,-36.7719131254063,"41 Spinella Drive, Auckland",4,Slide<br>Spinner bowl<br>Spinner bowl<br>Swing<br>Swing large Rope,22197,http://www.aucklandcity.govt.nz/whatson/places/parksonline/detail2.asp?pParkId=14283,playground,Local Park - Leisure
St Heliers Bay Beach Reserve,174.859470231176,-36.8495178816002,"384 Tamaki Drive, Auckland",5,Dome<br>Large module<br>Springy seesaw<br>Swing<br>Swing T bar,21866,,,
St Margarets Park,174.620425812023,-36.819625428382,"45 Fitzherbert Avenue, Auckland",2,Modern Modular<br>Swing Double,22563,http://www.aucklandcity.govt.nz/whatson/places/parksonline/detail2.asp?pParkId=14297,,Local Park - Leisure
St Marys Reserve,174.745228188829,-36.846973021436,"15 St Marys Road, Auckland",1,Swing T bar,20947,http://www.aucklandcity.govt.nz/whatson/places/parksonline/detail2.asp?pParkId=1950,Playground,Very small reserve.
Stafford Park,174.748411504023,-36.8148330847734,"18 Denby Lane, Auckland",2,Module-Medium<br>Swing,10925,http://www.aucklandcity.govt.nz/whatson/places/parksonline/detail2.asp?pParkId=14302,"playground, toilets",Local Park - Sport
Stanaway Reserve,174.738091771035,-36.7938432784934,"36 Stanaway Street, Auckland",3,Slide<br>Spinner disk<br>Swing,22199,http://www.aucklandcity.govt.nz/whatson/places/parksonline/detail2.asp?pParkId=14303,playground,Local Park - Leisure
Stanley Bay Park,174.78159192842801,-36.8261901147787,"166 Calliope Road, Devonport",4,Spinning wheel<br>Module-Medium<br>Module-Small<br>Swing mega,11087,http://www.aucklandcity.govt.nz/whatson/places/parksonline/detail2.asp?pParkId=14308,"playground, toilets",Local Park - Sport
Stanmore Bay Park,174.742446815445,-36.6246179443643,"159 Brightside Road, North Shore",12,Flying Fox<br>Module - Medium<br>Module-Medium-Sand<br>Seesaw-Spring double<br>Seesaw-Spring<br>Spacenet-Beach<br>Spinner bowl<br>Spinner bowl<br>Spinner bowl<br>Spinner<br>Swing<br>Swing snr<br>Swing<br>Swing basket<br>Swing rope,11275,,,
Starforth Reserve,174.619906512737,-36.9007879101755,"32 Starforth Place, Auckland",2,Modern Modular<br>Playground Track,22531,http://www.aucklandcity.govt.nz/whatson/places/parksonline/detail2.asp?pParkId=14315,playground,Local Park - Leisure
Starlight Park,174.644059805115,-36.8012183561769,"15A Starlight Cove, Auckland",2,Module-Medium<br>Swing,22562,http://www.aucklandcity.govt.nz/whatson/places/parksonline/detail2.asp?pParkId=14316,playground,Local Park - Leisure
Starling Park,174.603600834037,-36.860203532769,"Waitemata Drive, Auckland",8,Fitness Station<br>Fitness Station-Leg Stretch<br>Fitness Station-Pole Stretch<br>Fitness Station-Push Up Bar High<br>Fitness Station-Push Up Bar Low<br>Fitness Station-Uneven Parallel Bars<br>Fitness Station-Uneven Parallel Bars<br>Modern Modular<br>Swing Double,11420,http://www.aucklandcity.govt.nz/whatson/places/parksonline/detail2.asp?pParkId=14317,"playground, toilets",This is a large flat grass reserve offering recreation for all ages.
Stillwater Reserve,174.720523096267,-36.6391793588478,"Duck Creek Road, Auckland",3,Climber<br>Module-Small-Boat<br>Swing,22423,http://www.aucklandcity.govt.nz/whatson/places/parksonline/detail2.asp?pParkId=14320,"playground, toilets",
Stranolar Reserve,174.731468471767,-36.9265692244351,"30 Stranolar Drive, Auckland",5,Climbing frame<br>Module<br>Seesaw<br>Spica twirl about<br>Swing T bar,21177,http://www.aucklandcity.govt.nz/whatson/places/parksonline/detail2.asp?pParkId=1960,Playground,Small local green open space.
Stredwick Reserve,174.733448334471,-36.6997635914649,"70 Stredwick Drive, Auckland",2,Module-Medium<br>Swing,12940,http://www.aucklandcity.govt.nz/whatson/places/parksonline/detail2.asp?pParkId=14326,playground,Natural
Streetscape - Maungakiekie-Tamaki,174.854575826459,-36.8887150806747,"Clifton Court, Auckland",2,Module<br>Swing T bar,10072,,,
Sunburst Reserve & Tamatea Espl,174.728749268032,-36.4136153853815,"Sunburst Avenue, Auckland",2,Module-Medium<br>Swing snr,22360,,,
Sunny Crescent - Merlot Heights Reserve,174.543256432361,-36.7698691063816,"33 Merlot Heights, Auckland",1,Module-Medium,22461,,,
Sunnynook Park,174.739816964156,-36.7543969547657,"90 Sunnynook Road, Auckland",3,Module-Medium-Jnr-Comm Centre<br>Module-Medium-Jnr-Tonkin Drive<br>Swing,11072,http://www.aucklandcity.govt.nz/whatson/places/parksonline/detail2.asp?pParkId=14344,"playground, toilets",Local Park - Sport
Sunnynook Square,174.739995729069,-36.7602668103398,"R 130 Sunnynook Road, Auckland",2,Module-Small-Climber spinner<br>Spinner bowl,23464,,,
Sunnyside Domain,174.863316608457,-36.9833297429224,"24R York Road, Auckland",4,Modern Modular (Small)<br>Springy Animal<br>Swing Unit<br>Modern Modular (Large),10877,http://www.aucklandcity.govt.nz/whatson/places/parksonline/detail2.asp?pParkId=14345,playground,Local Park - Leisure
Sunvue Park,174.632476528681,-36.9148226764376,"94 Sunvue Road, Auckland",4,Modern Modular<br>Spinner<br>Spinner<br>Springy Animal<br>Springy Animal<br>Swing Double,22568,http://www.aucklandcity.govt.nz/whatson/places/parksonline/detail2.asp?pParkId=14348,playground,Local Park - Leisure
Surfdale Hall Reserve & Foreshore,175.02259466233,-36.7929557301098,"4 Hamilton Road, Waiheke Island",3,Module<br>Module - climbing<br>Swing T bar,10319,,,
Sutton Park,174.824597482234,-36.9584994983181,"48R Vine Street, Auckland",7,Balancing bridge<br>Climbing frame<br>Roundabout-supernova<br>Stepping pods<br>Slide<br>Swing basket<br>Swing set,21429,http://www.aucklandcity.govt.nz/whatson/places/parksonline/detail2.asp?pParkId=14349,playground,Local Park - Leisure
Swainston Reserve,174.846199579238,-36.8778246103481,"12 John Shaw Drive, Auckland",5,Buzzy bee rocker<br>Junior module<br>Module senior<br>Spica<br>T-bar swing,21571,http://www.aucklandcity.govt.nz/whatson/places/parksonline/detail2.asp?pParkId=1985,Playground,Local green open space.
Swanson Park,174.786278138545,-36.9422309223867,"2R Mcintyre Road, Auckland",3,Modern Modular (Small)<br>Seesaw<br>Swing,10760,http://www.aucklandcity.govt.nz/whatson/places/parksonline/detail2.asp?pParkId=14357,playground,Local Park - Sport
Swanson Station Park,174.575025710642,-36.8657102039392,"760 Swanson Road, Auckland",3,Flying Fox<br>Modern Modular<br>Swing Double,11350,http://www.aucklandcity.govt.nz/whatson/places/parksonline/detail2.asp?pParkId=14359,"BBQ,playground, toilets","Right next door to the Swanson train station with its historic weatherboard building moved from Avondale and restored.  There is  café in the building, and at the park, a BBQ and children's playground with a flying fox."
Swell Park,174.744050441341,-36.6905929269374,"10 Boardwalk Rise, Long Bay",6,Module-large house<br>Pirate tower rope structure<br>rocker boat<br>Seesaw<br>slide tunnel<br>slide tunnel<br>spinner,23845,,,
Taipari Strand,174.638326167601,-36.8374741585868,"53 Taipari Road, Auckland",2,Modern Modular<br>Swing Double,11401,http://www.aucklandcity.govt.nz/whatson/places/parksonline/detail2.asp?pParkId=14375,"playground, toilets",Local Park - Leisure
Taitapu Park,174.628588950957,-36.8426582110069,"25 Taitapu Street, Auckland",3,Fitness Station<br>Fort/Slide<br>Swing Double,22574,http://www.aucklandcity.govt.nz/whatson/places/parksonline/detail2.asp?pParkId=14377,playground,Esplanade Reserve
Takaanini Reserve (aka Taka Reserve),174.922185484959,-37.0406085350169,"24R Taka Street, Auckland South",15,Flying Fox<br>Balancing bars<br>Basket swing<br>Modern modular<br>Climber<br>infant swing<br>Rope climber<br>Rotating cone climber<br>See saw<br>Shockwave-Rocker<br>slide<br>Swing set<br>Twirler Spinner<br>Wave slide<br>Flat rail,11198,,,
Takapuna Rose Gardens,174.771278477459,-36.7871037908594,"42 Anzac Street, Auckland",3,Module-Small-Jnr-Slide<br>Module-Small-Preschool<br>Swing,21147,http://www.aucklandcity.govt.nz/whatson/places/parksonline/detail2.asp?pParkId=14382,playground,Local Park - Leisure
Takaranga Reserve,174.617365522616,-36.9734555799021,"15 Staley Road, Auckland",3,Fort/Slide<br>Single Seesaw<br>Swing Double,22554,http://www.aucklandcity.govt.nz/whatson/places/parksonline/detail2.asp?pParkId=14383,playground,Natural
Talbot Reserve,174.857372441272,-36.8822509841905,"13 Point England Road, Auckland",5,Junior Swings<br>Module junior<br>Senior Swings<br>Supa nova<br>Swings,21343,http://www.aucklandcity.govt.nz/whatson/places/parksonline/detail2.asp?pParkId=2020,Playground,"A large open green space for informal play, and a network of pathways. Three separate artworks onsite, including tiles painted by the local school children, motives design by school children (attached atop of 2 meter high posts fronting onto Flanders Street) and a large carving beside the main pathway fronting onto Pt England Road."
Tamahere Reserve,174.709754439017,-36.7860773614922,"21 Tamahere Drive, Auckland",5,Module-Large-Track Ride<br>Seesaw<br>Slide<br>Springy animal duck<br>Swing,11099,http://www.aucklandcity.govt.nz/whatson/places/parksonline/detail2.asp?pParkId=14385,playground,Natural
Tamariki Reserve,174.649141859293,-36.9601203160873,"753 South Titirangi Road, Auckland",3,Modern Modular<br>Single Slide<br>Swing Double,22577,http://www.aucklandcity.govt.nz/whatson/places/parksonline/detail2.asp?pParkId=14389,playground,"The playground includes extra long slides, climbing walls and swings and there is plenty of green open space for picnics and other activities."
Tangiwai Reserve,174.641566199227,-36.9489789664744,"201 Huia Road, Auckland",1,Swing Double,22578,http://www.aucklandcity.govt.nz/whatson/places/parksonline/detail2.asp?pParkId=14394,playground,Local Park - Leisure
Tapora Recreation Reserve,174.302261016991,-36.3516358956655,"5 Okahukura Road, Auckland",2,Module-Medium<br>Swing snr,11261,,,
Taramea Reserve,174.685065836548,-36.8905820079232,"28 Taramea Street, Auckland",2,Modern Modular<br>Swing Double,21677,http://www.aucklandcity.govt.nz/whatson/places/parksonline/detail2.asp?pParkId=2035,Playground,Local green open space.
Target Reserve,174.732135020861,-36.7624884117021,"80 Target Road, Auckland",3,Skate Item<br>Slide<br>Swing,21152,http://www.aucklandcity.govt.nz/whatson/places/parksonline/detail2.asp?pParkId=14401,playground,Local Park - Leisure
Taroka Reserve,174.7216940936,-36.7271739067351,"3 Taroka Close, Auckland",1,Module-Medium,21891,,,
Tatyana Park,174.627709949432,-36.8339823434212,"24A Tatyana Place, Auckland",4,Modern Modular<br>Modern Modular<br>Modern Modular<br>Springy Animal<br>Stepping Pod<br>Swing Triple,22537,http://www.aucklandcity.govt.nz/whatson/places/parksonline/detail2.asp?pParkId=14407,playground,Local Park - Leisure
Taumata Reserve,174.732051180267,-36.8945541869704,"21 Taumata Road, Auckland",5,Junior unit<br>Senior unit<br>Slide<br>Swings<br>Tube Slide,21133,http://www.aucklandcity.govt.nz/whatson/places/parksonline/detail2.asp?pParkId=2040,Playground,Local green open space.
Taurus Crescent Reserve,174.692477671333,-36.8024169298733,"8 Taurus Crescent, Auckland",4,Flying Fox<br>Overhead Event<br>Slide<br>Swing,20856,http://www.aucklandcity.govt.nz/whatson/places/parksonline/detail2.asp?pParkId=14414,playground,Local Park - Leisure
Taylors Bay Road Reserve,174.75955391107,-36.9290670645445,"Bluff Terrace, Auckland",5,Seesaw<br>Slide<br>Spinner roundabout<br>Stepping logs<br>Swing,20823,,,
Taylors Park,174.752457318427,-36.8849614428935,"39 Mont Le Grand Road, Auckland",6,Basket swing<br>Carosel<br>Lunar spinner<br>Slide<br>Slide<br>Springy car<br>Swing,21196,http://www.aucklandcity.govt.nz/whatson/places/parksonline/detail2.asp?pParkId=2070,"Playground, tables",Local green open space.
Te Atatu Peninsula Park,174.645641018405,-36.8391088003122,"68 Neil Avenue, Auckland",9,Fitness Station-Dip and Crunch Station<br>Fitness Station-Leg Press & Situp Bench<br>Fitness Station-Pulldown Exerciser & Rec<br>Fitness Station-Skier & Horse Rider<br>Fort/Slide<br>Lullaby Swing<br>Modern Modular<br>Supernova<br>Swing Triple,11435,http://www.aucklandcity.govt.nz/whatson/places/parksonline/detail2.asp?pParkId=14426,"playground, toilets",Premier Park - Sport
Te Hana Reserve,174.508873532351,-36.256230352767,"Whakapirau Road, Auckland",2,Module-Medium<br>Swing,22367,http://www.aucklandcity.govt.nz/whatson/places/parksonline/detail2.asp?pParkId=14429,playground,
"Te Moau Rsv & River Espl, Parakai Av",174.437366161057,-36.6641428590689,"25 Te Moau Avenue (adjacent to), Auckland",2,Module-Medium<br>Swing,22474,,,
Te Pai Park,174.63069071348,-36.8617715662484,"Te Pai Place, Auckland",3,Modern Modular<br>Space Net<br>Swing Hexagon,11376,http://www.aucklandcity.govt.nz/whatson/places/parksonline/detail2.asp?pParkId=14440,"playground, toilets","The park includes a state of the art playground that includes interactive swings and rope climbing, a skate park and tennis courts."
Te Puru Park,175.015709607,-36.8846456944156,"954R Whitford Maraetei Road, Auckland",2,Modern Modular (Large)<br>Swing,10887,http://www.aucklandcity.govt.nz/whatson/places/parksonline/detail2.asp?pParkId=14444,"playground, toilets",Local Park - Sport
Te Toro Recreation Reserve,174.698285191327,-37.1522258510283,"Te Toro Road, Auckland",2,Slide<br>Swing,21244,,,
Temuka Gardens,174.697160507439,-36.9121252433169,"33 Terracotta Drive, Auckland",2,Modern Modular<br>Swing Double,21598,http://www.aucklandcity.govt.nz/whatson/places/parksonline/detail2.asp?pParkId=2110,Playground,Local green open space.
Teviot Reserve,174.72394080877,-36.7671923641226,"6 Teviot Place, Auckland",5,Overhead Event<br>Seesaw-Spring<br>Slide<br>Spinner bowl<br>Swing,21156,http://www.aucklandcity.govt.nz/whatson/places/parksonline/detail2.asp?pParkId=14451,playground,Local Park - Leisure
The Esplanade Blackpool,175.013519401169,-36.7895343218549,"The Esplanade, Waiheke Island",1,Swing T bar,20554,,,
Thompson Park,174.833288663841,-36.8997118770055,"50 Banks Road, Auckland",4,Large module<br>Spica<br>Spica<br>Springy seesaw<br>Swing,10239,http://www.aucklandcity.govt.nz/whatson/places/parksonline/detail2.asp?pParkId=2135,"Playground, tables","A medium open space used by Mt Wellington Rugby League Club for league and softball. Mainly surrounded by residential housing, has it's own parking facilities."
Times Place Recreation Reserve,174.890354160158,-37.1919618238541,"6 Times Place, Auckland",3,Modern Modular (Large)<br>Modern Modular (Small)<br>Swing,21495,http://www.aucklandcity.govt.nz/whatson/places/parksonline/detail2.asp?pParkId=14484,playground,Local Park - Leisure
Tin Boat Reserve,175.081142818253,-36.7901664311213,"16 Fourth Avenue, Waiheke Island",3,Large module<br>Small module<br>Swing T bar,20654,http://www.aucklandcity.govt.nz/whatson/places/parksonline/detail2.asp?pParkId=2145,,Walkway to Pah Road.
Tin Tacks Reserve,174.784769121552,-36.9156992760169,"371 Onehunga Mall, Auckland",2,Module<br>Swing,10058,http://www.aucklandcity.govt.nz/whatson/places/parksonline/detail2.asp?pParkId=2150,"Playground, table",A small open space enjoyed by locals especially children who make use of the playground. Next to the main road leading down into the Onehunga Mall Shopping Centre.
Tirotai Reserve,174.716028736611,-36.8542858542249,"6 Tirotai Crescent, Auckland",4,Low Tunnel<br>Module - small<br>Swing<br>Whale springy rider,21444,http://www.aucklandcity.govt.nz/whatson/places/parksonline/detail2.asp?pParkId=2155,"Barbecue, playground",Local green open space space.
Titirangi Beach,174.658805887822,-36.9510107333331,"Titirangi Beach Road, Auckland",7,Fitness Station<br>Fort/Slide<br>Single Seesaw<br>Springy Animal<br>Springy Animal<br>Stepping Logs<br>Supernova<br>Swing Triple,11369,http://www.aucklandcity.govt.nz/whatson/places/parksonline/detail2.asp?pParkId=14497,"playground, toilets",Great for a dip in the water or enjoy a secluded picnic area backed by lush native bush.
Tole Reserve,174.740906378112,-36.8509593501718,"104 Clarence Street, Auckland",8,Junior Module<br>Lunar<br>Seesaw<br>Senior Module<br>Springy animal<br>Stepping logs<br>Swings<br>Track glide,21390,http://www.aucklandcity.govt.nz/whatson/places/parksonline/detail2.asp?pParkId=2160,"Playground, boardwalk",Local green open space space.
Topland Park,174.924131638086,-36.9610434934141,"8R Topland Drive, Auckland",6,PLAT-Above slide<br>Roundabout<br>Slide<br>Springy bee<br>Swing basket<br>Swing unit,21540,,,
Torino Reserve,174.86369204057,-36.8888472216092,"58 Torino Street, Auckland",3,Basket swing<br>Junior module<br>Senior module,23106,http://www.aucklandcity.govt.nz/whatson/places/parksonline/detail2.asp?pParkId=2170,Playground,"A medium open space enjoyed by locals. Has links to many other small to medium reserves in the area. Mainly surrounded by residential housing but because it is so open, has many opportunities for fun."
Tornado Reserve,174.634938154192,-36.8125867275831,"19 Tornado Place, Auckland",2,Module-Large<br>Swing,22546,http://www.aucklandcity.govt.nz/whatson/places/parksonline/detail2.asp?pParkId=14514,playground,Local Park - Leisure
Totara Views Reserve,174.683298120698,-36.6085259948373,"Totara Views Drive, Auckland",7,Module-Medium<br>Module-Small-Navigator<br>Spinner<br>Spinner<br>Springy animal<br>Swing<br>Swing snr<br>Swing Jnr,20653,http://www.aucklandcity.govt.nz/whatson/places/parksonline/detail2.asp?pParkId=14521,playground,
Totaravale Reserve,174.734804763114,-36.7598315713684,"37 Totaravale Drive, Auckland",3,Flying Fox<br>Module-Large<br>Module-Small-Jnr,11075,,,
Township Park,174.544048883046,-36.848906436556,"Township Road, Auckland",2,Modern Modular<br>Swing Double,11330,http://www.aucklandcity.govt.nz/whatson/places/parksonline/detail2.asp?pParkId=14523,"playground, toilets",Local Park - Leisure
Triangle Park,174.602667409663,-36.8363239090463,"Don Buck Road, Auckland",5,Flying Fox<br>Space Net<br>Spinner<br>Springy Animal<br>Springy Animal<br>Springy Animal<br>Springy Animal<br>Swing Hexagon,11374,http://www.aucklandcity.govt.nz/whatson/places/parksonline/detail2.asp?pParkId=14531,"playground, toilets","A feature of the park is a 40 metres long flying fox. Other facilities include an adventure playground, basketball half court, a large flat grass area for sports and plenty of places to sit down and relax."
Trusts Esplanade Reserve,174.636995108861,-36.8612259099218,"59-77 Central Park Drive, Auckland",2,Modern Modular<br>Modern Modular<br>Stepping Logs,24050,,,
Tui Glen Reserve,174.636343172361,-36.8748214746585,"2 Claude Brookes Drive, Auckland",6,Climbing Frame<br>Flying Fox<br>Modern Modular<br>Slide<br>Swing Double<br>Treetops Play Space<br>Treetops Play Space,11460,http://www.aucklandcity.govt.nz/whatson/places/parksonline/detail2.asp?pParkId=14543,"playground, toilets","Named for the great number of Tui's that fed on the Kowhai nectar of the stream banks original vegetation, Tui Glen is a rolling landscape of open space, large trees and history.  Registered as the first camping ground in the country in 1925, it contains"
Tui Park,174.682735501412,-36.78761300178,"39 Rambler Crescent, Auckland",7,Seesaw<br>Slide<br>Spacenet<br>Spinner<br>Swing<br>Swing snr<br>Skate Tricks<br>Skate Tricks<br>Skate Tricks,10924,http://www.aucklandcity.govt.nz/whatson/places/parksonline/detail2.asp?pParkId=14544,"BBQ,playground",Local Park - Leisure
Tuna Place Reserve,174.779753678519,-36.3441664450183,"Tuna Place, Omaha",3,Roctopus<br>Spinner<br>Swing,22154,,,
Turner Reserve,174.732182094434,-36.9136502548878,"1 Glynn Street, Auckland",6,Flying fox<br>Module slide<br>Spinner swing<br>Spinner top net<br>Springy skateboard<br>Swings,20894,http://www.aucklandcity.govt.nz/whatson/places/parksonline/detail2.asp?pParkId=2175,Playground,Local green open space space.
Twomey Drive Reserve,174.921690388325,-37.1863353194968,"37 Tworney Drive, Auckland",3,Large module<br>Spinning Cup<br>Springy seesaw,21398,,,
Unsworth Reserve,174.718399340362,-36.760943671237,"74 Barbados Drive, Auckland",5,Fitness device<br>Fitness device<br>FITN-3rd from playground<br>Fitness device<br>Module-Medium<br>Spinner<br>Swing,21906,http://www.aucklandcity.govt.nz/whatson/places/parksonline/detail2.asp?pParkId=15005,playground,Local Park - Leisure
Urlich Esplanade Reserve,174.595102911637,-36.8612391785428,"45 Urlich Drive, Auckland",3,Fort/Slide<br>Modern Modular<br>Swing Double,22018,http://www.aucklandcity.govt.nz/whatson/places/parksonline/detail2.asp?pParkId=15007,playground,"The home of the Waimoko track which runs parallel to the Swanson stream. The area is lush with restored native vegetation. Trees such as matipo and manuka draw native birds and shade the freshwater insects, fish and eels inhabiting the stream. The walkway"
Vandeleur Reserve,174.710145903438,-36.7968766044399,"39 Vandeleur Avenue, Auckland",3,Module-Small-Slide<br>Seesaw<br>Swing,20800,http://www.aucklandcity.govt.nz/whatson/places/parksonline/detail2.asp?pParkId=15014,playground,Local Park - Leisure
Vermont Reserve,174.739849673835,-36.8537875840931,"98 Vermont Street, Auckland",3,Double seesaw<br>Module<br>Swing T bar,21396,http://www.aucklandcity.govt.nz/whatson/places/parksonline/detail2.asp?pParkId=2210,Playground,Local area reserve including a childrens playground.
Victor Eaves Park,174.688959478931,-36.584520533197,"122 West Hoe Road, Auckland",4,Abacus<br>Module-Large<br>Seesaw-Spring<br>Swing,11263,http://www.aucklandcity.govt.nz/whatson/places/parksonline/detail2.asp?pParkId=15020,"playground, toilets",
Victoria Park,174.755040563943,-36.8478863770622,"203-271 Victoria Street West, Auckland Central",8,Baby swing<br>Climber<br>Module<br>Roundabout<br>Roundabout<br>Seesaw<br>Seesaw<br>Slide<br>Swings<br>Track glide,10200,http://www.aucklandcity.govt.nz/whatson/places/parksonline/detail2.asp?pParkId=2220,"The path is used by walkers and joggers. The fields are used extensively for active recreation, both formal and informal. The main codes are cricket, touch, rugby, rugby league and soccer. A petanque court, childrens playground and skate park also receive heavy usage. An area is also leased for bowling greens.","Victoria Park is a significant public open space located within the western basin of the central business district. The park is surrounded on all four sides by key roads - Victoria Street West, Halsey, Fanshawe and Beaumont Streets. It consists of mainly large flat, grassed playing fields encircled by an historic pathway, lined with dominant london plane trees."
Virginia Reserve,174.754437649192,-36.8646119751023,"55 Virginia Avenue West, Auckland",2,Module<br>Swings,20930,,,
Virgo Common,174.635811541317,-36.9175193398182,"Virgo Place, Auckland",2,Modern Modular<br>Swing Double,21021,http://www.aucklandcity.govt.nz/whatson/places/parksonline/detail2.asp?pParkId=15027,playground,Local Park - Leisure
Waiake Beach Reserve,174.751927728247,-36.7022611167282,"921 Beach Road, Auckland",3,Slide<br>Spacenet Swing Trampoline<br>Swing keyhole Jnr,20074,,,
Waiatarua Reserve (Remuera),174.820672680702,-36.88601569108,"98 Abbotts Way, Auckland",6,Grasshopper rocker<br>Module<br>Module<br>Overhead spinner<br>Seesaw<br>Spica<br>Swing,10253,,,
Waiheke Island Sports Club,175.040743459264,-36.7967269335433,"43 Causeway Road, Waiheke Island",2,Module<br>Springy animal rocker,10028,,,
Waikowhai Park,174.735178423971,-36.9334550765458,"8 Waikowhai Road, Auckland Central",5,Flying Fox<br>Module<br>Roktopus<br>Slide<br>Swing,10250,http://www.aucklandcity.govt.nz/whatson/places/parksonline/detail2.asp?pParkId=2255,For more information see the Waikowhai circles section of the Manukau coastal walks which passes through the reserve.,"Waiokowhai (Kowhai by the water) boasts the largest block of native forest left in Auckland city. Originally part of the grant to the Wesley Mission, the land considered too infertile for farming, so was uncleared. The forest is host to a valuable sample of Auckland's original fauna and flora, especially in spring when the whole valley is ablase with yellow flowering kowhai. This in turn brings out the tui, rosella and kingfisher."
Waima Reserve,174.636363797156,-36.9412500628076,"2 Boylan Road, Auckland",2,Modern Modular<br>Swing Double,21048,http://www.aucklandcity.govt.nz/whatson/places/parksonline/detail2.asp?pParkId=15054,"playground, toilets",Local Park - Leisure
Waimoko Glen Reserve,174.596868908477,-36.8579819136998,"Waimoko Glen, Auckland",1,Modern Modular,20928,http://www.aucklandcity.govt.nz/whatson/places/parksonline/detail2.asp?pParkId=15066,playground,Local Park - Leisure
Wainoni Park North,174.674296646825,-36.7676429531841,"56 Churchouse Road, Auckland",9,Archways<br>Slide triple<br>Spinner bowl<br>Spinner bowl<br>Spinner bowl<br>Spinner bowl<br>Spinner bowl<br>Spinner bowl<br>Spinner<br>Spinner roundabout<br>Stairs & Deck to Slide<br>Swing<br>Tractor<br>Water Feature,10930,http://www.aucklandcity.govt.nz/whatson/places/parksonline/detail2.asp?pParkId=15068,"playground, toilets",Local Park - Sport
Wairaki Stream Reserve 1,174.712146540257,-36.9264824790868,"9 Flavia Place, Auckland",4,Module<br>Roundabout<br>Seesaw<br>Swing,21543,,,
Wairoa Road Reserve,174.802558879906,-36.820492842304,"1 Narrow Neck, Auckland",7,Archway<br>Archway<br>Archway<br>Archway<br>Climber-Car<br>Climber-Tunnel<br>Module-Medium<br>Mushroom table & 4 Stools<br>Mushroom table & 4 Stools<br>Seesaw<br>Swing,11088,http://www.aucklandcity.govt.nz/whatson/places/parksonline/detail2.asp?pParkId=15077,playground,Local Park - Leisure
Wairua Reserve,174.805325978598,-36.8831237179211,"477 Remuera Road, Auckland",4,Flying Fox<br>Module<br>Seesaw<br>Swings,21803,http://www.aucklandcity.govt.nz/whatson/places/parksonline/detail2.asp?pParkId=2275,Playground,The top section closest to Remuera Road is an open space of green grass with trees on its borders and a group right in the middle of the section. Includes a children's playground and park seats.
Waitakere War Memorial Park,174.539501690585,-36.8514211854536,"Bethells Road, Auckland",3,Modern Modular<br>Springy Animal<br>Swing Double,11372,http://www.aucklandcity.govt.nz/whatson/places/parksonline/detail2.asp?pParkId=15082,playground,A quiet reserve set in a tranquil semi-rural neighbourhood at the start of the road to Bethells Beach.  The field has soccer posts.
Wakeling Park,174.649155338658,-36.8666343959049,"12 Wakeling Avenue, Auckland",3,Modern Modular<br>Modern Modular<br>Playground Track<br>Swing Triple,21093,http://www.aucklandcity.govt.nz/whatson/places/parksonline/detail2.asp?pParkId=15097,playground,Local Park - Leisure
Waldorf Reserve,174.677668270662,-36.5811398445082,"22 Waldorf Crescent, Orewa",2,Module-Large<br>Swing,20697,http://www.aucklandcity.govt.nz/whatson/places/parksonline/detail2.asp?pParkId=15098,playground,
Walker Park,174.70374915701,-36.8641158159397,"7 Walker Road, Auckland",9,Climbing Module<br>Fantail roundabout<br>Fitness Station<br>Fitness Station<br>Fitness Station<br>Fitness Station<br>Fitness Station<br>Fitness Station<br>Fitness Station<br>Fitness Station<br>Fitness Station<br>Fitness Station<br>Module junior<br>Seesaw<br>Small module<br>Spica<br>Spica<br>Springy rocker<br>Swing,10004,http://www.aucklandcity.govt.nz/whatson/places/parksonline/detail2.asp?pParkId=2290,"Barbecue, tables, playground, pergola, drinking fountain, toilets","A great open space covering approximately 5 hectares, with trees used as shade on a hot day that sit along the fringe of the park. Lovely for either passive use, making use of the location and openness or active use, soccer, rugby - whatever the heart or body desires."
Walter Massey Park,174.828295743546,-36.966347662748,"380R Massey Road, Auckland",12,Swing<br>Basket swing<br>Basket swing-Large<br>Junior module<br>Modern modular<br>Monkey bar<br>Sping dolphin<br>Spinner<br>Spinner roundabout<br>Spring bird<br>Stepping logs<br>Swing set with basket swing,10619,http://www.aucklandcity.govt.nz/whatson/places/parksonline/detail2.asp?pParkId=15102,"playground, toilets",Local Park - Sport
Wanita Reserve,174.726603562669,-36.7653597955694,"5 Wanita Place, Auckland",4,Log Roll<br>Module-Medium<br>Springy animal fox<br>Swing,21006,http://www.aucklandcity.govt.nz/whatson/places/parksonline/detail2.asp?pParkId=15104,playground,Local Park - Leisure
Warkworth Service Centre & Library Grou.,174.666272222208,-36.3973125679464,"1A Baxter Street, North Shore",25,Blue Arch Bridge<br>Blue Panel<br>Bubble<br>Climber-Blue<br>Climber<br>Climbing Rail<br>Embankment slide<br>Firetruck<br>Hammock - small<br>Hut with Tunnel<br>Mosaic Hop Scotch<br>Overhead Bars<br>Rope Walk Bridge<br>Rope Wall Climber<br>Seat panels<br>Seesaw-Spring<br>Slide-Tunnel<br>springy skateboard<br>Stepping logs<br>Steps to Tunnel Slide<br>Suspended Rope Walk<br>Swing flower Jnr<br>Swing flower Jnr<br>Swing Jnr<br>Timber pods under shade<br>Timber Stepping Logs,11247,,,
Warkworth Showgrounds,174.65141210188,-36.3893579347889,"2 Great North Road, Auckland",7,double seater dolphin<br>Flying Fox<br>Module-Small-Jnr<br>Spacenet<br>Spinner<br>Spinner<br>Supernova<br>Swing,22308,,,
Warren Freer Park,174.736720108897,-36.8834957347412,"19 Watson Avenue, Auckland",3,Fitness Station<br>Fitness Station<br>Module<br>Swing,10303,http://www.aucklandcity.govt.nz/whatson/places/parksonline/detail2.asp?pParkId=2310,Playground,Home of the Ramblers softball club it is also used for rugby during the winter months. One small sports field but well used.
Waterview Reserve,174.701494113901,-36.8755129668381,"19 Herdman Street, Auckland",11,Canoe<br>Digger<br>Embankment slides<br>Junior module<br>Lunar net<br>Rocker seesaw<br>Senior module<br>Splash pad<br>Swings<br>Swings<br>Tube slide<br>Water play<br>Water play,10288,http://www.aucklandcity.govt.nz/whatson/places/parksonline/detail2.asp?pParkId=2325,,"Located at the mouth of the Whau River. Nice coastal walk, pleasant scenic views, open space that caters for league, consisting of one field only."
Watling Reserve,174.761778346888,-36.8950249706411,"35 Watling Street, Auckland",4,Butterfly see saw<br>Seesaw<br>Slide<br>Swings,21188,http://www.aucklandcity.govt.nz/whatson/places/parksonline/detail2.asp?pParkId=2330,"Playground, table",Attractive neighbourhood park with large trees and a children's playground.
Wattle Downs Esplanade Reserve,174.880955338371,-37.0485945217415,"201R Wattle Farm Road, Auckland",5,Modern Modular (Small)<br>Roundabout<br>Sail Boat<br>Slide<br>Swing,20178,http://www.aucklandcity.govt.nz/whatson/places/parksonline/detail2.asp?pParkId=15118,playground,Esplanade
Weiti Views Reserve,174.716305265735,-36.6228652676752,"5 Blue Heron Rise, Stanmore Bay",2,Module-Medium<br>Swing T bar,22418,http://www.aucklandcity.govt.nz/whatson/places/parksonline/detail2.asp?pParkId=15121,playground,
Wellington Street Reserve - Pukekohe,174.898304976006,-37.2162296797916,"190 Wellington Street, Pukekohe",6,Arm Pull<br>Leg Press<br>Leg Swing<br>Rowing<br>FITN-Stair Climber. Henry Curd Entrance<br>Wheelchair swing,10514,,,
Wellsford Centennial Park,174.531894906721,-36.302244873183,"83 Centennial Park Road, Auckland",3,Module-Medium<br>Slide<br>Swing,11211,http://www.aucklandcity.govt.nz/whatson/places/parksonline/detail2.asp?pParkId=15126,"playground, toilets",
Wellsford War Memorial Park,174.522693991667,-36.2982443793493,"15 Port Albert Road, Wellsford",1,Swing,11290,http://www.aucklandcity.govt.nz/whatson/places/parksonline/detail2.asp?pParkId=15129,playground,
Wentworth Park,174.693840201572,-36.7413470254999,"Wentworth Park, Auckland",1,Module-Small,21847,,,
West Harbour Esplanade - West,174.633953808911,-36.8228831377507,"93-97 West Harbour Drive, Auckland",2,Modern Modular<br>Swing Double,23622,,,
West Reserve,174.754240672158,-36.919212626197,"21 Currie Avenue, Auckland Central",3,"Flying Fox<br>Module - slide, cable commando sail, hut<br>Swings",10278,http://www.aucklandcity.govt.nz/whatson/places/parksonline/detail2.asp?pParkId=2350,,Medium local reserve.
West Tamaki Reserve,174.870877454373,-36.8695333727083,"199A West Tamaki Road, Auckland",1,Module Medium,21303,http://www.aucklandcity.govt.nz/whatson/places/parksonline/detail2.asp?pParkId=2355,"Playground, tables",Small local reserve.
Western Park - Freemans Bay,174.75250308448,-36.8551728027512,"5 Ponsonby Road, Auckland",13,Balance beam<br>Double wave slide<br>Fitness Station<br>Fitness Station<br>Fitness Station<br>Fitness Station<br>Fitness Station<br>Fitness Station<br>Fitness Station<br>Fitness Station<br>Fitness Station<br>Flying Fox<br>Junior Slide unit<br>Monkey Bars<br>Overhead bars<br>Overhead bars<br>Seesaw<br>Slide<br>Stainless steel slide - short<br>Swings<br>Tube Slide and platform<br>Tube Slide with bermese bridge entrance,10356,,,
Western Springs Lakeside,174.721753428849,-36.8646468954278,"859 Great North Road, Auckland Central",9,Dynamo rotating net<br>Junior module<br>Junior module<br>Module - junior<br>Roktopus<br>Seesaw<br>Senior module<br>Swing<br>Swing<br>Swing<br>Swing T bar<br>Swing tyre,10348,,,
Whangateau Holiday Park Grounds,174.765842677199,-36.3152189973605,"559 Leigh Road, North Shore",2,Module-Small-Jnr<br>Swing,11274,,,
Whangateau Reserve,174.769158307147,-36.3141411736773,"533 Leigh Road, Whangateau",2,Module-Medium<br>Swing,23516,http://www.aucklandcity.govt.nz/whatson/places/parksonline/detail2.asp?pParkId=15161,"BBQ,playground, toilets",
Wharf Reserve - Albany,174.687983137894,-36.7372692196916,"29 Wharf Road, Auckland",2,Module-Medium<br>Swing,22103,,,
Wharua Reserve,174.793987383673,-36.8677946312438,"6 Wharua Road, Auckland",4,Luna spinner<br>Module<br>Springy rocker<br>Swings,21806,http://www.aucklandcity.govt.nz/whatson/places/parksonline/detail2.asp?pParkId=2385,"Playground, boardwalk",Big local reserve.
Whiteacres Park,174.890582872536,-36.8993079386905,"20R Whiteacres Drive, Auckland",1,Goal Posts - Steel-Rugby,22326,http://www.aucklandcity.govt.nz/whatson/places/parksonline/detail2.asp?pParkId=15174,playground,Local Park - Leisure
William Fraser Reserve,174.779684144648,-36.3394661769939,"37 Broadlands Drive, Omaha",2,Module-Medium<br>Swing,22134,http://www.aucklandcity.govt.nz/whatson/places/parksonline/detail2.asp?pParkId=15190,"BBQ,playground, toilets",
William Green Domain,174.908272483767,-36.8969414831266,"600R Pakuranga Road, Auckland East",6,Concrete Tunnel<br>Concrete Tunnel<br>Embankment slide<br>Small roundabout<br>Spring Seesaw<br>Stepping logs<br>Swing set,10719,,,
William Souter Reserve,174.748827161642,-36.7544299929573,"39 William Souter Street, Auckland",1,Swing,20964,,,
Windsor Reserve,174.797831420396,-36.8319057372709,"2 Victoria Road, Auckland",3,Module-Medium-Fort<br>Seesaw - Standard<br>Slide,20007,http://www.aucklandcity.govt.nz/whatson/places/parksonline/detail2.asp?pParkId=15207,"playground, toilets",Premier Park - Leisure
Windy Ridge Reserve,174.713471216807,-36.7902894342115,"2 Windy Ridge Road, Auckland",2,Module-Medium<br>Swing,22218,http://www.aucklandcity.govt.nz/whatson/places/parksonline/detail2.asp?pParkId=15208,playground,Local Park - Leisure
Wintere Park,174.866272211089,-36.9689965452576,"34 Wintere Road, Auckland",3,Small modular<br>Step'g pods<br>Step'g pods<br>Step'g pods<br>Step'g pods<br>Swing unit,20283,,,
Withers Reserve,174.645563665956,-36.9233935481485,"29 Withers Road, Auckland",2,Modern Modular<br>Swing Double,20923,http://www.aucklandcity.govt.nz/whatson/places/parksonline/detail2.asp?pParkId=15220,playground,Local Park - Leisure
Wood Bay Reserve,174.664668011055,-36.9439919185515,"Wood Bay Road, Auckland",1,Swing Double,21063,http://www.aucklandcity.govt.nz/whatson/places/parksonline/detail2.asp?pParkId=15223,,Natural
Woodlands Park,174.631321148748,-36.9514659932447,"Minnehaha Avenue, Auckland",3,Modern Modular<br>Sandpit<br>Swing Double,11361,http://www.aucklandcity.govt.nz/whatson/places/parksonline/detail2.asp?pParkId=15234,playground,Local Park - Leisure
Woodridge Reserve,174.73018328968,-36.7125865757069,"19 Woodridge Avenue, Auckland",1,Module-Medium,22239,,,
Worthington Road Reserve,174.53210077444,-36.2918971686057,"Worthington Road, Wellsford",1,Swing snr,22338,http://www.aucklandcity.govt.nz/whatson/places/parksonline/detail2.asp?pParkId=15243,playground,
Xena Park,174.605087826575,-36.8835321478346,"41 Lake Panorama Drive, Auckland",6,Log Climber<br>Modern Modular<br>Roctopus<br>Single Seesaw<br>Springy Animal<br>Swing Quad,21321,,,
Yates Park,174.820912280708,-36.9625258593947,"79R Yates Road, Auckland",3,Modern modular<br>Spinner<br>Swing unit,20434,http://www.aucklandcity.govt.nz/whatson/places/parksonline/detail2.asp?pParkId=15247,playground,Local Park - Leisure
Zita Maria Park,174.612984970359,-36.8483090348029,"32 Zita Maria Drive, Auckland",4,Modern Modular<br>Spica<br>Supernova<br>Swing Double,22014,http://www.aucklandcity.govt.nz/whatson/places/parksonline/detail2.asp?pParkId=15253,playground,Local Park - Sport
